<?xml version="1.0" encoding="UTF-8"?>
<gpx creator="Garmin Connect" version="1.1"
  xsi:schemaLocation="http://www.topografix.com/GPX/1/1 http://www.topografix.com/GPX/11.xsd"
  xmlns:ns3="http://www.garmin.com/xmlschemas/TrackPointExtension/v1"
  xmlns="http://www.topografix.com/GPX/1/1"
  xmlns:xsi="http://www.w3.org/2001/XMLSchema-instance" xmlns:ns2="http://www.garmin.com/xmlschemas/GpxExtensions/v3">
  <metadata>
    <name>GR92 Etappi 15: Vallgorguina -&gt; Llinars del Valles</name>
    <link href="connect.garmin.com">
      <text>Garmin Connect</text>
    </link>
    <time>2026-04-15T06:16:08.000Z</time>
  </metadata>
  <trk>
    <name>GR92 Etappi 15: Vallgorguina -&gt; Llinars del Valles</name>
    <trkseg>
      <trkpt lat="41.64833181537688" lon="2.509868536144495">
        <ele>222.66</ele>
      </trkpt>
      <trkpt lat="41.64822586812079" lon="2.510054111480713">
        <ele>223.08</ele>
      </trkpt>
      <trkpt lat="41.648032665252686" lon="2.5103759765625">
        <ele>223.8</ele>
      </trkpt>
      <trkpt lat="41.647818088531494" lon="2.5101613998413086">
        <ele>223.97</ele>
      </trkpt>
      <trkpt lat="41.647603595629334" lon="2.509946823120117">
        <ele>224.18</ele>
      </trkpt>
      <trkpt lat="41.64746412076056" lon="2.509828805923462">
        <ele>224.3</ele>
      </trkpt>
      <trkpt lat="41.647324562072754" lon="2.5097107887268066">
        <ele>224.3</ele>
      </trkpt>
      <trkpt lat="41.647163378074765" lon="2.509597297757864">
        <ele>224.28</ele>
      </trkpt>
      <trkpt lat="41.64700244553387" lon="2.5094840582460165">
        <ele>224.3</ele>
      </trkpt>
      <trkpt lat="41.64700227789581" lon="2.509483974426985">
        <ele>224.31</ele>
      </trkpt>
      <trkpt lat="41.647002110257745" lon="2.509483890607953">
        <ele>224.32</ele>
      </trkpt>
      <trkpt lat="41.64700202643871" lon="2.5094838067889214">
        <ele>224.33</ele>
      </trkpt>
      <trkpt lat="41.64674520492554" lon="2.509303092956543">
        <ele>224.41</ele>
      </trkpt>
      <trkpt lat="41.646841848269105" lon="2.509120451286435">
        <ele>224.28</ele>
      </trkpt>
      <trkpt lat="41.64693840779364" lon="2.5089383125305176">
        <ele>224.19</ele>
      </trkpt>
      <trkpt lat="41.64706723764539" lon="2.508702026680112">
        <ele>224.11</ele>
      </trkpt>
      <trkpt lat="41.64719581604004" lon="2.5084662437438965">
        <ele>224.11</ele>
      </trkpt>
      <trkpt lat="41.64736747741699" lon="2.5082945823669434">
        <ele>224.07</ele>
      </trkpt>
      <trkpt lat="41.647324645891786" lon="2.5079727172851562">
        <ele>224.11</ele>
      </trkpt>
      <trkpt lat="41.647324562072754" lon="2.5079727172851562">
        <ele>224.01</ele>
      </trkpt>
      <trkpt lat="41.64741039276123" lon="2.507951259613037">
        <ele>223.84</ele>
      </trkpt>
      <trkpt lat="41.647517681121826" lon="2.5078225135803223">
        <ele>223.67</ele>
      </trkpt>
      <trkpt lat="41.64764642715454" lon="2.50762939453125">
        <ele>223.42</ele>
      </trkpt>
      <trkpt lat="41.64776452817023" lon="2.5073500256985426">
        <ele>223.13</ele>
      </trkpt>
      <trkpt lat="41.64788246154785" lon="2.5070714950561523">
        <ele>222.83</ele>
      </trkpt>
      <trkpt lat="41.64800056256354" lon="2.506888937205076">
        <ele>222.35</ele>
      </trkpt>
      <trkpt lat="41.64811849594116" lon="2.506706714630127">
        <ele>221.68</ele>
      </trkpt>
      <trkpt lat="41.64832217618823" lon="2.5065673235803843">
        <ele>220.69</ele>
      </trkpt>
      <trkpt lat="41.648526191711426" lon="2.506427764892578">
        <ele>219.68</ele>
      </trkpt>
      <trkpt lat="41.64859056472778" lon="2.506535053253174">
        <ele>218.86</ele>
      </trkpt>
      <trkpt lat="41.64884805679321" lon="2.5064492225646973">
        <ele>217.86</ele>
      </trkpt>
      <trkpt lat="41.64895534515381" lon="2.5063204765319824">
        <ele>216.99</ele>
      </trkpt>
      <trkpt lat="41.6490198019892" lon="2.5061054807156324">
        <ele>216.25</ele>
      </trkpt>
      <trkpt lat="41.64908409118652" lon="2.5058913230895996">
        <ele>215.62</ele>
      </trkpt>
      <trkpt lat="41.64919146336615" lon="2.505644140765071">
        <ele>215.06</ele>
      </trkpt>
      <trkpt lat="41.649298667907715" lon="2.5053977966308594">
        <ele>214.55</ele>
      </trkpt>
      <trkpt lat="41.64933789521456" lon="2.50498590990901">
        <ele>214.14</ele>
      </trkpt>
      <trkpt lat="41.64937695488334" lon="2.504573604092002">
        <ele>213.67</ele>
      </trkpt>
      <trkpt lat="41.64937695488334" lon="2.5045742746442556">
        <ele>213.3</ele>
      </trkpt>
      <trkpt lat="41.64937695488334" lon="2.504575029015541">
        <ele>212.96</ele>
      </trkpt>
      <trkpt lat="41.64937695488334" lon="2.50457595102489">
        <ele>212.64</ele>
      </trkpt>
      <trkpt lat="41.64938449859619" lon="2.5044965744018555">
        <ele>212.35</ele>
      </trkpt>
      <trkpt lat="41.64936304092407" lon="2.504260540008545">
        <ele>212.09</ele>
      </trkpt>
      <trkpt lat="41.64923429489136" lon="2.5040459632873535">
        <ele>211.78</ele>
      </trkpt>
      <trkpt lat="41.649035727605224" lon="2.5037991162389517">
        <ele>211.51</ele>
      </trkpt>
      <trkpt lat="41.64883716031909" lon="2.50355226919055">
        <ele>211.25</ele>
      </trkpt>
      <trkpt lat="41.648638593032956" lon="2.503305422142148">
        <ele>210.94</ele>
      </trkpt>
      <trkpt lat="41.64844036102295" lon="2.503058910369873">
        <ele>210.49</ele>
      </trkpt>
      <trkpt lat="41.64821865968406" lon="2.5028514582663774">
        <ele>209.96</ele>
      </trkpt>
      <trkpt lat="41.647996958345175" lon="2.5026440899819136">
        <ele>209.41</ele>
      </trkpt>
      <trkpt lat="41.647775173187256" lon="2.502436637878418">
        <ele>208.9</ele>
      </trkpt>
      <trkpt lat="41.647678446024656" lon="2.5022324547171593">
        <ele>208.53</ele>
      </trkpt>
      <trkpt lat="41.647582054138184" lon="2.5020289421081543">
        <ele>208.14</ele>
      </trkpt>
      <trkpt lat="41.6475067846477" lon="2.501674136146903">
        <ele>207.74</ele>
      </trkpt>
      <trkpt lat="41.64743193425238" lon="2.5013208389282227">
        <ele>207.31</ele>
      </trkpt>
      <trkpt lat="41.64739958010614" lon="2.50108421780169">
        <ele>206.96</ele>
      </trkpt>
      <trkpt lat="41.64736747741699" lon="2.5008487701416016">
        <ele>206.63</ele>
      </trkpt>
      <trkpt lat="41.64730293676257" lon="2.5005799625068903">
        <ele>206.36</ele>
      </trkpt>
      <trkpt lat="41.64723873138428" lon="2.500312328338623">
        <ele>206.14</ele>
      </trkpt>
      <trkpt lat="41.647233702242374" lon="2.5002378970384598">
        <ele>206.0</ele>
      </trkpt>
      <trkpt lat="41.647233702242374" lon="2.5002377294003963">
        <ele>205.88</ele>
      </trkpt>
      <trkpt lat="41.647233702242374" lon="2.500237561762333">
        <ele>205.8</ele>
      </trkpt>
      <trkpt lat="41.647233786061406" lon="2.5002376455813646">
        <ele>205.77</ele>
      </trkpt>
      <trkpt lat="41.647214675322175" lon="2.499952409416437">
        <ele>205.94</ele>
      </trkpt>
      <trkpt lat="41.64719581604004" lon="2.499668598175049">
        <ele>206.42</ele>
      </trkpt>
      <trkpt lat="41.64723881520331" lon="2.4994427897036076">
        <ele>206.67</ele>
      </trkpt>
      <trkpt lat="41.647281646728516" lon="2.499217987060547">
        <ele>207.1</ele>
      </trkpt>
      <trkpt lat="41.6475067846477" lon="2.499035596847534">
        <ele>207.33</ele>
      </trkpt>
      <trkpt lat="41.64773225784302" lon="2.4988532066345215">
        <ele>207.43</ele>
      </trkpt>
      <trkpt lat="41.647818088531494" lon="2.4986815452575684">
        <ele>207.77</ele>
      </trkpt>
      <trkpt lat="41.648021936416626" lon="2.4984238855540752">
        <ele>207.96</ele>
      </trkpt>
      <trkpt lat="41.64822578430176" lon="2.498166561126709">
        <ele>208.3</ele>
      </trkpt>
      <trkpt lat="41.648386465385556" lon="2.4981236457824707">
        <ele>208.94</ele>
      </trkpt>
      <trkpt lat="41.648547649383545" lon="2.4980807304382324">
        <ele>209.86</ele>
      </trkpt>
      <trkpt lat="41.64863356389105" lon="2.4978872761130333">
        <ele>210.99</ele>
      </trkpt>
      <trkpt lat="41.6487193107605" lon="2.497694492340088">
        <ele>212.32</ele>
      </trkpt>
      <trkpt lat="41.64866549894214" lon="2.497436413541436">
        <ele>213.99</ele>
      </trkpt>
      <trkpt lat="41.6486120223999" lon="2.4971795082092285">
        <ele>215.96</ele>
      </trkpt>
      <trkpt lat="41.64863348007202" lon="2.496964931488037">
        <ele>218.18</ele>
      </trkpt>
      <trkpt lat="41.648783683776855" lon="2.496793270111084">
        <ele>220.35</ele>
      </trkpt>
      <trkpt lat="41.648826599121094" lon="2.496664524078369">
        <ele>222.72</ele>
      </trkpt>
      <trkpt lat="41.64884805679321" lon="2.4965357780456543">
        <ele>225.26</ele>
      </trkpt>
      <trkpt lat="41.64874076843262" lon="2.496471405029297">
        <ele>228.01</ele>
      </trkpt>
      <trkpt lat="41.64846181869507" lon="2.4964070320129395">
        <ele>230.86</ele>
      </trkpt>
      <trkpt lat="41.64833307266235" lon="2.4961280822753906">
        <ele>233.95</ele>
      </trkpt>
      <trkpt lat="41.64834019728005" lon="2.4957911297678947">
        <ele>237.07</ele>
      </trkpt>
      <trkpt lat="41.64834740571678" lon="2.495454177260399">
        <ele>240.15</ele>
      </trkpt>
      <trkpt lat="41.64835453033447" lon="2.495119571685791">
        <ele>243.01</ele>
      </trkpt>
      <trkpt lat="41.648290157318115" lon="2.494947910308838">
        <ele>245.8</ele>
      </trkpt>
      <trkpt lat="41.648118663579226" lon="2.4948835372924805">
        <ele>248.63</ele>
      </trkpt>
      <trkpt lat="41.64794683456421" lon="2.494819164276123">
        <ele>251.38</ele>
      </trkpt>
      <trkpt lat="41.647758996114135" lon="2.4947796016931534">
        <ele>254.0</ele>
      </trkpt>
      <trkpt lat="41.64757207967341" lon="2.4947401229292154">
        <ele>256.47</ele>
      </trkpt>
      <trkpt lat="41.64757149294019" lon="2.4947400391101837">
        <ele>258.87</ele>
      </trkpt>
      <trkpt lat="41.647570990026" lon="2.494739955291152">
        <ele>261.23</ele>
      </trkpt>
      <trkpt lat="41.64757065474987" lon="2.494739955291152">
        <ele>263.58</ele>
      </trkpt>
      <trkpt lat="41.647539138793945" lon="2.4947333335876465">
        <ele>265.91</ele>
      </trkpt>
      <trkpt lat="41.647303104400635" lon="2.494540214538574">
        <ele>268.28</ele>
      </trkpt>
      <trkpt lat="41.64719581604004" lon="2.494218349456787">
        <ele>270.86</ele>
      </trkpt>
      <trkpt lat="41.647045612335205" lon="2.4940037727355957">
        <ele>273.42</ele>
      </trkpt>
      <trkpt lat="41.64695978164673" lon="2.493746280670166">
        <ele>275.99</ele>
      </trkpt>
      <trkpt lat="41.64695986546576" lon="2.493746280670166">
        <ele>278.52</ele>
      </trkpt>
      <trkpt lat="41.646809661760926" lon="2.4934887886047363">
        <ele>281.31</ele>
      </trkpt>
      <trkpt lat="41.64671293459833" lon="2.4933061469346285">
        <ele>284.14</ele>
      </trkpt>
      <trkpt lat="41.64661645889282" lon="2.493124008178711">
        <ele>287.19</ele>
      </trkpt>
      <trkpt lat="41.64654118940234" lon="2.4928552843630314">
        <ele>290.34</ele>
      </trkpt>
      <trkpt lat="41.64646625518799" lon="2.4925875663757324">
        <ele>293.44</ele>
      </trkpt>
      <trkpt lat="41.64635896682739" lon="2.492372989654541">
        <ele>296.44</ele>
      </trkpt>
      <trkpt lat="41.6461443901062" lon="2.4922871589660645">
        <ele>299.3</ele>
      </trkpt>
      <trkpt lat="41.646037101745605" lon="2.4921369552612305">
        <ele>302.09</ele>
      </trkpt>
      <trkpt lat="41.645980440080166" lon="2.4919243901968002">
        <ele>304.9</ele>
      </trkpt>
      <trkpt lat="41.645980440080166" lon="2.4919243063777685">
        <ele>309.79</ele>
      </trkpt>
      <trkpt lat="41.6459805238992" lon="2.4919246416538954">
        <ele>312.1</ele>
      </trkpt>
      <trkpt lat="41.6459805238992" lon="2.491924725472927">
        <ele>314.3</ele>
      </trkpt>
      <trkpt lat="41.64595127105713" lon="2.4918150901794434">
        <ele>316.54</ele>
      </trkpt>
      <trkpt lat="41.64599418640137" lon="2.4914932250976562">
        <ele>318.87</ele>
      </trkpt>
      <trkpt lat="41.64603718556464" lon="2.491202875971794">
        <ele>321.08</ele>
      </trkpt>
      <trkpt lat="41.646080017089844" lon="2.4909138679504395">
        <ele>323.14</ele>
      </trkpt>
      <trkpt lat="41.64616584777832" lon="2.490720748901367">
        <ele>324.88</ele>
      </trkpt>
      <trkpt lat="41.64632669650018" lon="2.4905920028686523">
        <ele>326.39</ele>
      </trkpt>
      <trkpt lat="41.64648771286011" lon="2.4904632568359375">
        <ele>327.73</ele>
      </trkpt>
      <trkpt lat="41.64629484526813" lon="2.4904632568359375">
        <ele>328.84</ele>
      </trkpt>
      <trkpt lat="41.64610147476196" lon="2.4904632568359375">
        <ele>329.81</ele>
      </trkpt>
      <trkpt lat="41.64597281254828" lon="2.4904417991638184">
        <ele>330.64</ele>
      </trkpt>
      <trkpt lat="41.64575840346515" lon="2.4903560522943735">
        <ele>331.33</ele>
      </trkpt>
      <trkpt lat="41.6455436591059" lon="2.4902701377868652">
        <ele>331.93</ele>
      </trkpt>
      <trkpt lat="41.6453293338418" lon="2.4903022404760122">
        <ele>332.52</ele>
      </trkpt>
      <trkpt lat="41.645114505663514" lon="2.4903345108032227">
        <ele>333.01</ele>
      </trkpt>
      <trkpt lat="41.64492138661444" lon="2.4902915954589844">
        <ele>333.43</ele>
      </trkpt>
      <trkpt lat="41.644814014434814" lon="2.490248680114746">
        <ele>333.74</ele>
      </trkpt>
      <trkpt lat="41.64466381072998" lon="2.490205764770508">
        <ele>334.0</ele>
      </trkpt>
      <trkpt lat="41.64449231699109" lon="2.4901843070983887">
        <ele>334.24</ele>
      </trkpt>
      <trkpt lat="41.644320487976074" lon="2.4901628494262695">
        <ele>334.41</ele>
      </trkpt>
      <trkpt lat="41.64417028427124" lon="2.490077018737793">
        <ele>334.58</ele>
      </trkpt>
      <trkpt lat="41.644009267911315" lon="2.4898730870336294">
        <ele>334.73</ele>
      </trkpt>
      <trkpt lat="41.64384841918945" lon="2.4896693229675293">
        <ele>334.88</ele>
      </trkpt>
      <trkpt lat="41.64370517246425" lon="2.4894114956259727">
        <ele>335.08</ele>
      </trkpt>
      <trkpt lat="41.64356200955808" lon="2.489153752103448">
        <ele>335.46</ele>
      </trkpt>
      <trkpt lat="41.64341926574707" lon="2.4888968467712402">
        <ele>335.95</ele>
      </trkpt>
      <trkpt lat="41.64344072341919" lon="2.4887895584106445">
        <ele>336.34</ele>
      </trkpt>
      <trkpt lat="41.64348363876343" lon="2.488725185394287">
        <ele>336.84</ele>
      </trkpt>
      <trkpt lat="41.643548011779785" lon="2.488682270050049">
        <ele>337.51</ele>
      </trkpt>
      <trkpt lat="41.64384841918945" lon="2.4886393547058105">
        <ele>338.25</ele>
      </trkpt>
      <trkpt lat="41.644062995910645" lon="2.4884033203125">
        <ele>339.43</ele>
      </trkpt>
      <trkpt lat="41.64410591125488" lon="2.4883174896240234">
        <ele>340.74</ele>
      </trkpt>
      <trkpt lat="41.64410591125488" lon="2.4881887435913086">
        <ele>342.33</ele>
      </trkpt>
      <trkpt lat="41.643987810239196" lon="2.488016914576292">
        <ele>344.26</ele>
      </trkpt>
      <trkpt lat="41.64386987686157" lon="2.4878454208374023">
        <ele>346.36</ele>
      </trkpt>
      <trkpt lat="41.64361238479614" lon="2.4878883361816406">
        <ele>348.65</ele>
      </trkpt>
      <trkpt lat="41.643311977386475" lon="2.4878454208374023">
        <ele>351.2</ele>
      </trkpt>
      <trkpt lat="41.64309740066528" lon="2.4877381324768066">
        <ele>354.01</ele>
      </trkpt>
      <trkpt lat="41.642958177253604" lon="2.48758340254426">
        <ele>357.06</ele>
      </trkpt>
      <trkpt lat="41.64295784197748" lon="2.487583067268133">
        <ele>360.04</ele>
      </trkpt>
      <trkpt lat="41.64295750670135" lon="2.4875827319920063">
        <ele>363.21</ele>
      </trkpt>
      <trkpt lat="41.64295742288232" lon="2.4875826481729746">
        <ele>366.57</ele>
      </trkpt>
      <trkpt lat="41.64290428161621" lon="2.4875235557556152">
        <ele>370.2</ele>
      </trkpt>
      <trkpt lat="41.642796993255615" lon="2.4872446060180664">
        <ele>374.34</ele>
      </trkpt>
      <trkpt lat="41.642759358510375" lon="2.4868467170745134">
        <ele>378.58</ele>
      </trkpt>
      <trkpt lat="41.642721723765135" lon="2.4864488281309605">
        <ele>383.02</ele>
      </trkpt>
      <trkpt lat="41.642684089019895" lon="2.4860509391874075">
        <ele>387.43</ele>
      </trkpt>
      <trkpt lat="41.64264678955078" lon="2.48565673828125">
        <ele>391.67</ele>
      </trkpt>
      <trkpt lat="41.64245367050171" lon="2.4854421615600586">
        <ele>396.05</ele>
      </trkpt>
      <trkpt lat="41.6424108389765" lon="2.485485076904297">
        <ele>400.22</ele>
      </trkpt>
      <trkpt lat="41.64236783981323" lon="2.485527992248535">
        <ele>404.36</ele>
      </trkpt>
      <trkpt lat="41.64215326309204" lon="2.485485076904297">
        <ele>408.79</ele>
      </trkpt>
      <trkpt lat="41.64197095669806" lon="2.4853671435266733">
        <ele>413.04</ele>
      </trkpt>
      <trkpt lat="41.641788482666016" lon="2.4852490425109863">
        <ele>417.04</ele>
      </trkpt>
      <trkpt lat="41.64159561507404" lon="2.485227584838867">
        <ele>420.92</ele>
      </trkpt>
      <trkpt lat="41.64140224456787" lon="2.485206127166748">
        <ele>424.66</ele>
      </trkpt>
      <trkpt lat="41.641264110803604" lon="2.4850975815206766">
        <ele>428.32</ele>
      </trkpt>
      <trkpt lat="41.64112698286772" lon="2.484989706426859">
        <ele>431.84</ele>
      </trkpt>
      <trkpt lat="41.64112647995353" lon="2.484989371150732">
        <ele>434.94</ele>
      </trkpt>
      <trkpt lat="41.64112606085837" lon="2.484989035874605">
        <ele>437.89</ele>
      </trkpt>
      <trkpt lat="41.641125893220305" lon="2.4849889520555735">
        <ele>440.7</ele>
      </trkpt>
      <trkpt lat="41.6411018371582" lon="2.4849700927734375">
        <ele>443.43</ele>
      </trkpt>
      <trkpt lat="41.64101600646973" lon="2.484755516052246">
        <ele>446.32</ele>
      </trkpt>
      <trkpt lat="41.64099454879761" lon="2.4846911430358887">
        <ele>448.82</ele>
      </trkpt>
      <trkpt lat="41.640951465815306" lon="2.4843469820916653">
        <ele>451.31</ele>
      </trkpt>
      <trkpt lat="41.64090871810913" lon="2.484004497528076">
        <ele>453.7</ele>
      </trkpt>
      <trkpt lat="41.64084434509277" lon="2.4836182594299316">
        <ele>456.02</ele>
      </trkpt>
      <trkpt lat="41.640747617930174" lon="2.4833818059414625">
        <ele>458.2</ele>
      </trkpt>
      <trkpt lat="41.6406512260437" lon="2.4831461906433105">
        <ele>460.24</ele>
      </trkpt>
      <trkpt lat="41.64041519165039" lon="2.48291015625">
        <ele>462.27</ele>
      </trkpt>
      <trkpt lat="41.640329360961914" lon="2.482738494873047">
        <ele>464.09</ele>
      </trkpt>
      <trkpt lat="41.640286445617676" lon="2.4825668334960938">
        <ele>465.81</ele>
      </trkpt>
      <trkpt lat="41.64022207260132" lon="2.4825024604797363">
        <ele>467.41</ele>
      </trkpt>
      <trkpt lat="41.64017915725708" lon="2.4825239181518555">
        <ele>468.9</ele>
      </trkpt>
      <trkpt lat="41.63998603820801" lon="2.4828243255615234">
        <ele>470.26</ele>
      </trkpt>
      <trkpt lat="41.63992166519165" lon="2.4828243255615234">
        <ele>471.68</ele>
      </trkpt>
      <trkpt lat="41.63970725610852" lon="2.4827171210199594">
        <ele>473.15</ele>
      </trkpt>
      <trkpt lat="41.63949251174927" lon="2.482609748840332">
        <ele>474.6</ele>
      </trkpt>
      <trkpt lat="41.639342308044434" lon="2.482609748840332">
        <ele>476.03</ele>
      </trkpt>
      <trkpt lat="41.639342391863465" lon="2.482609748840332">
        <ele>477.34</ele>
      </trkpt>
      <trkpt lat="41.639063358306885" lon="2.4826955795288086">
        <ele>478.84</ele>
      </trkpt>
      <trkpt lat="41.638827323913574" lon="2.482931613922119">
        <ele>480.41</ele>
      </trkpt>
      <trkpt lat="41.63872003555298" lon="2.4831676483154297">
        <ele>481.83</ele>
      </trkpt>
      <trkpt lat="41.6386342048645" lon="2.483489513397217">
        <ele>483.17</ele>
      </trkpt>
      <trkpt lat="41.63846245966852" lon="2.4837149027734995">
        <ele>484.46</ele>
      </trkpt>
      <trkpt lat="41.638290882110596" lon="2.4839401245117188">
        <ele>485.61</ele>
      </trkpt>
      <trkpt lat="41.63828358985484" lon="2.483940375968814">
        <ele>486.57</ele>
      </trkpt>
      <trkpt lat="41.638283086940646" lon="2.4839404597878456">
        <ele>487.44</ele>
      </trkpt>
      <trkpt lat="41.638282500207424" lon="2.4839405436068773">
        <ele>488.23</ele>
      </trkpt>
      <trkpt lat="41.63828241638839" lon="2.483940627425909">
        <ele>488.95</ele>
      </trkpt>
      <trkpt lat="41.63810455240309" lon="2.4839510209858418">
        <ele>489.79</ele>
      </trkpt>
      <trkpt lat="41.6379261855036" lon="2.483961582183838">
        <ele>490.41</ele>
      </trkpt>
      <trkpt lat="41.63792610168457" lon="2.483961582183838">
        <ele>490.92</ele>
      </trkpt>
      <trkpt lat="41.63767967373133" lon="2.4839508533477783">
        <ele>491.43</ele>
      </trkpt>
      <trkpt lat="41.63743257522583" lon="2.4839401245117188">
        <ele>491.8</ele>
      </trkpt>
      <trkpt lat="41.637303829193115" lon="2.4840259552001953">
        <ele>492.11</ele>
      </trkpt>
      <trkpt lat="41.63726091384888" lon="2.48415470123291">
        <ele>492.39</ele>
      </trkpt>
      <trkpt lat="41.637282371520996" lon="2.48441269621253">
        <ele>492.74</ele>
      </trkpt>
      <trkpt lat="41.637303829193115" lon="2.4846696853637695">
        <ele>493.13</ele>
      </trkpt>
      <trkpt lat="41.63723945617676" lon="2.4849915504455566">
        <ele>493.43</ele>
      </trkpt>
      <trkpt lat="41.63711071014404" lon="2.4850988388061523">
        <ele>493.72</ele>
      </trkpt>
      <trkpt lat="41.63701398298144" lon="2.485313666984439">
        <ele>494.16</ele>
      </trkpt>
      <trkpt lat="41.63691759109497" lon="2.485527992248535">
        <ele>494.64</ele>
      </trkpt>
      <trkpt lat="41.63674601353705" lon="2.485635280609131">
        <ele>495.26</ele>
      </trkpt>
      <trkpt lat="41.636574352160096" lon="2.485678195953369">
        <ele>495.82</ele>
      </trkpt>
      <trkpt lat="41.63644552230835" lon="2.48565673828125">
        <ele>496.41</ele>
      </trkpt>
      <trkpt lat="41.63638114929199" lon="2.4855494499206543">
        <ele>497.03</ele>
      </trkpt>
      <trkpt lat="41.63612365722656" lon="2.485356330871582">
        <ele>497.94</ele>
      </trkpt>
      <trkpt lat="41.635951828211546" lon="2.485120128840208">
        <ele>498.79</ele>
      </trkpt>
      <trkpt lat="41.635780334472656" lon="2.484884262084961">
        <ele>499.68</ele>
      </trkpt>
      <trkpt lat="41.63568360731006" lon="2.4847124330699444">
        <ele>500.57</ele>
      </trkpt>
      <trkpt lat="41.635587215423584" lon="2.4845409393310547">
        <ele>501.51</ele>
      </trkpt>
      <trkpt lat="41.63547992706299" lon="2.4844980239868164">
        <ele>502.53</ele>
      </trkpt>
      <trkpt lat="41.63545612245798" lon="2.4844935815781355">
        <ele>503.52</ele>
      </trkpt>
      <trkpt lat="41.63545553572476" lon="2.4844934977591038">
        <ele>504.54</ele>
      </trkpt>
      <trkpt lat="41.635454865172505" lon="2.484493413940072">
        <ele>505.62</ele>
      </trkpt>
      <trkpt lat="41.63545469753444" lon="2.484493413940072">
        <ele>506.75</ele>
      </trkpt>
      <trkpt lat="41.63524389266968" lon="2.484455108642578">
        <ele>508.14</ele>
      </trkpt>
      <trkpt lat="41.6351580619812" lon="2.484562397003174">
        <ele>509.47</ele>
      </trkpt>
      <trkpt lat="41.63520097732544" lon="2.4849700927734375">
        <ele>510.8</ele>
      </trkpt>
      <trkpt lat="41.63517951965332" lon="2.4852705001831055">
        <ele>512.31</ele>
      </trkpt>
      <trkpt lat="41.63526543416083" lon="2.4856144096702337">
        <ele>513.83</ele>
      </trkpt>
      <trkpt lat="41.63535118103027" lon="2.485957145690918">
        <ele>515.32</ele>
      </trkpt>
      <trkpt lat="41.63535118103027" lon="2.486107349395752">
        <ele>516.92</ele>
      </trkpt>
      <trkpt lat="41.635093688964844" lon="2.4859142303466797">
        <ele>518.9</ele>
      </trkpt>
      <trkpt lat="41.63487911224365" lon="2.485635280609131">
        <ele>520.84</ele>
      </trkpt>
      <trkpt lat="41.63477165624499" lon="2.485366640612483">
        <ele>522.59</ele>
      </trkpt>
      <trkpt lat="41.63466453552246" lon="2.4850988388061523">
        <ele>524.37</ele>
      </trkpt>
      <trkpt lat="41.6346001625061" lon="2.485034465789795">
        <ele>526.25</ele>
      </trkpt>
      <trkpt lat="41.63449287414551" lon="2.4851202964782715">
        <ele>528.34</ele>
      </trkpt>
      <trkpt lat="41.63454660214484" lon="2.485410561785102">
        <ele>530.22</ele>
      </trkpt>
      <trkpt lat="41.6346001625061" lon="2.4856996536254883">
        <ele>532.1</ele>
      </trkpt>
      <trkpt lat="41.63449287414551" lon="2.4857640266418457">
        <ele>534.22</ele>
      </trkpt>
      <trkpt lat="41.63436412811279" lon="2.4855494499206543">
        <ele>536.21</ele>
      </trkpt>
      <trkpt lat="41.634145276620984" lon="2.4854321870952845">
        <ele>538.39</ele>
      </trkpt>
      <trkpt lat="41.6341445222497" lon="2.4854318518191576">
        <ele>540.37</ele>
      </trkpt>
      <trkpt lat="41.63414376787841" lon="2.485431432723999">
        <ele>542.36</ele>
      </trkpt>
      <trkpt lat="41.634143432602286" lon="2.4854312650859356">
        <ele>544.36</ele>
      </trkpt>
      <trkpt lat="41.63395349867642" lon="2.485329508781433">
        <ele>546.57</ele>
      </trkpt>
      <trkpt lat="41.63376331329346" lon="2.485227584838867">
        <ele>548.75</ele>
      </trkpt>
      <trkpt lat="41.63350582122803" lon="2.4853134155273438">
        <ele>550.91</ele>
      </trkpt>
      <trkpt lat="41.633301973342896" lon="2.4854957219213247">
        <ele>553.05</ele>
      </trkpt>
      <trkpt lat="41.633098125457764" lon="2.485678195953369">
        <ele>555.21</ele>
      </trkpt>
      <trkpt lat="41.632883716374636" lon="2.4857638590037823">
        <ele>557.33</ele>
      </trkpt>
      <trkpt lat="41.63266897201538" lon="2.4858498573303223">
        <ele>559.47</ele>
      </trkpt>
      <trkpt lat="41.63249731063843" lon="2.485989248380065">
        <ele>561.51</ele>
      </trkpt>
      <trkpt lat="41.632325649261475" lon="2.486128807067871">
        <ele>563.44</ele>
      </trkpt>
      <trkpt lat="41.63219690322876" lon="2.4860429763793945">
        <ele>565.26</ele>
      </trkpt>
      <trkpt lat="41.632094057276845" lon="2.485854383558035">
        <ele>566.96</ele>
      </trkpt>
      <trkpt lat="41.63209380581975" lon="2.4858539644628763">
        <ele>568.41</ele>
      </trkpt>
      <trkpt lat="41.63209347054362" lon="2.4858533777296543">
        <ele>569.76</ele>
      </trkpt>
      <trkpt lat="41.632093554362655" lon="2.485853461548686">
        <ele>571.01</ele>
      </trkpt>
      <trkpt lat="41.632068157196045" lon="2.485806941986084">
        <ele>572.2</ele>
      </trkpt>
      <trkpt lat="41.63203228265047" lon="2.4854914471507072">
        <ele>573.27</ele>
      </trkpt>
      <trkpt lat="41.6319964081049" lon="2.485176036134362">
        <ele>574.22</ele>
      </trkpt>
      <trkpt lat="41.63196086883545" lon="2.484862804412842">
        <ele>575.12</ele>
      </trkpt>
      <trkpt lat="41.63185358047485" lon="2.484734058380127">
        <ele>576.06</ele>
      </trkpt>
      <trkpt lat="41.63170337677002" lon="2.484927177429199">
        <ele>577.03</ele>
      </trkpt>
      <trkpt lat="41.63159592077136" lon="2.485120464116335">
        <ele>577.85</ele>
      </trkpt>
      <trkpt lat="41.63148880004883" lon="2.4853134155273438">
        <ele>578.6</ele>
      </trkpt>
      <trkpt lat="41.631317138671875" lon="2.485485076904297">
        <ele>579.24</ele>
      </trkpt>
      <trkpt lat="41.631081188097596" lon="2.4852919578552246">
        <ele>579.8</ele>
      </trkpt>
      <trkpt lat="41.630845069885254" lon="2.4850988388061523">
        <ele>580.38</ele>
      </trkpt>
      <trkpt lat="41.63065195083618" lon="2.484862804412842">
        <ele>581.04</ele>
      </trkpt>
      <trkpt lat="41.63048028945923" lon="2.484605312347412">
        <ele>581.62</ele>
      </trkpt>
      <trkpt lat="41.63035145960748" lon="2.484444295987487">
        <ele>582.11</ele>
      </trkpt>
      <trkpt lat="41.6302227973938" lon="2.484283447265625">
        <ele>582.52</ele>
      </trkpt>
      <trkpt lat="41.63000822067261" lon="2.484133243560791">
        <ele>582.96</ele>
      </trkpt>
      <trkpt lat="41.62970781326294" lon="2.4840259552001953">
        <ele>583.44</ele>
      </trkpt>
      <trkpt lat="41.62949332036078" lon="2.4840259552001953">
        <ele>583.9</ele>
      </trkpt>
      <trkpt lat="41.62927891127765" lon="2.4839402083307505">
        <ele>584.38</ele>
      </trkpt>
      <trkpt lat="41.62906643003225" lon="2.483855215832591">
        <ele>584.86</ele>
      </trkpt>
      <trkpt lat="41.629065591841936" lon="2.483854880556464">
        <ele>585.34</ele>
      </trkpt>
      <trkpt lat="41.629064502194524" lon="2.4838544614613056">
        <ele>585.86</ele>
      </trkpt>
      <trkpt lat="41.629064083099365" lon="2.483854293823242">
        <ele>586.44</ele>
      </trkpt>
      <trkpt lat="41.6290641669184" lon="2.483854293823242">
        <ele>587.09</ele>
      </trkpt>
      <trkpt lat="41.62891396321356" lon="2.4837255477905273">
        <ele>587.82</ele>
      </trkpt>
      <trkpt lat="41.6287636756897" lon="2.4835968017578125">
        <ele>588.71</ele>
      </trkpt>
      <trkpt lat="41.62872076034546" lon="2.483510971069336">
        <ele>589.67</ele>
      </trkpt>
      <trkpt lat="41.62863492965698" lon="2.4831676483154297">
        <ele>590.85</ele>
      </trkpt>
      <trkpt lat="41.628570556640625" lon="2.483081817626953">
        <ele>592.07</ele>
      </trkpt>
      <trkpt lat="41.62842035293579" lon="2.4832963943481445">
        <ele>593.35</ele>
      </trkpt>
      <trkpt lat="41.628334606066346" lon="2.4834680557250977">
        <ele>594.64</ele>
      </trkpt>
      <trkpt lat="41.62822723388672" lon="2.483639717102051">
        <ele>596.04</ele>
      </trkpt>
      <trkpt lat="41.62803411483765" lon="2.483639717102051">
        <ele>597.62</ele>
      </trkpt>
      <trkpt lat="41.62788391113281" lon="2.4834251403808594">
        <ele>599.38</ele>
      </trkpt>
      <trkpt lat="41.6278516408056" lon="2.483199331909418">
        <ele>601.27</ele>
      </trkpt>
      <trkpt lat="41.627819538116455" lon="2.4829745292663574">
        <ele>603.25</ele>
      </trkpt>
      <trkpt lat="41.6277551651001" lon="2.4829745292663574">
        <ele>605.13</ele>
      </trkpt>
      <trkpt lat="41.62762641906738" lon="2.48291015625">
        <ele>607.09</ele>
      </trkpt>
      <trkpt lat="41.627604961395264" lon="2.482609748840332">
        <ele>609.41</ele>
      </trkpt>
      <trkpt lat="41.62749767303467" lon="2.4822449684143066">
        <ele>611.83</ele>
      </trkpt>
      <trkpt lat="41.627326011657715" lon="2.482137680053711">
        <ele>614.08</ele>
      </trkpt>
      <trkpt lat="41.62728309631348" lon="2.482008934020996">
        <ele>616.27</ele>
      </trkpt>
      <trkpt lat="41.62715435028076" lon="2.4817728996276855">
        <ele>618.44</ele>
      </trkpt>
      <trkpt lat="41.62693977355957" lon="2.4816441535949707">
        <ele>620.55</ele>
      </trkpt>
      <trkpt lat="41.62675755098462" lon="2.4816012382507324">
        <ele>622.63</ele>
      </trkpt>
      <trkpt lat="41.626574993133545" lon="2.481558322906494">
        <ele>624.65</ele>
      </trkpt>
      <trkpt lat="41.62644624710083" lon="2.4814724922180176">
        <ele>626.55</ele>
      </trkpt>
      <trkpt lat="41.62626394070685" lon="2.4813437461853027">
        <ele>628.2</ele>
      </trkpt>
      <trkpt lat="41.626081466674805" lon="2.481215000152588">
        <ele>629.64</ele>
      </trkpt>
      <trkpt lat="41.62601709365845" lon="2.4811291694641113">
        <ele>630.94</ele>
      </trkpt>
      <trkpt lat="41.62595280446112" lon="2.480936050415039">
        <ele>632.13</ele>
      </trkpt>
      <trkpt lat="41.625866973772645" lon="2.480764389038086">
        <ele>633.18</ele>
      </trkpt>
      <trkpt lat="41.625802516937256" lon="2.480485439300537">
        <ele>634.25</ele>
      </trkpt>
      <trkpt lat="41.62582405842841" lon="2.4802494049072266">
        <ele>634.96</ele>
      </trkpt>
      <trkpt lat="41.625866973772645" lon="2.4800562858581543">
        <ele>635.38</ele>
      </trkpt>
      <trkpt lat="41.62593126296997" lon="2.479734420776367">
        <ele>635.6</ele>
      </trkpt>
      <trkpt lat="41.62582405842841" lon="2.47941255569458">
        <ele>635.43</ele>
      </trkpt>
      <trkpt lat="41.62567385472357" lon="2.4791765213012695">
        <ele>634.97</ele>
      </trkpt>
      <trkpt lat="41.62552365101874" lon="2.4789834022521973">
        <ele>634.31</ele>
      </trkpt>
      <trkpt lat="41.62541619502008" lon="2.4788223020732403">
        <ele>633.61</ele>
      </trkpt>
      <trkpt lat="41.625308990478516" lon="2.47866153717041">
        <ele>632.82</ele>
      </trkpt>
      <trkpt lat="41.62520153447986" lon="2.478457437828183">
        <ele>631.97</ele>
      </trkpt>
      <trkpt lat="41.625094413757324" lon="2.4782538414001465">
        <ele>631.07</ele>
      </trkpt>
      <trkpt lat="41.62499408237636" lon="2.478003054857254">
        <ele>630.07</ele>
      </trkpt>
      <trkpt lat="41.62489383481443" lon="2.4777523521333933">
        <ele>628.94</ele>
      </trkpt>
      <trkpt lat="41.624794006347656" lon="2.4775028228759766">
        <ele>627.76</ele>
      </trkpt>
      <trkpt lat="41.62471395917237" lon="2.477230913937092">
        <ele>626.55</ele>
      </trkpt>
      <trkpt lat="41.6246344987303" lon="2.476960849016905">
        <ele>625.36</ele>
      </trkpt>
      <trkpt lat="41.62463441491127" lon="2.476960513740778">
        <ele>624.23</ele>
      </trkpt>
      <trkpt lat="41.62463424727321" lon="2.4769598431885242">
        <ele>623.1</ele>
      </trkpt>
      <trkpt lat="41.62463433109224" lon="2.4769600108265877">
        <ele>621.94</ele>
      </trkpt>
      <trkpt lat="41.62463433109224" lon="2.476959927007556">
        <ele>620.77</ele>
      </trkpt>
      <trkpt lat="41.624579429626465" lon="2.476773262023926">
        <ele>619.53</ele>
      </trkpt>
      <trkpt lat="41.62435437552631" lon="2.476719617843628">
        <ele>618.4</ele>
      </trkpt>
      <trkpt lat="41.62412881851196" lon="2.47666597366333">
        <ele>617.2</ele>
      </trkpt>
      <trkpt lat="41.624120604246855" lon="2.4764046259224415">
        <ele>615.68</ele>
      </trkpt>
      <trkpt lat="41.62411247380078" lon="2.476145541295409">
        <ele>614.08</ele>
      </trkpt>
      <trkpt lat="41.62411247380078" lon="2.4761452060192823">
        <ele>612.67</ele>
      </trkpt>
      <trkpt lat="41.62411247380078" lon="2.476144367828965">
        <ele>611.21</ele>
      </trkpt>
      <trkpt lat="41.62411255761981" lon="2.4761446192860603">
        <ele>609.68</ele>
      </trkpt>
      <trkpt lat="41.624107360839844" lon="2.4759793281555176">
        <ele>607.99</ele>
      </trkpt>
      <trkpt lat="41.62402153015137" lon="2.4756360054016113">
        <ele>606.15</ele>
      </trkpt>
      <trkpt lat="41.62391424179077" lon="2.4755072593688965">
        <ele>604.33</ele>
      </trkpt>
      <trkpt lat="41.62382044829428" lon="2.475263513624668">
        <ele>602.34</ele>
      </trkpt>
      <trkpt lat="41.62382028065622" lon="2.475263010710478">
        <ele>600.49</ele>
      </trkpt>
      <trkpt lat="41.62381986156106" lon="2.4752619210630655">
        <ele>598.58</ele>
      </trkpt>
      <trkpt lat="41.623806953430176" lon="2.4752283096313477">
        <ele>596.6</ele>
      </trkpt>
      <trkpt lat="41.62374258041382" lon="2.474842071533203">
        <ele>594.3</ele>
      </trkpt>
      <trkpt lat="41.6236138343811" lon="2.474648952484131">
        <ele>592.09</ele>
      </trkpt>
      <trkpt lat="41.62342071533203" lon="2.4744772911071777">
        <ele>589.83</ele>
      </trkpt>
      <trkpt lat="41.6232134308666" lon="2.4743486288934946">
        <ele>587.55</ele>
      </trkpt>
      <trkpt lat="41.62300614640117" lon="2.4742199666798115">
        <ele>585.27</ele>
      </trkpt>
      <trkpt lat="41.622798442840576" lon="2.474091053009033">
        <ele>583.03</ele>
      </trkpt>
      <trkpt lat="41.62264823913574" lon="2.474370002746582">
        <ele>580.89</ele>
      </trkpt>
      <trkpt lat="41.62251949310303" lon="2.474091053009033">
        <ele>578.89</ele>
      </trkpt>
      <trkpt lat="41.62241220474243" lon="2.473940849304199">
        <ele>576.91</ele>
      </trkpt>
      <trkpt lat="41.6222620010376" lon="2.473618984222412">
        <ele>574.95</ele>
      </trkpt>
      <trkpt lat="41.622126968577504" lon="2.473582522943616">
        <ele>573.12</ele>
      </trkpt>
      <trkpt lat="41.622125962749124" lon="2.4735822714865208">
        <ele>571.48</ele>
      </trkpt>
      <trkpt lat="41.622124537825584" lon="2.473581936210394">
        <ele>569.91</ele>
      </trkpt>
      <trkpt lat="41.622124034911394" lon="2.473581852391362">
        <ele>568.41</ele>
      </trkpt>
      <trkpt lat="41.62191431969404" lon="2.473525358363986">
        <ele>566.81</ele>
      </trkpt>
      <trkpt lat="41.6217041015625" lon="2.473468780517578">
        <ele>565.29</ele>
      </trkpt>
      <trkpt lat="41.62151098251343" lon="2.473447322845459">
        <ele>563.81</ele>
      </trkpt>
      <trkpt lat="41.62146815098822" lon="2.4734044075012207">
        <ele>562.5</ele>
      </trkpt>
      <trkpt lat="41.6214466933161" lon="2.4733614921569824">
        <ele>561.24</ele>
      </trkpt>
      <trkpt lat="41.62153244018555" lon="2.4730396270751953">
        <ele>560.02</ele>
      </trkpt>
      <trkpt lat="41.62151098251343" lon="2.4727821350097656">
        <ele>558.73</ele>
      </trkpt>
      <trkpt lat="41.6215539816767" lon="2.472437974065542">
        <ele>557.35</ele>
      </trkpt>
      <trkpt lat="41.621596813201904" lon="2.472095489501953">
        <ele>556.0</ele>
      </trkpt>
      <trkpt lat="41.62159186787903" lon="2.4716989416629076">
        <ele>554.55</ele>
      </trkpt>
      <trkpt lat="41.621587006375194" lon="2.471302477642894">
        <ele>553.16</ele>
      </trkpt>
      <trkpt lat="41.62158206105232" lon="2.47090601362288">
        <ele>551.74</ele>
      </trkpt>
      <trkpt lat="41.62157719954848" lon="2.470513992011547">
        <ele>550.19</ele>
      </trkpt>
      <trkpt lat="41.62157719954848" lon="2.470513740554452">
        <ele>548.83</ele>
      </trkpt>
      <trkpt lat="41.62157719954848" lon="2.470512902364135">
        <ele>547.43</ele>
      </trkpt>
      <trkpt lat="41.621577283367515" lon="2.4705132376402617">
        <ele>545.98</ele>
      </trkpt>
      <trkpt lat="41.621575355529785" lon="2.4703574180603027">
        <ele>544.38</ele>
      </trkpt>
      <trkpt lat="41.62151098251343" lon="2.4702072143554688">
        <ele>542.65</ele>
      </trkpt>
      <trkpt lat="41.62131803110242" lon="2.4703036062419415">
        <ele>540.87</ele>
      </trkpt>
      <trkpt lat="41.621124828234315" lon="2.470400333404541">
        <ele>539.05</ele>
      </trkpt>
      <trkpt lat="41.62086741998792" lon="2.4705825559794903">
        <ele>537.25</ele>
      </trkpt>
      <trkpt lat="41.620609760284424" lon="2.4707651138305664">
        <ele>535.38</ele>
      </trkpt>
      <trkpt lat="41.62039518356323" lon="2.4708938598632812">
        <ele>533.47</ele>
      </trkpt>
      <trkpt lat="41.620309352874756" lon="2.4709367752075195">
        <ele>531.62</ele>
      </trkpt>
      <trkpt lat="41.62020206451416" lon="2.4709367752075195">
        <ele>529.63</ele>
      </trkpt>
      <trkpt lat="41.620094776153564" lon="2.470850944519043">
        <ele>527.53</ele>
      </trkpt>
      <trkpt lat="41.62002579309046" lon="2.4707474280148745">
        <ele>525.45</ele>
      </trkpt>
      <trkpt lat="41.62002529017627" lon="2.470746673643589">
        <ele>523.49</ele>
      </trkpt>
      <trkpt lat="41.62002436816692" lon="2.4707453325390816">
        <ele>521.49</ele>
      </trkpt>
      <trkpt lat="41.62002411670983" lon="2.470744913443923">
        <ele>519.47</ele>
      </trkpt>
      <trkpt lat="41.61996611393988" lon="2.4706578254699707">
        <ele>517.28</ele>
      </trkpt>
      <trkpt lat="41.619837284088135" lon="2.470400333404541">
        <ele>515.0</ele>
      </trkpt>
      <trkpt lat="41.61966562271118" lon="2.4702072143554688">
        <ele>512.71</ele>
      </trkpt>
      <trkpt lat="41.619386756792665" lon="2.4702072143554688">
        <ele>510.18</ele>
      </trkpt>
      <trkpt lat="41.6191291809082" lon="2.4701857566833496">
        <ele>507.84</ele>
      </trkpt>
      <trkpt lat="41.6191291809082" lon="2.4699374847114086">
        <ele>505.84</ele>
      </trkpt>
      <trkpt lat="41.6191291809082" lon="2.4699368979781866">
        <ele>503.89</ele>
      </trkpt>
      <trkpt lat="41.6191291809082" lon="2.469935556873679">
        <ele>502.0</ele>
      </trkpt>
      <trkpt lat="41.6191291809082" lon="2.4699354730546474">
        <ele>500.16</ele>
      </trkpt>
      <trkpt lat="41.6191291809082" lon="2.46959843672812">
        <ele>498.34</ele>
      </trkpt>
      <trkpt lat="41.6191291809082" lon="2.4692630767822266">
        <ele>496.46</ele>
      </trkpt>
      <trkpt lat="41.6192364692688" lon="2.4689197540283203">
        <ele>494.75</ele>
      </trkpt>
      <trkpt lat="41.61921501159668" lon="2.4688339233398438">
        <ele>493.07</ele>
      </trkpt>
      <trkpt lat="41.61919355392456" lon="2.4688339233398438">
        <ele>491.49</ele>
      </trkpt>
      <trkpt lat="41.61906464025378" lon="2.4690701253712177">
        <ele>489.92</ele>
      </trkpt>
      <trkpt lat="41.61893606185913" lon="2.469305992126465">
        <ele>488.45</ele>
      </trkpt>
      <trkpt lat="41.618850231170654" lon="2.4694347381591797">
        <ele>487.06</ele>
      </trkpt>
      <trkpt lat="41.61865711212158" lon="2.469456195831299">
        <ele>485.57</ele>
      </trkpt>
      <trkpt lat="41.61870002746582" lon="2.4692416191101074">
        <ele>484.4</ele>
      </trkpt>
      <trkpt lat="41.61872148513794" lon="2.4689197540283203">
        <ele>483.27</ele>
      </trkpt>
      <trkpt lat="41.61865711212158" lon="2.4686622619628906">
        <ele>482.08</ele>
      </trkpt>
      <trkpt lat="41.61848545074463" lon="2.4684691429138184">
        <ele>481.08</ele>
      </trkpt>
      <trkpt lat="41.61839962005615" lon="2.4681901931762695">
        <ele>480.36</ele>
      </trkpt>
      <trkpt lat="41.618400206789374" lon="2.4681885167956352">
        <ele>479.92</ele>
      </trkpt>
      <trkpt lat="41.61840062588453" lon="2.4681875109672546">
        <ele>479.65</ele>
      </trkpt>
      <trkpt lat="41.61840138025582" lon="2.4681858345866203">
        <ele>479.54</ele>
      </trkpt>
      <trkpt lat="41.618401715531945" lon="2.4681852478533983">
        <ele>479.57</ele>
      </trkpt>
      <trkpt lat="41.61850690841675" lon="2.46793270111084">
        <ele>479.88</ele>
      </trkpt>
      <trkpt lat="41.61849609576166" lon="2.4676315393298864">
        <ele>480.16</ele>
      </trkpt>
      <trkpt lat="41.61848545074463" lon="2.467331886291504">
        <ele>480.62</ele>
      </trkpt>
      <trkpt lat="41.61850690841675" lon="2.467031478881836">
        <ele>481.2</ele>
      </trkpt>
      <trkpt lat="41.618603551760316" lon="2.4668165668845177">
        <ele>481.99</ele>
      </trkpt>
      <trkpt lat="41.61870002746582" lon="2.466602325439453">
        <ele>482.86</ele>
      </trkpt>
      <trkpt lat="41.61865711212158" lon="2.466301918029785">
        <ele>483.5</ele>
      </trkpt>
      <trkpt lat="41.618549823760986" lon="2.465958595275879">
        <ele>483.99</ele>
      </trkpt>
      <trkpt lat="41.618592739105225" lon="2.465786933898926">
        <ele>484.87</ele>
      </trkpt>
      <trkpt lat="41.61870011128485" lon="2.4656043760478497">
        <ele>485.88</ele>
      </trkpt>
      <trkpt lat="41.618807315826416" lon="2.4654221534729004">
        <ele>486.7</ele>
      </trkpt>
      <trkpt lat="41.618807315826416" lon="2.465185532346368">
        <ele>487.18</ele>
      </trkpt>
      <trkpt lat="41.618807315826416" lon="2.4649500846862793">
        <ele>487.61</ele>
      </trkpt>
      <trkpt lat="41.6187858581543" lon="2.464756965637207">
        <ele>487.9</ele>
      </trkpt>
      <trkpt lat="41.6186785697937" lon="2.46443510055542">
        <ele>487.96</ele>
      </trkpt>
      <trkpt lat="41.61863565444946" lon="2.464113235473633">
        <ele>488.02</ele>
      </trkpt>
      <trkpt lat="41.61863565444946" lon="2.464080462232232">
        <ele>488.13</ele>
      </trkpt>
      <trkpt lat="41.61863565444946" lon="2.464079288765788">
        <ele>488.21</ele>
      </trkpt>
      <trkpt lat="41.61863565444946" lon="2.4640773609280586">
        <ele>488.25</ele>
      </trkpt>
      <trkpt lat="41.61863565444946" lon="2.464076606556773">
        <ele>488.26</ele>
      </trkpt>
      <trkpt lat="41.61863565444946" lon="2.463855743408203">
        <ele>488.16</ele>
      </trkpt>
      <trkpt lat="41.61850690841675" lon="2.4636197090148926">
        <ele>487.91</ele>
      </trkpt>
      <trkpt lat="41.61848545074463" lon="2.4634265899658203">
        <ele>487.94</ele>
      </trkpt>
      <trkpt lat="41.61850699223578" lon="2.463233470916748">
        <ele>488.04</ele>
      </trkpt>
      <trkpt lat="41.618592739105225" lon="2.463083267211914">
        <ele>488.23</ele>
      </trkpt>
      <trkpt lat="41.61863565444946" lon="2.462911605834961">
        <ele>488.47</ele>
      </trkpt>
      <trkpt lat="41.61863565444946" lon="2.4626755714416504">
        <ele>488.78</ele>
      </trkpt>
      <trkpt lat="41.61857111379504" lon="2.46247130446136">
        <ele>489.21</ele>
      </trkpt>
      <trkpt lat="41.61850690841675" lon="2.4622678756713867">
        <ele>489.65</ele>
      </trkpt>
      <trkpt lat="41.61846399307251" lon="2.4622249603271484">
        <ele>490.15</ele>
      </trkpt>
      <trkpt lat="41.61839962005615" lon="2.462160587310791">
        <ele>490.74</ele>
      </trkpt>
      <trkpt lat="41.618399703875184" lon="2.462160587310791">
        <ele>491.38</ele>
      </trkpt>
      <trkpt lat="41.61827087402344" lon="2.462010383605957">
        <ele>492.19</ele>
      </trkpt>
      <trkpt lat="41.61816358566284" lon="2.4618172645568848">
        <ele>493.06</ele>
      </trkpt>
      <trkpt lat="41.618099212646484" lon="2.461559772491455">
        <ele>493.93</ele>
      </trkpt>
      <trkpt lat="41.618099212646484" lon="2.4613451957702637">
        <ele>494.85</ele>
      </trkpt>
      <trkpt lat="41.6181206703186" lon="2.4610978458076715">
        <ele>495.95</ele>
      </trkpt>
      <trkpt lat="41.61814212799072" lon="2.4608516693115234">
        <ele>497.3</ele>
      </trkpt>
      <trkpt lat="41.61819585599005" lon="2.4604753218591213">
        <ele>498.68</ele>
      </trkpt>
      <trkpt lat="41.61824941635132" lon="2.4601006507873535">
        <ele>500.12</ele>
      </trkpt>
      <trkpt lat="41.61837112158537" lon="2.459778282791376">
        <ele>501.68</ele>
      </trkpt>
      <trkpt lat="41.61849291063845" lon="2.4594559147953987">
        <ele>503.15</ele>
      </trkpt>
      <trkpt lat="41.618614196777344" lon="2.459135055541992">
        <ele>504.86</ele>
      </trkpt>
      <trkpt lat="41.618614196777344" lon="2.458770275115967">
        <ele>506.59</ele>
      </trkpt>
      <trkpt lat="41.61851738579571" lon="2.458383282646537">
        <ele>508.44</ele>
      </trkpt>
      <trkpt lat="41.61842107772827" lon="2.4579977989196777">
        <ele>510.38</ele>
      </trkpt>
      <trkpt lat="41.61848553456366" lon="2.457772074267268">
        <ele>511.93</ele>
      </trkpt>
      <trkpt lat="41.618549823760986" lon="2.457547187805176">
        <ele>513.39</ele>
      </trkpt>
      <trkpt lat="41.618671864271164" lon="2.4572583474218845">
        <ele>514.78</ele>
      </trkpt>
      <trkpt lat="41.61867219954729" lon="2.457257676869631">
        <ele>516.09</ele>
      </trkpt>
      <trkpt lat="41.618672870099545" lon="2.4572562519460917">
        <ele>517.33</ele>
      </trkpt>
      <trkpt lat="41.61867303773761" lon="2.4572560004889965">
        <ele>518.5</ele>
      </trkpt>
      <trkpt lat="41.6187858581543" lon="2.456989288330078">
        <ele>519.71</ele>
      </trkpt>
      <trkpt lat="41.61878594197333" lon="2.4569034576416016">
        <ele>520.79</ele>
      </trkpt>
      <trkpt lat="41.61867865361273" lon="2.456817626953125">
        <ele>521.77</ele>
      </trkpt>
      <trkpt lat="41.618442703038454" lon="2.4566460493952036">
        <ele>522.7</ele>
      </trkpt>
      <trkpt lat="41.61820650100708" lon="2.4564743041992188">
        <ele>523.51</ele>
      </trkpt>
      <trkpt lat="41.61804540082812" lon="2.4561842903494835">
        <ele>524.37</ele>
      </trkpt>
      <trkpt lat="41.61788463592529" lon="2.455894947052002">
        <ele>525.1</ele>
      </trkpt>
      <trkpt lat="41.617841720581055" lon="2.4558091163635254">
        <ele>525.78</ele>
      </trkpt>
      <trkpt lat="41.61778790876269" lon="2.455443497747183">
        <ele>526.47</ele>
      </trkpt>
      <trkpt lat="41.61773443222046" lon="2.4550795555114746">
        <ele>527.09</ele>
      </trkpt>
      <trkpt lat="41.61759831011295" lon="2.4547930620610714">
        <ele>527.56</ele>
      </trkpt>
      <trkpt lat="41.61746227182448" lon="2.454506568610668">
        <ele>528.07</ele>
      </trkpt>
      <trkpt lat="41.61732682026923" lon="2.454221248626709">
        <ele>528.63</ele>
      </trkpt>
      <trkpt lat="41.61724090576172" lon="2.454092502593994">
        <ele>529.18</ele>
      </trkpt>
      <trkpt lat="41.61703714169562" lon="2.4539531115442514">
        <ele>529.87</ele>
      </trkpt>
      <trkpt lat="41.616833209991455" lon="2.4538135528564453">
        <ele>530.53</ele>
      </trkpt>
      <trkpt lat="41.616618633270264" lon="2.4535560607910156">
        <ele>531.07</ele>
      </trkpt>
      <trkpt lat="41.6164871212095" lon="2.453309716656804">
        <ele>531.41</ele>
      </trkpt>
      <trkpt lat="41.616486702114344" lon="2.453308794647455">
        <ele>531.67</ele>
      </trkpt>
      <trkpt lat="41.61648594774306" lon="2.4533072859048843">
        <ele>531.84</ele>
      </trkpt>
      <trkpt lat="41.61648569628596" lon="2.453306782990694">
        <ele>531.91</ele>
      </trkpt>
      <trkpt lat="41.61648569628596" lon="2.4533068668097258">
        <ele>531.88</ele>
      </trkpt>
      <trkpt lat="41.61644697189331" lon="2.4532341957092285">
        <ele>531.75</ele>
      </trkpt>
      <trkpt lat="41.61624329164624" lon="2.4531269911676645">
        <ele>531.52</ele>
      </trkpt>
      <trkpt lat="41.61603927612305" lon="2.453019618988037">
        <ele>531.11</ele>
      </trkpt>
      <trkpt lat="41.615889156237245" lon="2.4529123306274414">
        <ele>530.57</ele>
      </trkpt>
      <trkpt lat="41.615803241729736" lon="2.4528050422668457">
        <ele>529.91</ele>
      </trkpt>
      <trkpt lat="41.61563158035278" lon="2.452526092529297">
        <ele>529.1</ele>
      </trkpt>
      <trkpt lat="41.615610122680664" lon="2.4523544311523438">
        <ele>528.27</ele>
      </trkpt>
      <trkpt lat="41.615653121843934" lon="2.452054023742676">
        <ele>527.24</ele>
      </trkpt>
      <trkpt lat="41.61588890478015" lon="2.4518824461847544">
        <ele>526.08</ele>
      </trkpt>
      <trkpt lat="41.61612510681152" lon="2.4517107009887695">
        <ele>524.63</ele>
      </trkpt>
      <trkpt lat="41.61625385284424" lon="2.4515175819396973">
        <ele>523.08</ele>
      </trkpt>
      <trkpt lat="41.61632903851569" lon="2.4511305056512356">
        <ele>521.44</ele>
      </trkpt>
      <trkpt lat="41.61640405654907" lon="2.450745105743408">
        <ele>519.67</ele>
      </trkpt>
      <trkpt lat="41.616597175598145" lon="2.4505090713500977">
        <ele>517.8</ele>
      </trkpt>
      <trkpt lat="41.61664009094238" lon="2.450401782989502">
        <ele>516.05</ele>
      </trkpt>
      <trkpt lat="41.61655434407294" lon="2.4500370025634766">
        <ele>514.15</ele>
      </trkpt>
      <trkpt lat="41.616554260253906" lon="2.4500370025634766">
        <ele>512.39</ele>
      </trkpt>
      <trkpt lat="41.616597175598145" lon="2.449951171875">
        <ele>510.57</ele>
      </trkpt>
      <trkpt lat="41.61679037846625" lon="2.449628971517086">
        <ele>508.64</ele>
      </trkpt>
      <trkpt lat="41.61698341369629" lon="2.449307441711426">
        <ele>506.78</ele>
      </trkpt>
      <trkpt lat="41.61708005703986" lon="2.449017260223627">
        <ele>504.83</ele>
      </trkpt>
      <trkpt lat="41.61717653274536" lon="2.448728084564209">
        <ele>502.85</ele>
      </trkpt>
      <trkpt lat="41.61725171841681" lon="2.4485023599117994">
        <ele>500.79</ele>
      </trkpt>
      <trkpt lat="41.617326736450195" lon="2.448277473449707">
        <ele>498.7</ele>
      </trkpt>
      <trkpt lat="41.617348194122314" lon="2.44795560836792">
        <ele>496.58</ele>
      </trkpt>
      <trkpt lat="41.61735624074936" lon="2.4478888884186745">
        <ele>494.58</ele>
      </trkpt>
      <trkpt lat="41.61735640838742" lon="2.4478876311331987">
        <ele>492.63</ele>
      </trkpt>
      <trkpt lat="41.61735674366355" lon="2.4478856194764376">
        <ele>490.66</ele>
      </trkpt>
      <trkpt lat="41.61735691130161" lon="2.4478847812861204">
        <ele>488.69</ele>
      </trkpt>
      <trkpt lat="41.61739697679877" lon="2.447557132691145">
        <ele>486.44</ele>
      </trkpt>
      <trkpt lat="41.61743704229593" lon="2.447229567915201">
        <ele>484.23</ele>
      </trkpt>
      <trkpt lat="41.61747694015503" lon="2.446904182434082">
        <ele>482.0</ele>
      </trkpt>
      <trkpt lat="41.61760585382581" lon="2.446653563529253">
        <ele>479.84</ele>
      </trkpt>
      <trkpt lat="41.617734767496586" lon="2.446402944624424">
        <ele>477.83</ele>
      </trkpt>
      <trkpt lat="41.617863262072206" lon="2.446153163909912">
        <ele>475.9</ele>
      </trkpt>
      <trkpt lat="41.61803483963013" lon="2.446002960205078">
        <ele>473.89</ele>
      </trkpt>
      <trkpt lat="41.61824941635132" lon="2.4457454681396484">
        <ele>471.82</ele>
      </trkpt>
      <trkpt lat="41.618356704711914" lon="2.445359230041504">
        <ele>469.85</ele>
      </trkpt>
      <trkpt lat="41.61838889122009" lon="2.4451334215700626">
        <ele>467.93</ele>
      </trkpt>
      <trkpt lat="41.61842107772827" lon="2.444908618927002">
        <ele>466.04</ele>
      </trkpt>
      <trkpt lat="41.61842107772827" lon="2.4446289986371994">
        <ele>464.18</ele>
      </trkpt>
      <trkpt lat="41.6184211615473" lon="2.4443507194519043">
        <ele>462.34</ele>
      </trkpt>
      <trkpt lat="41.61842107772827" lon="2.444007396697998">
        <ele>460.47</ele>
      </trkpt>
      <trkpt lat="41.61846399307251" lon="2.443728446960449">
        <ele>458.78</ele>
      </trkpt>
      <trkpt lat="41.61857136525214" lon="2.4435673467814922">
        <ele>457.33</ele>
      </trkpt>
      <trkpt lat="41.61867865361273" lon="2.443406581878662">
        <ele>455.95</ele>
      </trkpt>
      <trkpt lat="41.6187858581543" lon="2.443256378173828">
        <ele>454.65</ele>
      </trkpt>
      <trkpt lat="41.618925500661135" lon="2.4429340101778507">
        <ele>453.39</ele>
      </trkpt>
      <trkpt lat="41.61906489171088" lon="2.442612648010254">
        <ele>452.08</ele>
      </trkpt>
      <trkpt lat="41.61917159333825" lon="2.442372003570199">
        <ele>450.97</ele>
      </trkpt>
      <trkpt lat="41.61917209625244" lon="2.4423709977418184">
        <ele>450.01</ele>
      </trkpt>
      <trkpt lat="41.61917285062373" lon="2.442369405180216">
        <ele>449.12</ele>
      </trkpt>
      <trkpt lat="41.619173185899854" lon="2.442368818446994">
        <ele>448.3</ele>
      </trkpt>
      <trkpt lat="41.6192364692688" lon="2.4422264099121094">
        <ele>447.43</ele>
      </trkpt>
      <trkpt lat="41.61927938461304" lon="2.441861629486084">
        <ele>446.61</ele>
      </trkpt>
      <trkpt lat="41.61924711428583" lon="2.4416035506874323">
        <ele>445.92</ele>
      </trkpt>
      <trkpt lat="41.61921501159668" lon="2.4413466453552246">
        <ele>445.24</ele>
      </trkpt>
      <trkpt lat="41.61921509541571" lon="2.441089153289795">
        <ele>444.65</ele>
      </trkpt>
      <trkpt lat="41.61921501159668" lon="2.4410247802734375">
        <ele>444.23</ele>
      </trkpt>
      <trkpt lat="41.619300842285156" lon="2.4408960342407227">
        <ele>443.87</ele>
      </trkpt>
      <trkpt lat="41.61942958831787" lon="2.4408745765686035">
        <ele>443.53</ele>
      </trkpt>
      <trkpt lat="41.61969177424908" lon="2.4406699743121862">
        <ele>443.26</ele>
      </trkpt>
      <trkpt lat="41.61995052359998" lon="2.440467970445752">
        <ele>442.95</ele>
      </trkpt>
      <trkpt lat="41.619951697066426" lon="2.440467132255435">
        <ele>442.66</ele>
      </trkpt>
      <trkpt lat="41.61995337344706" lon="2.4404658749699593">
        <ele>442.37</ele>
      </trkpt>
      <trkpt lat="41.61995429545641" lon="2.4404652882367373">
        <ele>442.08</ele>
      </trkpt>
      <trkpt lat="41.620136853307486" lon="2.440322795882821">
        <ele>441.74</ele>
      </trkpt>
      <trkpt lat="41.62031949497759" lon="2.4401803873479366">
        <ele>441.34</ele>
      </trkpt>
      <trkpt lat="41.62050247192383" lon="2.440037727355957">
        <ele>440.9</ele>
      </trkpt>
      <trkpt lat="41.620599115267396" lon="2.439855085685849">
        <ele>440.54</ele>
      </trkpt>
      <trkpt lat="41.6206955909729" lon="2.4396729469299316">
        <ele>440.16</ele>
      </trkpt>
      <trkpt lat="41.620802879333496" lon="2.439544200897217">
        <ele>439.72</ele>
      </trkpt>
      <trkpt lat="41.621081829071045" lon="2.439415454864502">
        <ele>439.15</ele>
      </trkpt>
      <trkpt lat="41.62108191289008" lon="2.439415454864502">
        <ele>438.63</ele>
      </trkpt>
      <trkpt lat="41.62127494812012" lon="2.4393725395202637">
        <ele>437.94</ele>
      </trkpt>
      <trkpt lat="41.62142515182495" lon="2.439243793487549">
        <ele>437.32</ele>
      </trkpt>
      <trkpt lat="41.621607542037964" lon="2.4390398617833853">
        <ele>436.69</ele>
      </trkpt>
      <trkpt lat="41.62178993225098" lon="2.438836097717285">
        <ele>436.07</ele>
      </trkpt>
      <trkpt lat="41.62196159362793" lon="2.4387288093566895">
        <ele>435.4</ele>
      </trkpt>
      <trkpt lat="41.62218304350972" lon="2.4386430624872446">
        <ele>434.69</ele>
      </trkpt>
      <trkpt lat="41.622404493391514" lon="2.4385573156177998">
        <ele>434.02</ele>
      </trkpt>
      <trkpt lat="41.62262678146362" lon="2.4384713172912598">
        <ele>433.37</ele>
      </trkpt>
      <trkpt lat="41.62288427352905" lon="2.4382996559143066">
        <ele>432.79</ele>
      </trkpt>
      <trkpt lat="41.62303447723389" lon="2.4381065368652344">
        <ele>432.26</ele>
      </trkpt>
      <trkpt lat="41.6231632232666" lon="2.4378490447998047">
        <ele>431.79</ele>
      </trkpt>
      <trkpt lat="41.623242013156414" lon="2.437540842220187">
        <ele>431.34</ele>
      </trkpt>
      <trkpt lat="41.62332080304623" lon="2.4372327234596014">
        <ele>430.98</ele>
      </trkpt>
      <trkpt lat="41.62339925765991" lon="2.4369263648986816">
        <ele>430.78</ele>
      </trkpt>
      <trkpt lat="41.623592460528016" lon="2.436668872833252">
        <ele>430.6</ele>
      </trkpt>
      <trkpt lat="41.62365674972534" lon="2.4365615844726562">
        <ele>430.49</ele>
      </trkpt>
      <trkpt lat="41.62380712106824" lon="2.4362607579678297">
        <ele>430.39</ele>
      </trkpt>
      <trkpt lat="41.62395715713501" lon="2.4359607696533203">
        <ele>430.47</ele>
      </trkpt>
      <trkpt lat="41.62400007247925" lon="2.4358749389648438">
        <ele>430.57</ele>
      </trkpt>
      <trkpt lat="41.624107360839844" lon="2.4356603622436523">
        <ele>430.77</ele>
      </trkpt>
      <trkpt lat="41.6242718975991" lon="2.4354457017034292">
        <ele>431.0</ele>
      </trkpt>
      <trkpt lat="41.62443643435836" lon="2.435231041163206">
        <ele>431.28</ele>
      </trkpt>
      <trkpt lat="41.624600887298584" lon="2.435016632080078">
        <ele>431.54</ele>
      </trkpt>
      <trkpt lat="41.624600971117616" lon="2.435016632080078">
        <ele>431.74</ele>
      </trkpt>
      <trkpt lat="41.62470817565918" lon="2.434866428375244">
        <ele>431.95</ele>
      </trkpt>
      <trkpt lat="41.624836921691895" lon="2.4345874786376953">
        <ele>432.14</ele>
      </trkpt>
      <trkpt lat="41.624836921691895" lon="2.4344801902770996">
        <ele>432.31</ele>
      </trkpt>
      <trkpt lat="41.62472225725651" lon="2.4341200198978186">
        <ele>432.41</ele>
      </trkpt>
      <trkpt lat="41.62472200579941" lon="2.4341191817075014">
        <ele>432.52</ele>
      </trkpt>
      <trkpt lat="41.62472150288522" lon="2.434117505326867">
        <ele>432.58</ele>
      </trkpt>
      <trkpt lat="41.62472141906619" lon="2.4341170862317085">
        <ele>432.61</ele>
      </trkpt>
      <trkpt lat="41.62468671798706" lon="2.4340081214904785">
        <ele>432.58</ele>
      </trkpt>
      <trkpt lat="41.62468671798706" lon="2.4338364601135254">
        <ele>432.51</ele>
      </trkpt>
      <trkpt lat="41.62475117482245" lon="2.433632193133235">
        <ele>432.42</ele>
      </trkpt>
      <trkpt lat="41.624815464019775" lon="2.4334287643432617">
        <ele>432.21</ele>
      </trkpt>
      <trkpt lat="41.624858379364014" lon="2.4331283569335938">
        <ele>432.04</ele>
      </trkpt>
      <trkpt lat="41.62479383870959" lon="2.432719739153981">
        <ele>431.79</ele>
      </trkpt>
      <trkpt lat="41.6247296333313" lon="2.4323129653930664">
        <ele>431.38</ele>
      </trkpt>
      <trkpt lat="41.62477254867554" lon="2.432098388671875">
        <ele>431.09</ele>
      </trkpt>
      <trkpt lat="41.624837005510926" lon="2.431904934346676">
        <ele>430.75</ele>
      </trkpt>
      <trkpt lat="41.62490129470825" lon="2.4317121505737305">
        <ele>430.44</ele>
      </trkpt>
      <trkpt lat="41.625072956085205" lon="2.431508218869567">
        <ele>430.13</ele>
      </trkpt>
      <trkpt lat="41.62524461746216" lon="2.431304454803467">
        <ele>429.69</ele>
      </trkpt>
      <trkpt lat="41.62541627883911" lon="2.431004047393799">
        <ele>429.3</ele>
      </trkpt>
      <trkpt lat="41.62545919418335" lon="2.430875301361084">
        <ele>428.87</ele>
      </trkpt>
      <trkpt lat="41.62548065185547" lon="2.4306386802345514">
        <ele>428.4</ele>
      </trkpt>
      <trkpt lat="41.62550210952759" lon="2.430403232574463">
        <ele>428.0</ele>
      </trkpt>
      <trkpt lat="41.625588024035096" lon="2.4301775079220533">
        <ele>427.59</ele>
      </trkpt>
      <trkpt lat="41.62567377090454" lon="2.429952621459961">
        <ele>427.14</ele>
      </trkpt>
      <trkpt lat="41.62569522857666" lon="2.4297160003334284">
        <ele>426.62</ele>
      </trkpt>
      <trkpt lat="41.62571668624878" lon="2.42948055267334">
        <ele>426.0</ele>
      </trkpt>
      <trkpt lat="41.6258348710835" lon="2.4291151016950607">
        <ele>425.3</ele>
      </trkpt>
      <trkpt lat="41.62595272064209" lon="2.428750991821289">
        <ele>424.67</ele>
      </trkpt>
      <trkpt lat="41.62612438201904" lon="2.428530966863036">
        <ele>424.08</ele>
      </trkpt>
      <trkpt lat="41.62629612721503" lon="2.4283109419047832">
        <ele>423.31</ele>
      </trkpt>
      <trkpt lat="41.62646787241101" lon="2.4280909169465303">
        <ele>422.38</ele>
      </trkpt>
      <trkpt lat="41.6266393661499" lon="2.4278712272644043">
        <ele>421.4</ele>
      </trkpt>
      <trkpt lat="41.6267466545105" lon="2.427699565887451">
        <ele>420.47</ele>
      </trkpt>
      <trkpt lat="41.626843297854066" lon="2.427484653890133">
        <ele>419.49</ele>
      </trkpt>
      <trkpt lat="41.62693977355957" lon="2.4272704124450684">
        <ele>418.46</ele>
      </trkpt>
      <trkpt lat="41.627056784927845" lon="2.4270945601165295">
        <ele>417.43</ele>
      </trkpt>
      <trkpt lat="41.62705762311816" lon="2.4270933866500854">
        <ele>416.5</ele>
      </trkpt>
      <trkpt lat="41.627058796584606" lon="2.427091710269451">
        <ele>415.56</ele>
      </trkpt>
      <trkpt lat="41.62705938331783" lon="2.4270909558981657">
        <ele>414.62</ele>
      </trkpt>
      <trkpt lat="41.627197265625" lon="2.426884174346924">
        <ele>413.63</ele>
      </trkpt>
      <trkpt lat="41.62726163864136" lon="2.426605224609375">
        <ele>412.74</ele>
      </trkpt>
      <trkpt lat="41.62719709798694" lon="2.426411770284176">
        <ele>411.68</ele>
      </trkpt>
      <trkpt lat="41.62713289260864" lon="2.4262189865112305">
        <ele>410.59</ele>
      </trkpt>
      <trkpt lat="41.62725107744336" lon="2.4258965346962214">
        <ele>409.62</ele>
      </trkpt>
      <trkpt lat="41.62736892700195" lon="2.4255752563476562">
        <ele>408.56</ele>
      </trkpt>
      <trkpt lat="41.62736892700195" lon="2.4254679679870605">
        <ele>407.69</ele>
      </trkpt>
      <trkpt lat="41.627369010820985" lon="2.4254679679870605">
        <ele>406.83</ele>
      </trkpt>
      <trkpt lat="41.62724713794887" lon="2.4250809755176306">
        <ele>406.01</ele>
      </trkpt>
      <trkpt lat="41.62712526507676" lon="2.4246940668672323">
        <ele>405.14</ele>
      </trkpt>
      <trkpt lat="41.62700414657593" lon="2.424309253692627">
        <ele>404.18</ele>
      </trkpt>
      <trkpt lat="41.626956621184945" lon="2.4241274502128363">
        <ele>403.37</ele>
      </trkpt>
      <trkpt lat="41.62695628590882" lon="2.424126109108329">
        <ele>402.69</ele>
      </trkpt>
      <trkpt lat="41.62695578299463" lon="2.424124013632536">
        <ele>402.05</ele>
      </trkpt>
      <trkpt lat="41.626955615356565" lon="2.424123175442219">
        <ele>401.45</ele>
      </trkpt>
      <trkpt lat="41.626885794103146" lon="2.4238556250929832">
        <ele>400.86</ele>
      </trkpt>
      <trkpt lat="41.62681597284973" lon="2.4235881585627794">
        <ele>400.31</ele>
      </trkpt>
      <trkpt lat="41.6267466545105" lon="2.4233222007751465">
        <ele>399.85</ele>
      </trkpt>
      <trkpt lat="41.62661765702069" lon="2.42302137427032">
        <ele>399.34</ele>
      </trkpt>
      <trkpt lat="41.62648916244507" lon="2.4227213859558105">
        <ele>398.8</ele>
      </trkpt>
      <trkpt lat="41.62640333175659" lon="2.4223995208740234">
        <ele>398.34</ele>
      </trkpt>
      <trkpt lat="41.6263925191015" lon="2.4221736285835505">
        <ele>397.9</ele>
      </trkpt>
      <trkpt lat="41.62638187408447" lon="2.4219489097595215">
        <ele>397.43</ele>
      </trkpt>
      <trkpt lat="41.626353124156594" lon="2.421669289469719">
        <ele>396.88</ele>
      </trkpt>
      <trkpt lat="41.62632445804775" lon="2.421389752998948">
        <ele>396.36</ele>
      </trkpt>
      <trkpt lat="41.626296043395996" lon="2.421112060546875">
        <ele>395.87</ele>
      </trkpt>
      <trkpt lat="41.626296043395996" lon="2.420790195465088">
        <ele>395.42</ele>
      </trkpt>
      <trkpt lat="41.626338958740234" lon="2.4205970764160156">
        <ele>395.06</ele>
      </trkpt>
      <trkpt lat="41.62640333175659" lon="2.42048978805542">
        <ele>394.78</ele>
      </trkpt>
      <trkpt lat="41.62653216160834" lon="2.4204468727111816">
        <ele>394.44</ele>
      </trkpt>
      <trkpt lat="41.62668211385608" lon="2.4205111619085073">
        <ele>394.16</ele>
      </trkpt>
      <trkpt lat="41.626832485198975" lon="2.4205756187438965">
        <ele>393.82</ele>
      </trkpt>
      <trkpt lat="41.627010349184275" lon="2.4205756187438965">
        <ele>393.29</ele>
      </trkpt>
      <trkpt lat="41.62701210938394" lon="2.4205756187438965">
        <ele>392.7</ele>
      </trkpt>
      <trkpt lat="41.62722232751548" lon="2.4205756187438965">
        <ele>392.1</ele>
      </trkpt>
      <trkpt lat="41.62743330001831" lon="2.4205756187438965">
        <ele>391.22</ele>
      </trkpt>
      <trkpt lat="41.627583503723145" lon="2.420468330383301">
        <ele>390.13</ele>
      </trkpt>
      <trkpt lat="41.627604961395264" lon="2.420511245727539">
        <ele>389.02</ele>
      </trkpt>
      <trkpt lat="41.62762641906738" lon="2.4205541610717773">
        <ele>387.74</ele>
      </trkpt>
      <trkpt lat="41.62777662277222" lon="2.420532703399658">
        <ele>386.23</ele>
      </trkpt>
      <trkpt lat="41.62792682647705" lon="2.4207043647766113">
        <ele>384.49</ele>
      </trkpt>
      <trkpt lat="41.62806621752679" lon="2.4208115693181753">
        <ele>382.56</ele>
      </trkpt>
      <trkpt lat="41.62820586003363" lon="2.4209189414978027">
        <ele>380.35</ele>
      </trkpt>
      <trkpt lat="41.62846326828003" lon="2.4210262298583984">
        <ele>377.83</ele>
      </trkpt>
      <trkpt lat="41.62861347198486" lon="2.421133518218994">
        <ele>375.26</ele>
      </trkpt>
      <trkpt lat="41.62877423688769" lon="2.4211870785802603">
        <ele>372.6</ele>
      </trkpt>
      <trkpt lat="41.62893542088568" lon="2.42124080657959">
        <ele>369.83</ele>
      </trkpt>
      <trkpt lat="41.629107082262635" lon="2.421262264251709">
        <ele>367.02</ele>
      </trkpt>
      <trkpt lat="41.62940740585327" lon="2.42124080657959">
        <ele>364.16</ele>
      </trkpt>
      <trkpt lat="41.62962173111737" lon="2.4212836381047964">
        <ele>361.16</ele>
      </trkpt>
      <trkpt lat="41.629836643114686" lon="2.4213266372680664">
        <ele>358.05</ele>
      </trkpt>
      <trkpt lat="41.63004023954272" lon="2.421230161562562">
        <ele>354.96</ele>
      </trkpt>
      <trkpt lat="41.63024425506592" lon="2.421133518218994">
        <ele>351.91</ele>
      </trkpt>
      <trkpt lat="41.63039445877075" lon="2.42098331451416">
        <ele>348.96</ele>
      </trkpt>
      <trkpt lat="41.630566120147705" lon="2.4207043647766113">
        <ele>345.78</ele>
      </trkpt>
      <trkpt lat="41.630587577819824" lon="2.420382499694824">
        <ele>342.82</ele>
      </trkpt>
      <trkpt lat="41.63065195083618" lon="2.4202537536621094">
        <ele>340.09</ele>
      </trkpt>
      <trkpt lat="41.63065195083618" lon="2.420017132535577">
        <ele>337.44</ele>
      </trkpt>
      <trkpt lat="41.63065195083618" lon="2.4197816848754883">
        <ele>334.79</ele>
      </trkpt>
      <trkpt lat="41.63063049316406" lon="2.4196743965148926">
        <ele>332.48</ele>
      </trkpt>
      <trkpt lat="41.630544662475586" lon="2.419610023498535">
        <ele>330.48</ele>
      </trkpt>
      <trkpt lat="41.63052320480347" lon="2.4195241928100586">
        <ele>328.49</ele>
      </trkpt>
      <trkpt lat="41.630544662475586" lon="2.4193739891052246">
        <ele>326.57</ele>
      </trkpt>
      <trkpt lat="41.630587577819824" lon="2.419309616088867">
        <ele>324.82</ele>
      </trkpt>
      <trkpt lat="41.6306734085083" lon="2.419288158416748">
        <ele>323.1</ele>
      </trkpt>
      <trkpt lat="41.63073778152466" lon="2.4192237854003906">
        <ele>321.5</ele>
      </trkpt>
      <trkpt lat="41.630845153704286" lon="2.418987415730953">
        <ele>320.09</ele>
      </trkpt>
      <trkpt lat="41.63095235824585" lon="2.4187517166137695">
        <ele>318.71</ele>
      </trkpt>
      <trkpt lat="41.63118839263916" lon="2.418644428253174">
        <ele>316.8</ele>
      </trkpt>
      <trkpt lat="41.63136005401611" lon="2.4184083938598633">
        <ele>315.49</ele>
      </trkpt>
      <trkpt lat="41.63161754608154" lon="2.418193817138672">
        <ele>313.89</ele>
      </trkpt>
      <trkpt lat="41.63166046142578" lon="2.418065071105957">
        <ele>312.66</ele>
      </trkpt>
      <trkpt lat="41.63167119026184" lon="2.4177854508161545">
        <ele>311.56</ele>
      </trkpt>
      <trkpt lat="41.6316819190979" lon="2.4175071716308594">
        <ele>310.41</ele>
      </trkpt>
      <trkpt lat="41.631885683164" lon="2.4173355102539062">
        <ele>308.86</ele>
      </trkpt>
      <trkpt lat="41.632089614868164" lon="2.417163848876953">
        <ele>307.38</ele>
      </trkpt>
      <trkpt lat="41.632089698687196" lon="2.4170780181884766">
        <ele>306.14</ele>
      </trkpt>
      <trkpt lat="41.63211107254028" lon="2.4167990684509277">
        <ele>304.85</ele>
      </trkpt>
      <trkpt lat="41.63219690322876" lon="2.416541576385498">
        <ele>303.44</ele>
      </trkpt>
      <trkpt lat="41.63221836090088" lon="2.416294226422906">
        <ele>302.04</ele>
      </trkpt>
      <trkpt lat="41.632239818573" lon="2.416048049926758">
        <ele>300.51</ele>
      </trkpt>
      <trkpt lat="41.63221844471991" lon="2.4158334732055664">
        <ele>298.89</ele>
      </trkpt>
      <trkpt lat="41.63217544555664" lon="2.4157261848449707">
        <ele>297.26</ele>
      </trkpt>
      <trkpt lat="41.63201451301575" lon="2.4155759811401367">
        <ele>295.62</ele>
      </trkpt>
      <trkpt lat="41.63185358047485" lon="2.4154257774353027">
        <ele>293.77</ele>
      </trkpt>
      <trkpt lat="41.63166054524481" lon="2.4152755737304688">
        <ele>291.85</ele>
      </trkpt>
      <trkpt lat="41.63146734237671" lon="2.4151253700256348">
        <ele>289.99</ele>
      </trkpt>
      <trkpt lat="41.63140296936035" lon="2.415039539337158">
        <ele>287.98</ele>
      </trkpt>
      <trkpt lat="41.63125251419842" lon="2.4147064425051212">
        <ele>285.56</ele>
      </trkpt>
      <trkpt lat="41.631102561950684" lon="2.414374351501465">
        <ele>283.29</ele>
      </trkpt>
      <trkpt lat="41.631059646606445" lon="2.414224147796631">
        <ele>281.08</ele>
      </trkpt>
      <trkpt lat="41.631081188097596" lon="2.4141383171081543">
        <ele>278.68</ele>
      </trkpt>
      <trkpt lat="41.6311240196228" lon="2.414095401763916">
        <ele>276.21</ele>
      </trkpt>
      <trkpt lat="41.63130607455969" lon="2.414095401763916">
        <ele>273.5</ele>
      </trkpt>
      <trkpt lat="41.63148880004883" lon="2.414095401763916">
        <ele>270.7</ele>
      </trkpt>
      <trkpt lat="41.6316819190979" lon="2.413880741223693">
        <ele>267.91</ele>
      </trkpt>
      <trkpt lat="41.63187503814697" lon="2.413666248321533">
        <ele>265.1</ele>
      </trkpt>
      <trkpt lat="41.632132194936275" lon="2.4135483149439096">
        <ele>261.76</ele>
      </trkpt>
      <trkpt lat="41.63239002227783" lon="2.4134302139282227">
        <ele>258.46</ele>
      </trkpt>
      <trkpt lat="41.63260434754193" lon="2.413344467058778">
        <ele>255.08</ele>
      </trkpt>
      <trkpt lat="41.632819175720215" lon="2.4132585525512695">
        <ele>251.55</ele>
      </trkpt>
      <trkpt lat="41.633108435198665" lon="2.413194263353944">
        <ele>247.96</ele>
      </trkpt>
      <trkpt lat="41.63339853286743" lon="2.4131298065185547">
        <ele>244.22</ele>
      </trkpt>
      <trkpt lat="41.63361310958862" lon="2.4129152297973633">
        <ele>240.7</ele>
      </trkpt>
      <trkpt lat="41.63375266827643" lon="2.412689672783017">
        <ele>237.27</ele>
      </trkpt>
      <trkpt lat="41.63389205932617" lon="2.4124646186828613">
        <ele>233.75</ele>
      </trkpt>
      <trkpt lat="41.63408501073718" lon="2.412335956469178">
        <ele>230.21</ele>
      </trkpt>
      <trkpt lat="41.63427796214819" lon="2.412207294255495">
        <ele>226.86</ele>
      </trkpt>
      <trkpt lat="41.63447141647339" lon="2.412078380584717">
        <ele>223.72</ele>
      </trkpt>
      <trkpt lat="41.6347074508667" lon="2.4120569229125977">
        <ele>220.55</ele>
      </trkpt>
      <trkpt lat="41.634814739227295" lon="2.4120569229125977">
        <ele>217.56</ele>
      </trkpt>
      <trkpt lat="41.63481482304633" lon="2.4120569229125977">
        <ele>214.78</ele>
      </trkpt>
      <trkpt lat="41.63508279249072" lon="2.4118853453546762">
        <ele>211.84</ele>
      </trkpt>
      <trkpt lat="41.63535118103027" lon="2.4117136001586914">
        <ele>209.07</ele>
      </trkpt>
      <trkpt lat="41.63556567393243" lon="2.411506148055196">
        <ele>206.5</ele>
      </trkpt>
      <trkpt lat="41.635780250653625" lon="2.411298779770732">
        <ele>204.02</ele>
      </trkpt>
      <trkpt lat="41.63599491119385" lon="2.4110913276672363">
        <ele>201.62</ele>
      </trkpt>
      <trkpt lat="41.63618811406195" lon="2.4110913276672363">
        <ele>199.36</ele>
      </trkpt>
      <trkpt lat="41.63640260696411" lon="2.4107909202575684">
        <ele>197.31</ele>
      </trkpt>
      <trkpt lat="41.63650997914374" lon="2.410597549751401">
        <ele>195.43</ele>
      </trkpt>
      <trkpt lat="41.6366171836853" lon="2.410404682159424">
        <ele>193.61</ele>
      </trkpt>
      <trkpt lat="41.63691759109497" lon="2.410297393798828">
        <ele>191.73</ele>
      </trkpt>
      <trkpt lat="41.637067794799805" lon="2.4101256486028433">
        <ele>189.99</ele>
      </trkpt>
      <trkpt lat="41.63721799850464" lon="2.409954071044922">
        <ele>188.32</ele>
      </trkpt>
      <trkpt lat="41.63749694824219" lon="2.409846782684326">
        <ele>186.83</ele>
      </trkpt>
      <trkpt lat="41.63749703206122" lon="2.409846782684326">
        <ele>185.68</ele>
      </trkpt>
      <trkpt lat="41.63766860961914" lon="2.409803867340088">
        <ele>184.56</ele>
      </trkpt>
      <trkpt lat="41.63789374753833" lon="2.4096322897821665">
        <ele>183.54</ele>
      </trkpt>
      <trkpt lat="41.63811922073364" lon="2.4094605445861816">
        <ele>182.75</ele>
      </trkpt>
      <trkpt lat="41.63827998563647" lon="2.409374713897705">
        <ele>182.12</ele>
      </trkpt>
      <trkpt lat="41.63844108581543" lon="2.4092888832092285">
        <ele>181.63</ele>
      </trkpt>
      <trkpt lat="41.63850545883179" lon="2.409203052520752">
        <ele>181.22</ele>
      </trkpt>
      <trkpt lat="41.63850545883179" lon="2.409074306488037">
        <ele>180.89</ele>
      </trkpt>
      <trkpt lat="41.6383907943964" lon="2.4087806046009064">
        <ele>180.61</ele>
      </trkpt>
      <trkpt lat="41.638276213780046" lon="2.4084869027137756">
        <ele>180.43</ele>
      </trkpt>
      <trkpt lat="41.63816213607788" lon="2.4081945419311523">
        <ele>180.33</ele>
      </trkpt>
      <trkpt lat="41.63804177194834" lon="2.4078893568366766">
        <ele>180.23</ele>
      </trkpt>
      <trkpt lat="41.637921407818794" lon="2.407584171742201">
        <ele>180.19</ele>
      </trkpt>
      <trkpt lat="41.63780104368925" lon="2.407278986647725">
        <ele>180.33</ele>
      </trkpt>
      <trkpt lat="41.63768076337874" lon="2.406973885372281">
        <ele>180.44</ele>
      </trkpt>
      <trkpt lat="41.637561321258545" lon="2.4066710472106934">
        <ele>180.49</ele>
      </trkpt>
      <trkpt lat="41.63766860961914" lon="2.406456470489502">
        <ele>180.66</ele>
      </trkpt>
      <trkpt lat="41.63779743947089" lon="2.406327724456787">
        <ele>180.87</ele>
      </trkpt>
      <trkpt lat="41.6379261855036" lon="2.406177520751953">
        <ele>181.12</ele>
      </trkpt>
      <trkpt lat="41.63794755935669" lon="2.4061131477355957">
        <ele>181.36</ele>
      </trkpt>
      <trkpt lat="41.63794755935669" lon="2.4059629440307617">
        <ele>181.62</ele>
      </trkpt>
      <trkpt lat="41.638033390045166" lon="2.405834197998047">
        <ele>181.89</ele>
      </trkpt>
      <trkpt lat="41.63818367756903" lon="2.4057912826538086">
        <ele>182.1</ele>
      </trkpt>
      <trkpt lat="41.638054847717285" lon="2.405533790588379">
        <ele>182.25</ele>
      </trkpt>
      <trkpt lat="41.63805493153632" lon="2.405533790588379">
        <ele>182.4</ele>
      </trkpt>
      <trkpt lat="41.63791880942881" lon="2.4052544217556715">
        <ele>182.49</ele>
      </trkpt>
      <trkpt lat="41.637782687321305" lon="2.404975136741996">
        <ele>182.58</ele>
      </trkpt>
      <trkpt lat="41.63764715194702" lon="2.4046969413757324">
        <ele>182.67</ele>
      </trkpt>
      <trkpt lat="41.63755042478442" lon="2.4044174887239933">
        <ele>182.84</ele>
      </trkpt>
      <trkpt lat="41.63745403289795" lon="2.4041390419006348">
        <ele>182.94</ele>
      </trkpt>
      <trkpt lat="41.63745411671698" lon="2.4041390419006348">
        <ele>183.0</ele>
      </trkpt>
      <trkpt lat="41.63737876340747" lon="2.403870318084955">
        <ele>182.98</ele>
      </trkpt>
      <trkpt lat="41.637303829193115" lon="2.4036026000976562">
        <ele>183.08</ele>
      </trkpt>
      <trkpt lat="41.63721799850464" lon="2.4036026000976562">
        <ele>183.1</ele>
      </trkpt>
      <trkpt lat="41.637089252471924" lon="2.4033451080322266">
        <ele>183.14</ele>
      </trkpt>
      <trkpt lat="41.63696050643921" lon="2.4031734466552734">
        <ele>183.21</ele>
      </trkpt>
      <trkpt lat="41.63687467575073" lon="2.4030447006225586">
        <ele>183.29</ele>
      </trkpt>
      <trkpt lat="41.63685321807861" lon="2.4028515815734863">
        <ele>183.36</ele>
      </trkpt>
      <trkpt lat="41.63687467575073" lon="2.4027228355407715">
        <ele>183.46</ele>
      </trkpt>
      <trkpt lat="41.63711071014404" lon="2.402615547180176">
        <ele>183.5</ele>
      </trkpt>
      <trkpt lat="41.637303829193115" lon="2.402615547180176">
        <ele>183.51</ele>
      </trkpt>
      <trkpt lat="41.63734674453735" lon="2.4027442932128906">
        <ele>183.46</ele>
      </trkpt>
      <trkpt lat="41.63741120137274" lon="2.4027657508850098">
        <ele>183.4</ele>
      </trkpt>
      <trkpt lat="41.63741111755371" lon="2.4029159545898438">
        <ele>183.37</ele>
      </trkpt>
      <trkpt lat="41.63751136511564" lon="2.403202448040247">
        <ele>183.32</ele>
      </trkpt>
      <trkpt lat="41.637611696496606" lon="2.403489025309682">
        <ele>183.36</ele>
      </trkpt>
      <trkpt lat="41.63771152496338" lon="2.4037742614746094">
        <ele>183.42</ele>
      </trkpt>
      <trkpt lat="41.63787245750427" lon="2.403978109359741">
        <ele>183.54</ele>
      </trkpt>
      <trkpt lat="41.638033390045166" lon="2.404181957244873">
        <ele>183.68</ele>
      </trkpt>
      <trkpt lat="41.6381077375263" lon="2.404367784038186">
        <ele>183.86</ele>
      </trkpt>
      <trkpt lat="41.63818124681711" lon="2.4045516829937696">
        <ele>184.0</ele>
      </trkpt>
    </trkseg>
  </trk>
</gpx>
