<?xml version="1.0" encoding="UTF-8"?>
<gpx creator="Garmin Connect" version="1.1"
  xsi:schemaLocation="http://www.topografix.com/GPX/1/1 http://www.topografix.com/GPX/11.xsd"
  xmlns:ns3="http://www.garmin.com/xmlschemas/TrackPointExtension/v1"
  xmlns="http://www.topografix.com/GPX/1/1"
  xmlns:xsi="http://www.w3.org/2001/XMLSchema-instance" xmlns:ns2="http://www.garmin.com/xmlschemas/GpxExtensions/v3">
  <metadata>
    <name>GR92 Etappi 18: Montcada i Reixac -&gt; Baixador de Vallvidrera</name>
    <link href="connect.garmin.com">
      <text>Garmin Connect</text>
    </link>
    <time>2026-04-15T08:05:20.000Z</time>
  </metadata>
  <trk>
    <name>GR92 Etappi 18: Montcada i Reixac -&gt; Baixador de Vallvidrera</name>
    <trkseg>
      <trkpt lat="41.48443233221769" lon="2.187946792691946">
        <ele>41.3</ele>
      </trkpt>
      <trkpt lat="41.48431062698364" lon="2.187931537628174">
        <ele>41.39</ele>
      </trkpt>
      <trkpt lat="41.48428916931152" lon="2.187931537628174">
        <ele>41.48</ele>
      </trkpt>
      <trkpt lat="41.48431062698364" lon="2.1876096725463867">
        <ele>41.85</ele>
      </trkpt>
      <trkpt lat="41.48435354232788" lon="2.187330722808838">
        <ele>42.22</ele>
      </trkpt>
      <trkpt lat="41.48435354232788" lon="2.1872878074645996">
        <ele>42.5</ele>
      </trkpt>
      <trkpt lat="41.48412832058966" lon="2.1871269587427378">
        <ele>42.61</ele>
      </trkpt>
      <trkpt lat="41.483903182670474" lon="2.186966110020876">
        <ele>42.64</ele>
      </trkpt>
      <trkpt lat="41.48367804475129" lon="2.186805261299014">
        <ele>42.67</ele>
      </trkpt>
      <trkpt lat="41.48345240391791" lon="2.1866440773010254">
        <ele>42.67</ele>
      </trkpt>
      <trkpt lat="41.483516693115234" lon="2.186579704284668">
        <ele>42.73</ele>
      </trkpt>
      <trkpt lat="41.48360260762274" lon="2.1863755211234093">
        <ele>42.91</ele>
      </trkpt>
      <trkpt lat="41.48368835449219" lon="2.1861720085144043">
        <ele>43.14</ele>
      </trkpt>
      <trkpt lat="41.483774268999696" lon="2.1859893668442965">
        <ele>43.37</ele>
      </trkpt>
      <trkpt lat="41.48386001586914" lon="2.185807228088379">
        <ele>43.55</ele>
      </trkpt>
      <trkpt lat="41.48383855819702" lon="2.1855711936950684">
        <ele>43.84</ele>
      </trkpt>
      <trkpt lat="41.48375742137432" lon="2.1853817626833916">
        <ele>44.24</ele>
      </trkpt>
      <trkpt lat="41.48370981216431" lon="2.1852707862854004">
        <ele>44.64</ele>
      </trkpt>
      <trkpt lat="41.48390301503241" lon="2.184991668909788">
        <ele>44.9</ele>
      </trkpt>
      <trkpt lat="41.48409605026245" lon="2.1847128868103027">
        <ele>45.23</ele>
      </trkpt>
      <trkpt lat="41.48405313491821" lon="2.1846914291381836">
        <ele>45.6</ele>
      </trkpt>
      <trkpt lat="41.484031677246094" lon="2.1846699714660645">
        <ele>46.02</ele>
      </trkpt>
      <trkpt lat="41.48405313491821" lon="2.184627056121826">
        <ele>46.51</ele>
      </trkpt>
      <trkpt lat="41.483988761901855" lon="2.1845412254333496">
        <ele>47.16</ele>
      </trkpt>
      <trkpt lat="41.48388147354126" lon="2.184433937072754">
        <ele>47.95</ele>
      </trkpt>
      <trkpt lat="41.48383855819702" lon="2.1843695640563965">
        <ele>48.85</ele>
      </trkpt>
      <trkpt lat="41.48379564285278" lon="2.184433937072754">
        <ele>49.74</ele>
      </trkpt>
      <trkpt lat="41.483752727508545" lon="2.184476852416992">
        <ele>50.75</ele>
      </trkpt>
      <trkpt lat="41.483731269836426" lon="2.1844124794006348">
        <ele>51.97</ele>
      </trkpt>
      <trkpt lat="41.48360252380371" lon="2.1842193603515625">
        <ele>53.51</ele>
      </trkpt>
      <trkpt lat="41.48358106613159" lon="2.184176445007324">
        <ele>55.05</ele>
      </trkpt>
      <trkpt lat="41.483473777770996" lon="2.183961868286133">
        <ele>56.95</ele>
      </trkpt>
      <trkpt lat="41.48345232009888" lon="2.1839189529418945">
        <ele>58.79</ele>
      </trkpt>
      <trkpt lat="41.48334503173828" lon="2.1837472915649414">
        <ele>60.93</ele>
      </trkpt>
      <trkpt lat="41.48332357406616" lon="2.183704376220703">
        <ele>63.02</ele>
      </trkpt>
      <trkpt lat="41.48317337036133" lon="2.183704376220703">
        <ele>65.22</ele>
      </trkpt>
      <trkpt lat="41.483001708984375" lon="2.183554172515869">
        <ele>67.6</ele>
      </trkpt>
      <trkpt lat="41.482765674591064" lon="2.1834254264831543">
        <ele>70.12</ele>
      </trkpt>
      <trkpt lat="41.48261555470526" lon="2.1833395957946777">
        <ele>72.64</ele>
      </trkpt>
      <trkpt lat="41.4824652671814" lon="2.183253765106201">
        <ele>75.24</ele>
      </trkpt>
      <trkpt lat="41.482261419296265" lon="2.183082103729248">
        <ele>78.18</ele>
      </trkpt>
      <trkpt lat="41.48205757141113" lon="2.182910442352295">
        <ele>81.59</ele>
      </trkpt>
      <trkpt lat="41.482014739885926" lon="2.182910442352295">
        <ele>84.53</ele>
      </trkpt>
      <trkpt lat="41.48195028305054" lon="2.182931900024414">
        <ele>87.51</ele>
      </trkpt>
      <trkpt lat="41.4819073677063" lon="2.1830391883850098">
        <ele>90.33</ele>
      </trkpt>
      <trkpt lat="41.48183209821582" lon="2.1832863707095385">
        <ele>93.1</ele>
      </trkpt>
      <trkpt lat="41.481757164001465" lon="2.18353271484375">
        <ele>95.74</ele>
      </trkpt>
      <trkpt lat="41.48169279098511" lon="2.1836185455322266">
        <ele>98.42</ele>
      </trkpt>
      <trkpt lat="41.48162841796875" lon="2.1836185455322266">
        <ele>101.07</ele>
      </trkpt>
      <trkpt lat="41.48158550262451" lon="2.183554172515869">
        <ele>103.71</ele>
      </trkpt>
      <trkpt lat="41.481499671936035" lon="2.1832966804504395">
        <ele>106.57</ele>
      </trkpt>
      <trkpt lat="41.48137092590332" lon="2.183103561401367">
        <ele>109.25</ele>
      </trkpt>
      <trkpt lat="41.48132801055908" lon="2.182888984680176">
        <ele>111.65</ele>
      </trkpt>
      <trkpt lat="41.48142867721617" lon="2.1825029980391264">
        <ele>113.88</ele>
      </trkpt>
      <trkpt lat="41.4814567565918" lon="2.1823954582214355">
        <ele>115.77</ele>
      </trkpt>
      <trkpt lat="41.481600003317" lon="2.1820228826254606">
        <ele>117.46</ele>
      </trkpt>
      <trkpt lat="41.48174333386123" lon="2.1816503908485174">
        <ele>118.7</ele>
      </trkpt>
      <trkpt lat="41.48188599385321" lon="2.1812796592712402">
        <ele>119.78</ele>
      </trkpt>
      <trkpt lat="41.48196117952466" lon="2.1810539346188307">
        <ele>120.88</ele>
      </trkpt>
      <trkpt lat="41.482036113739014" lon="2.1808290481567383">
        <ele>121.65</ele>
      </trkpt>
      <trkpt lat="41.48207902908325" lon="2.180464267730713">
        <ele>122.05</ele>
      </trkpt>
      <trkpt lat="41.482036113739014" lon="2.1802282333374023">
        <ele>122.21</ele>
      </trkpt>
      <trkpt lat="41.48195028305054" lon="2.1800780296325684">
        <ele>122.35</ele>
      </trkpt>
      <trkpt lat="41.481735706329346" lon="2.179863452911377">
        <ele>122.62</ele>
      </trkpt>
      <trkpt lat="41.48169279098511" lon="2.1796059608459473">
        <ele>122.18</ele>
      </trkpt>
      <trkpt lat="41.481735706329346" lon="2.1794772148132324">
        <ele>121.32</ele>
      </trkpt>
      <trkpt lat="41.48184299468994" lon="2.1793484687805176">
        <ele>120.09</ele>
      </trkpt>
      <trkpt lat="41.48200375959277" lon="2.179241180419922">
        <ele>118.48</ele>
      </trkpt>
      <trkpt lat="41.48216485977173" lon="2.179133892059326">
        <ele>116.79</ele>
      </trkpt>
      <trkpt lat="41.48218631744385" lon="2.1790266036987305">
        <ele>115.27</ele>
      </trkpt>
      <trkpt lat="41.48214340209961" lon="2.17879056930542">
        <ele>113.7</ele>
      </trkpt>
      <trkpt lat="41.48192882537842" lon="2.178511619567871">
        <ele>112.39</ele>
      </trkpt>
      <trkpt lat="41.48186445236206" lon="2.1782970428466797">
        <ele>110.84</ele>
      </trkpt>
      <trkpt lat="41.48188591003418" lon="2.178061008453369">
        <ele>109.02</ele>
      </trkpt>
      <trkpt lat="41.482014739885926" lon="2.177835451439023">
        <ele>106.92</ele>
      </trkpt>
      <trkpt lat="41.48214340209961" lon="2.177610397338867">
        <ele>104.94</ele>
      </trkpt>
      <trkpt lat="41.48218631744385" lon="2.1775245666503906">
        <ele>103.52</ele>
      </trkpt>
      <trkpt lat="41.48218631744385" lon="2.177417278289795">
        <ele>102.42</ele>
      </trkpt>
      <trkpt lat="41.4820680487901" lon="2.177094826474786">
        <ele>101.69</ele>
      </trkpt>
      <trkpt lat="41.48195028305054" lon="2.1767735481262207">
        <ele>100.91</ele>
      </trkpt>
      <trkpt lat="41.48182136937976" lon="2.1765479911118746">
        <ele>100.58</ele>
      </trkpt>
      <trkpt lat="41.48169279098511" lon="2.1763229370117188">
        <ele>100.69</ele>
      </trkpt>
      <trkpt lat="41.48162825033069" lon="2.176097212359309">
        <ele>100.79</ele>
      </trkpt>
      <trkpt lat="41.48156404495239" lon="2.175872325897217">
        <ele>100.99</ele>
      </trkpt>
      <trkpt lat="41.48143529891968" lon="2.175722122192383">
        <ele>101.61</ele>
      </trkpt>
      <trkpt lat="41.48123170249164" lon="2.1756577491760254">
        <ele>102.67</ele>
      </trkpt>
      <trkpt lat="41.481027603149414" lon="2.175593376159668">
        <ele>103.9</ele>
      </trkpt>
      <trkpt lat="41.48092031478882" lon="2.1755075454711914">
        <ele>105.0</ele>
      </trkpt>
      <trkpt lat="41.48088946938515" lon="2.175445770844817">
        <ele>106.01</ele>
      </trkpt>
      <trkpt lat="41.48083448410034" lon="2.1753358840942383">
        <ele>107.04</ele>
      </trkpt>
      <trkpt lat="41.480748653411865" lon="2.1750569343566895">
        <ele>107.97</ele>
      </trkpt>
      <trkpt lat="41.48055553436279" lon="2.1747994422912598">
        <ele>109.22</ele>
      </trkpt>
      <trkpt lat="41.48040533065796" lon="2.174499034881592">
        <ele>110.23</ele>
      </trkpt>
      <trkpt lat="41.4801908377558" lon="2.174370288848877">
        <ele>111.44</ele>
      </trkpt>
      <trkpt lat="41.48008346557617" lon="2.174391746520996">
        <ele>112.45</ele>
      </trkpt>
      <trkpt lat="41.4799439907074" lon="2.1742844581604004">
        <ele>113.23</ele>
      </trkpt>
      <trkpt lat="41.47980451583862" lon="2.1741771697998047">
        <ele>113.96</ele>
      </trkpt>
      <trkpt lat="41.47975070402026" lon="2.1738868206739426">
        <ele>114.27</ele>
      </trkpt>
      <trkpt lat="41.47969722747803" lon="2.173597812652588">
        <ele>114.61</ele>
      </trkpt>
      <trkpt lat="41.479793870821595" lon="2.17341517098248">
        <ele>114.48</ele>
      </trkpt>
      <trkpt lat="41.4798903465271" lon="2.1732330322265625">
        <ele>114.16</ele>
      </trkpt>
      <trkpt lat="41.47995471954346" lon="2.173018455505371">
        <ele>113.8</ele>
      </trkpt>
      <trkpt lat="41.47993326187134" lon="2.1729111671447754">
        <ele>113.52</ele>
      </trkpt>
      <trkpt lat="41.47981507703662" lon="2.1726856101304293">
        <ele>113.33</ele>
      </trkpt>
      <trkpt lat="41.47969722747803" lon="2.1724605560302734">
        <ele>112.77</ele>
      </trkpt>
      <trkpt lat="41.47954693995416" lon="2.1722888108342886">
        <ele>112.09</ele>
      </trkpt>
      <trkpt lat="41.47939682006836" lon="2.172117233276367">
        <ele>111.24</ele>
      </trkpt>
      <trkpt lat="41.47939682006836" lon="2.172074317932129">
        <ele>110.28</ele>
      </trkpt>
      <trkpt lat="41.4794397354126" lon="2.172074317932129">
        <ele>109.24</ele>
      </trkpt>
      <trkpt lat="41.47969722747803" lon="2.172245979309082">
        <ele>108.05</ele>
      </trkpt>
      <trkpt lat="41.47991180419922" lon="2.1725034713745117">
        <ele>106.86</ele>
      </trkpt>
      <trkpt lat="41.48006200790405" lon="2.1726107597351074">
        <ele>105.48</ele>
      </trkpt>
      <trkpt lat="41.48016929626465" lon="2.1727609634399414">
        <ele>104.04</ele>
      </trkpt>
      <trkpt lat="41.480255126953125" lon="2.172975540161133">
        <ele>102.56</ele>
      </trkpt>
      <trkpt lat="41.480276584625244" lon="2.1729326248168945">
        <ele>101.27</ele>
      </trkpt>
      <trkpt lat="41.480319583788514" lon="2.1726207341998816">
        <ele>100.01</ele>
      </trkpt>
      <trkpt lat="41.48036249913275" lon="2.1723103523254395">
        <ele>98.49</ele>
      </trkpt>
      <trkpt lat="41.4803409576416" lon="2.172245979309082">
        <ele>97.31</ele>
      </trkpt>
      <trkpt lat="41.480176420882344" lon="2.1720599848777056">
        <ele>96.33</ele>
      </trkpt>
      <trkpt lat="41.48001188412309" lon="2.171873990446329">
        <ele>95.32</ele>
      </trkpt>
      <trkpt lat="41.47984743118286" lon="2.1716880798339844">
        <ele>94.24</ele>
      </trkpt>
      <trkpt lat="41.47976168431342" lon="2.1715593338012695">
        <ele>93.22</ele>
      </trkpt>
      <trkpt lat="41.479761600494385" lon="2.1715593338012695">
        <ele>92.38</ele>
      </trkpt>
      <trkpt lat="41.47967576980591" lon="2.1714091300964355">
        <ele>91.55</ele>
      </trkpt>
      <trkpt lat="41.479504108428955" lon="2.1712374687194824">
        <ele>90.89</ele>
      </trkpt>
      <trkpt lat="41.479289531707764" lon="2.1710872650146484">
        <ele>90.37</ele>
      </trkpt>
      <trkpt lat="41.479227002710104" lon="2.1709747798740864">
        <ele>89.77</ele>
      </trkpt>
      <trkpt lat="41.4791823271662" lon="2.170894145965576">
        <ele>89.26</ele>
      </trkpt>
      <trkpt lat="41.47918224334717" lon="2.170894145965576">
        <ele>88.89</ele>
      </trkpt>
      <trkpt lat="41.47907495498657" lon="2.1708083152770996">
        <ele>88.6</ele>
      </trkpt>
      <trkpt lat="41.479032039642334" lon="2.170701026916504">
        <ele>88.29</ele>
      </trkpt>
      <trkpt lat="41.4788818359375" lon="2.170529365539551">
        <ele>88.13</ele>
      </trkpt>
      <trkpt lat="41.47875292226672" lon="2.1702285390347242">
        <ele>87.89</ele>
      </trkpt>
      <trkpt lat="41.4786244276911" lon="2.169928550720215">
        <ele>87.7</ele>
      </trkpt>
      <trkpt lat="41.47837791591883" lon="2.1698535326868296">
        <ele>88.04</ele>
      </trkpt>
      <trkpt lat="41.47813090123236" lon="2.169778347015381">
        <ele>88.27</ele>
      </trkpt>
      <trkpt lat="41.47813081741333" lon="2.169778347015381">
        <ele>88.48</ele>
      </trkpt>
      <trkpt lat="41.47790936753154" lon="2.169856885448098">
        <ele>88.87</ele>
      </trkpt>
      <trkpt lat="41.477687917649746" lon="2.169935507699847">
        <ele>89.24</ele>
      </trkpt>
      <trkpt lat="41.47746571339667" lon="2.1700143814086914">
        <ele>89.71</ele>
      </trkpt>
      <trkpt lat="41.47718667984009" lon="2.170078754425049">
        <ele>90.25</ele>
      </trkpt>
      <trkpt lat="41.47705793380737" lon="2.169971466064453">
        <ele>90.46</ele>
      </trkpt>
      <trkpt lat="41.47682189941406" lon="2.1697568893432617">
        <ele>90.63</ele>
      </trkpt>
      <trkpt lat="41.47692927159369" lon="2.1695205196738243">
        <ele>90.8</ele>
      </trkpt>
      <trkpt lat="41.477036476135254" lon="2.1692848205566406">
        <ele>90.96</ele>
      </trkpt>
      <trkpt lat="41.477036476135254" lon="2.169220447540283">
        <ele>91.22</ele>
      </trkpt>
      <trkpt lat="41.47688618861139" lon="2.169059431180358">
        <ele>91.54</ele>
      </trkpt>
      <trkpt lat="41.476736068725586" lon="2.168898582458496">
        <ele>91.84</ele>
      </trkpt>
      <trkpt lat="41.47662878036499" lon="2.168705463409424">
        <ele>92.08</ele>
      </trkpt>
      <trkpt lat="41.476564491167665" lon="2.1685123443603516">
        <ele>92.26</ele>
      </trkpt>
      <trkpt lat="41.47645711898804" lon="2.1681690216064453">
        <ele>92.47</ele>
      </trkpt>
      <trkpt lat="41.476264083758" lon="2.1678900718688965">
        <ele>92.71</ele>
      </trkpt>
      <trkpt lat="41.4761031512171" lon="2.167750597000122">
        <ele>92.97</ele>
      </trkpt>
      <trkpt lat="41.47594213485718" lon="2.1676111221313477">
        <ele>93.2</ele>
      </trkpt>
      <trkpt lat="41.475674165412784" lon="2.167471731081605">
        <ele>93.44</ele>
      </trkpt>
      <trkpt lat="41.4754056930542" lon="2.167332172393799">
        <ele>93.66</ele>
      </trkpt>
      <trkpt lat="41.47531986236572" lon="2.1673107147216797">
        <ele>93.82</ele>
      </trkpt>
      <trkpt lat="41.47510528564453" lon="2.1675682067871094">
        <ele>93.96</ele>
      </trkpt>
      <trkpt lat="41.47486916743219" lon="2.167310630902648">
        <ele>94.06</ele>
      </trkpt>
      <trkpt lat="41.47463321685791" lon="2.16705322265625">
        <ele>94.12</ele>
      </trkpt>
      <trkpt lat="41.47456884384155" lon="2.167031764984131">
        <ele>94.16</ele>
      </trkpt>
      <trkpt lat="41.474525928497314" lon="2.1669888496398926">
        <ele>94.15</ele>
      </trkpt>
      <trkpt lat="41.47444009780884" lon="2.1669459342956543">
        <ele>94.13</ele>
      </trkpt>
      <trkpt lat="41.47444018162787" lon="2.166924476623535">
        <ele>94.05</ele>
      </trkpt>
      <trkpt lat="41.47435426712036" lon="2.1667957305908203">
        <ele>93.93</ele>
      </trkpt>
      <trkpt lat="41.474289894104004" lon="2.166731357574463">
        <ele>93.8</ele>
      </trkpt>
      <trkpt lat="41.47422552108765" lon="2.166602611541748">
        <ele>93.64</ele>
      </trkpt>
      <trkpt lat="41.474268436431885" lon="2.166409492492676">
        <ele>93.5</ele>
      </trkpt>
      <trkpt lat="41.47431135177612" lon="2.1663665771484375">
        <ele>93.36</ele>
      </trkpt>
      <trkpt lat="41.47431135177612" lon="2.1662378311157227">
        <ele>93.22</ele>
      </trkpt>
      <trkpt lat="41.47420406341553" lon="2.1659374237060547">
        <ele>93.13</ele>
      </trkpt>
      <trkpt lat="41.47405385971069" lon="2.1656370162963867">
        <ele>93.09</ele>
      </trkpt>
      <trkpt lat="41.47390365600586" lon="2.165379524230957">
        <ele>93.12</ele>
      </trkpt>
      <trkpt lat="41.473774909973145" lon="2.1652722358703613">
        <ele>93.13</ele>
      </trkpt>
      <trkpt lat="41.47353912703693" lon="2.1651650313287973">
        <ele>93.12</ele>
      </trkpt>
      <trkpt lat="41.47330284118652" lon="2.16505765914917">
        <ele>93.11</ele>
      </trkpt>
      <trkpt lat="41.47317409515381" lon="2.164928913116455">
        <ele>93.26</ele>
      </trkpt>
      <trkpt lat="41.473045432940125" lon="2.1648001670837402">
        <ele>93.45</ele>
      </trkpt>
      <trkpt lat="41.47291660308838" lon="2.164456844329834">
        <ele>93.73</ele>
      </trkpt>
      <trkpt lat="41.47285206243396" lon="2.1641557663679123">
        <ele>94.14</ele>
      </trkpt>
      <trkpt lat="41.472787857055664" lon="2.163856029510498">
        <ele>94.58</ele>
      </trkpt>
      <trkpt lat="41.47270898334682" lon="2.1635262854397297">
        <ele>95.19</ele>
      </trkpt>
      <trkpt lat="41.47263019345701" lon="2.163196625187993">
        <ele>96.09</ele>
      </trkpt>
      <trkpt lat="41.472551906481385" lon="2.1628689765930176">
        <ele>97.22</ele>
      </trkpt>
      <trkpt lat="41.472519636154175" lon="2.1626216266304255">
        <ele>98.4</ele>
      </trkpt>
      <trkpt lat="41.47248753346503" lon="2.1623754501342773">
        <ele>99.64</ele>
      </trkpt>
      <trkpt lat="41.47248753346503" lon="2.162160873413086">
        <ele>100.94</ele>
      </trkpt>
      <trkpt lat="41.47254126146436" lon="2.1619566064327955">
        <ele>102.41</ele>
      </trkpt>
      <trkpt lat="41.47259482182562" lon="2.1617531776428223">
        <ele>103.99</ele>
      </trkpt>
      <trkpt lat="41.47272365167737" lon="2.161473808810115">
        <ele>105.75</ele>
      </trkpt>
      <trkpt lat="41.47285223007202" lon="2.1611952781677246">
        <ele>107.49</ele>
      </trkpt>
      <trkpt lat="41.47289514541626" lon="2.1610665321350098">
        <ele>109.16</ele>
      </trkpt>
      <trkpt lat="41.47319555282593" lon="2.161130905151367">
        <ele>111.27</ele>
      </trkpt>
      <trkpt lat="41.47345312871039" lon="2.1613025665283203">
        <ele>113.28</ele>
      </trkpt>
      <trkpt lat="41.47358179092407" lon="2.1613025665283203">
        <ele>115.12</ele>
      </trkpt>
      <trkpt lat="41.47364624775946" lon="2.1611523628234863">
        <ele>116.94</ele>
      </trkpt>
      <trkpt lat="41.47375353612006" lon="2.1609375346451998">
        <ele>118.76</ele>
      </trkpt>
      <trkpt lat="41.47386074066162" lon="2.1607232093811035">
        <ele>120.66</ele>
      </trkpt>
      <trkpt lat="41.47386082448065" lon="2.1607232093811035">
        <ele>122.55</ele>
      </trkpt>
      <trkpt lat="41.47381782531738" lon="2.1605300903320312">
        <ele>124.45</ele>
      </trkpt>
      <trkpt lat="41.4738392829895" lon="2.16031551361084">
        <ele>126.42</ele>
      </trkpt>
      <trkpt lat="41.47396802902222" lon="2.1599936485290527">
        <ele>128.49</ele>
      </trkpt>
      <trkpt lat="41.474171709269285" lon="2.1598435286432505">
        <ele>130.73</ele>
      </trkpt>
      <trkpt lat="41.47437572479248" lon="2.1596932411193848">
        <ele>132.82</ele>
      </trkpt>
      <trkpt lat="41.47456876002252" lon="2.1595215797424316">
        <ele>134.91</ele>
      </trkpt>
      <trkpt lat="41.474761962890625" lon="2.1593499183654785">
        <ele>137.0</ele>
      </trkpt>
      <trkpt lat="41.47489070892334" lon="2.1591782569885254">
        <ele>139.08</ele>
      </trkpt>
      <trkpt lat="41.47491216659546" lon="2.159113883972168">
        <ele>140.98</ele>
      </trkpt>
      <trkpt lat="41.47479389794171" lon="2.15880224481225">
        <ele>142.86</ele>
      </trkpt>
      <trkpt lat="41.47467613220215" lon="2.158491611480713">
        <ele>144.65</ele>
      </trkpt>
      <trkpt lat="41.47461159154773" lon="2.1581259928643703">
        <ele>146.45</ele>
      </trkpt>
      <trkpt lat="41.474547386169434" lon="2.157762050628662">
        <ele>148.16</ele>
      </trkpt>
      <trkpt lat="41.474483013153076" lon="2.15756893157959">
        <ele>149.76</ele>
      </trkpt>
      <trkpt lat="41.474483013153076" lon="2.157418727874756">
        <ele>151.27</ele>
      </trkpt>
      <trkpt lat="41.47441864013672" lon="2.15731143951416">
        <ele>152.7</ele>
      </trkpt>
      <trkpt lat="41.4743971824646" lon="2.157139778137207">
        <ele>154.06</ele>
      </trkpt>
      <trkpt lat="41.4743971824646" lon="2.1569037437438965">
        <ele>155.38</ele>
      </trkpt>
      <trkpt lat="41.47444018162787" lon="2.1566033363342285">
        <ele>156.65</ele>
      </trkpt>
      <trkpt lat="41.47448318079114" lon="2.156280716881156">
        <ele>157.78</ele>
      </trkpt>
      <trkpt lat="41.47452617995441" lon="2.155958181247115">
        <ele>158.74</ele>
      </trkpt>
      <trkpt lat="41.474568927660584" lon="2.155637741088867">
        <ele>159.58</ele>
      </trkpt>
      <trkpt lat="41.4746976736933" lon="2.155423164367676">
        <ele>160.26</ele>
      </trkpt>
      <trkpt lat="41.47471913136542" lon="2.1553587913513184">
        <ele>160.79</ele>
      </trkpt>
      <trkpt lat="41.47467613220215" lon="2.155144214630127">
        <ele>161.26</ele>
      </trkpt>
      <trkpt lat="41.474547386169434" lon="2.1549296379089355">
        <ele>161.54</ele>
      </trkpt>
      <trkpt lat="41.474483013153076" lon="2.1546506881713867">
        <ele>161.56</ele>
      </trkpt>
      <trkpt lat="41.474461471661925" lon="2.154356734827161">
        <ele>161.39</ele>
      </trkpt>
      <trkpt lat="41.474439930170774" lon="2.154062781482935">
        <ele>160.96</ele>
      </trkpt>
      <trkpt lat="41.47441864013672" lon="2.153770923614502">
        <ele>160.27</ele>
      </trkpt>
      <trkpt lat="41.47435426712036" lon="2.153599262237549">
        <ele>159.4</ele>
      </trkpt>
      <trkpt lat="41.47422560490668" lon="2.1534061431884766">
        <ele>158.28</ele>
      </trkpt>
      <trkpt lat="41.474043214693666" lon="2.1532773971557617">
        <ele>156.95</ele>
      </trkpt>
      <trkpt lat="41.47386074066162" lon="2.153148651123047">
        <ele>155.44</ele>
      </trkpt>
      <trkpt lat="41.473646415397525" lon="2.153095006942749">
        <ele>153.78</ele>
      </trkpt>
      <trkpt lat="41.47343158721924" lon="2.153041362762451">
        <ele>152.0</ele>
      </trkpt>
      <trkpt lat="41.47317409515381" lon="2.1529340744018555">
        <ele>150.03</ele>
      </trkpt>
      <trkpt lat="41.473023891448975" lon="2.1529126167297363">
        <ele>147.94</ele>
      </trkpt>
      <trkpt lat="41.4728307723999" lon="2.1529555320739746">
        <ele>145.71</ele>
      </trkpt>
      <trkpt lat="41.47258434444666" lon="2.152944803237915">
        <ele>143.27</ele>
      </trkpt>
      <trkpt lat="41.47233724594116" lon="2.1529340744018555">
        <ele>140.62</ele>
      </trkpt>
      <trkpt lat="41.47210121154785" lon="2.1528267860412598">
        <ele>137.89</ele>
      </trkpt>
      <trkpt lat="41.47207975387573" lon="2.15256929397583">
        <ele>135.3</ele>
      </trkpt>
      <trkpt lat="41.47196148522198" lon="2.1521823015064">
        <ele>132.46</ele>
      </trkpt>
      <trkpt lat="41.47184371948242" lon="2.151796817779541">
        <ele>129.45</ele>
      </trkpt>
      <trkpt lat="41.47184371948242" lon="2.1515601966530085">
        <ele>126.43</ele>
      </trkpt>
      <trkpt lat="41.47184371948242" lon="2.15132474899292">
        <ele>123.36</ele>
      </trkpt>
      <trkpt lat="41.471800804138184" lon="2.1511316299438477">
        <ele>120.41</ele>
      </trkpt>
      <trkpt lat="41.4719295501709" lon="2.151196002960205">
        <ele>117.72</ele>
      </trkpt>
      <trkpt lat="41.47210121154785" lon="2.1514320373535156">
        <ele>115.32</ele>
      </trkpt>
      <trkpt lat="41.47218704223633" lon="2.151474952697754">
        <ele>112.71</ele>
      </trkpt>
      <trkpt lat="41.4722300413996" lon="2.1514105796813965">
        <ele>109.99</ele>
      </trkpt>
      <trkpt lat="41.472193747758865" lon="2.1511731203645468">
        <ele>107.13</ele>
      </trkpt>
      <trkpt lat="41.47215770557523" lon="2.150936834514141">
        <ele>104.4</ele>
      </trkpt>
      <trkpt lat="41.4720971044153" lon="2.1505397837609053">
        <ele>101.65</ele>
      </trkpt>
      <trkpt lat="41.472036922350526" lon="2.150144577026367">
        <ele>99.04</ele>
      </trkpt>
      <trkpt lat="41.472015380859375" lon="2.149930000305176">
        <ele>96.77</ele>
      </trkpt>
      <trkpt lat="41.47188671864569" lon="2.1497154235839844">
        <ele>94.64</ele>
      </trkpt>
      <trkpt lat="41.47170432843268" lon="2.1495330333709717">
        <ele>92.83</ele>
      </trkpt>
      <trkpt lat="41.47152193821967" lon="2.149350643157959">
        <ele>91.26</ele>
      </trkpt>
      <trkpt lat="41.47141456604004" lon="2.1492648124694824">
        <ele>90.02</ele>
      </trkpt>
      <trkpt lat="41.47122153081" lon="2.1492648124694824">
        <ele>89.08</ele>
      </trkpt>
      <trkpt lat="41.471092784777284" lon="2.14932918548584">
        <ele>88.39</ele>
      </trkpt>
      <trkpt lat="41.47085666656494" lon="2.1494579315185547">
        <ele>88.05</ele>
      </trkpt>
      <trkpt lat="41.4708137512207" lon="2.1494579315185547">
        <ele>87.88</ele>
      </trkpt>
      <trkpt lat="41.47072792053223" lon="2.1495652198791504">
        <ele>88.01</ele>
      </trkpt>
      <trkpt lat="41.47062063217163" lon="2.149651050567627">
        <ele>88.39</ele>
      </trkpt>
      <trkpt lat="41.470417035743594" lon="2.149629592895508">
        <ele>88.99</ele>
      </trkpt>
      <trkpt lat="41.47021293640137" lon="2.1496081352233887">
        <ele>89.78</ele>
      </trkpt>
      <trkpt lat="41.47004144266248" lon="2.149715255945921">
        <ele>90.67</ele>
      </trkpt>
      <trkpt lat="41.46986969746649" lon="2.14982271194458">
        <ele>91.77</ele>
      </trkpt>
      <trkpt lat="41.46963357925415" lon="2.1500802040100098">
        <ele>92.95</ele>
      </trkpt>
      <trkpt lat="41.4694619178772" lon="2.1501660346984863">
        <ele>94.18</ele>
      </trkpt>
      <trkpt lat="41.469226218760014" lon="2.1501981373876333">
        <ele>95.55</ele>
      </trkpt>
      <trkpt lat="41.468989849090576" lon="2.1502304077148438">
        <ele>97.04</ele>
      </trkpt>
      <trkpt lat="41.46876471117139" lon="2.1503697149455547">
        <ele>98.45</ele>
      </trkpt>
      <trkpt lat="41.468539237976074" lon="2.1505093574523926">
        <ele>99.92</ele>
      </trkpt>
      <trkpt lat="41.46827721968293" lon="2.1505168173462152">
        <ele>101.5</ele>
      </trkpt>
      <trkpt lat="41.468014530837536" lon="2.1505243610590696">
        <ele>103.0</ele>
      </trkpt>
      <trkpt lat="41.467788219451904" lon="2.1505308151245117">
        <ele>104.53</ele>
      </trkpt>
      <trkpt lat="41.467487812042236" lon="2.1504664421081543">
        <ele>106.09</ele>
      </trkpt>
      <trkpt lat="41.467251777648926" lon="2.1504664421081543">
        <ele>107.41</ele>
      </trkpt>
      <trkpt lat="41.46699998527765" lon="2.150509273633361">
        <ele>108.74</ele>
      </trkpt>
      <trkpt lat="41.46674819290638" lon="2.1505521051585674">
        <ele>110.24</ele>
      </trkpt>
      <trkpt lat="41.46649648435414" lon="2.150594936683774">
        <ele>111.57</ele>
      </trkpt>
      <trkpt lat="41.46624335087836" lon="2.1506381034851074">
        <ele>112.8</ele>
      </trkpt>
      <trkpt lat="41.46599675528705" lon="2.150541627779603">
        <ele>114.21</ele>
      </trkpt>
      <trkpt lat="41.465749740600586" lon="2.150444984436035">
        <ele>115.72</ele>
      </trkpt>
      <trkpt lat="41.46547079086304" lon="2.150444984436035">
        <ele>117.31</ele>
      </trkpt>
      <trkpt lat="41.465256214141846" lon="2.150552272796631">
        <ele>118.46</ele>
      </trkpt>
      <trkpt lat="41.46508455276489" lon="2.150595188140869">
        <ele>119.64</ele>
      </trkpt>
      <trkpt lat="41.4649772644043" lon="2.150595188140869">
        <ele>120.91</ele>
      </trkpt>
      <trkpt lat="41.46493434906006" lon="2.1505093574523926">
        <ele>122.26</ele>
      </trkpt>
      <trkpt lat="41.4648699760437" lon="2.1502304077148438">
        <ele>123.8</ele>
      </trkpt>
      <trkpt lat="41.464762687683105" lon="2.150101661682129">
        <ele>125.09</ele>
      </trkpt>
      <trkpt lat="41.4646125677973" lon="2.150208866223693">
        <ele>126.16</ele>
      </trkpt>
      <trkpt lat="41.46446228027344" lon="2.1503162384033203">
        <ele>127.28</ele>
      </trkpt>
      <trkpt lat="41.464301347732544" lon="2.150477087125182">
        <ele>128.29</ele>
      </trkpt>
      <trkpt lat="41.46414041519165" lon="2.1506381034851074">
        <ele>129.23</ele>
      </trkpt>
      <trkpt lat="41.46394729614258" lon="2.150745391845703">
        <ele>130.13</ele>
      </trkpt>
      <trkpt lat="41.46372224204242" lon="2.150723934173584">
        <ele>131.12</ele>
      </trkpt>
      <trkpt lat="41.463496685028076" lon="2.150702476501465">
        <ele>132.04</ele>
      </trkpt>
      <trkpt lat="41.46338939666748" lon="2.1506595611572266">
        <ele>132.93</ele>
      </trkpt>
      <trkpt lat="41.46321773529053" lon="2.1503591537475586">
        <ele>134.11</ele>
      </trkpt>
      <trkpt lat="41.46311044692993" lon="2.150251865386963">
        <ele>135.05</ele>
      </trkpt>
      <trkpt lat="41.46287441253662" lon="2.150444984436035">
        <ele>135.67</ele>
      </trkpt>
      <trkpt lat="41.46287449635565" lon="2.150444984436035">
        <ele>136.38</ele>
      </trkpt>
      <trkpt lat="41.462788581848145" lon="2.150595188140869">
        <ele>136.99</ele>
      </trkpt>
      <trkpt lat="41.46268129348755" lon="2.1506810188293457">
        <ele>137.71</ele>
      </trkpt>
      <trkpt lat="41.46245623938739" lon="2.150766681879759">
        <ele>138.5</ele>
      </trkpt>
      <trkpt lat="41.46223068237305" lon="2.150852680206299">
        <ele>139.18</ele>
      </trkpt>
      <trkpt lat="41.462059020996094" lon="2.150874137878418">
        <ele>139.79</ele>
      </trkpt>
      <trkpt lat="41.461780071258545" lon="2.150874137878418">
        <ele>140.47</ele>
      </trkpt>
      <trkpt lat="41.46149064414203" lon="2.150745475664735">
        <ele>141.28</ele>
      </trkpt>
      <trkpt lat="41.46120071411133" lon="2.1506166458129883">
        <ele>142.09</ele>
      </trkpt>
      <trkpt lat="41.46107196807861" lon="2.150595188140869">
        <ele>142.82</ele>
      </trkpt>
      <trkpt lat="41.46077340468764" lon="2.150607258081436">
        <ele>143.54</ele>
      </trkpt>
      <trkpt lat="41.46047408692539" lon="2.150619411841035">
        <ele>144.36</ele>
      </trkpt>
      <trkpt lat="41.46022690460086" lon="2.150629386305809">
        <ele>145.1</ele>
      </trkpt>
      <trkpt lat="41.45997980609536" lon="2.150639444589615">
        <ele>145.86</ele>
      </trkpt>
      <trkpt lat="41.45973262377083" lon="2.150649419054389">
        <ele>146.56</ele>
      </trkpt>
      <trkpt lat="41.4594841003418" lon="2.1506595611572266">
        <ele>147.51</ele>
      </trkpt>
      <trkpt lat="41.459290981292725" lon="2.1506810188293457">
        <ele>148.48</ele>
      </trkpt>
      <trkpt lat="41.459248065948486" lon="2.150745391845703">
        <ele>149.39</ele>
      </trkpt>
      <trkpt lat="41.45904446952045" lon="2.1506917476654053">
        <ele>150.55</ele>
      </trkpt>
      <trkpt lat="41.45884037017822" lon="2.1506381034851074">
        <ele>151.8</ele>
      </trkpt>
      <trkpt lat="41.45858321338892" lon="2.150627374649048">
        <ele>153.11</ele>
      </trkpt>
      <trkpt lat="41.45832538604736" lon="2.1506166458129883">
        <ele>154.36</ele>
      </trkpt>
      <trkpt lat="41.45808935165405" lon="2.150552272796631">
        <ele>155.65</ele>
      </trkpt>
      <trkpt lat="41.45783219486475" lon="2.1505308151245117">
        <ele>156.9</ele>
      </trkpt>
      <trkpt lat="41.45757436752319" lon="2.1505093574523926">
        <ele>158.15</ele>
      </trkpt>
      <trkpt lat="41.45728502422571" lon="2.150412881746888">
        <ele>159.52</ele>
      </trkpt>
      <trkpt lat="41.45699501037598" lon="2.1503162384033203">
        <ele>160.99</ele>
      </trkpt>
      <trkpt lat="41.45688772201538" lon="2.1502304077148438">
        <ele>162.47</ele>
      </trkpt>
      <trkpt lat="41.45686626434326" lon="2.1501874923706055">
        <ele>163.92</ele>
      </trkpt>
      <trkpt lat="41.4569091796875" lon="2.150123119354248">
        <ele>165.4</ele>
      </trkpt>
      <trkpt lat="41.45714521408081" lon="2.1498870849609375">
        <ele>167.18</ele>
      </trkpt>
      <trkpt lat="41.457273960113525" lon="2.1499085426330566">
        <ele>168.64</ele>
      </trkpt>
      <trkpt lat="41.457445453852415" lon="2.1500049345195293">
        <ele>170.02</ele>
      </trkpt>
      <trkpt lat="41.45761728286743" lon="2.150101661682129">
        <ele>171.44</ele>
      </trkpt>
      <trkpt lat="41.45774602890015" lon="2.150123119354248">
        <ele>173.01</ele>
      </trkpt>
      <trkpt lat="41.45789623260498" lon="2.1500802040100098">
        <ele>174.76</ele>
      </trkpt>
      <trkpt lat="41.458164285868406" lon="2.149887168779969">
        <ele>176.92</ele>
      </trkpt>
      <trkpt lat="41.45843267440796" lon="2.1496939659118652">
        <ele>178.86</ele>
      </trkpt>
      <trkpt lat="41.45865404047072" lon="2.1496296767145395">
        <ele>180.56</ele>
      </trkpt>
      <trkpt lat="41.45887549035251" lon="2.149565387517214">
        <ele>182.44</ele>
      </trkpt>
      <trkpt lat="41.45909786224365" lon="2.149500846862793">
        <ele>184.33</ele>
      </trkpt>
      <trkpt lat="41.459248065948486" lon="2.1493935585021973">
        <ele>186.39</ele>
      </trkpt>
      <trkpt lat="41.45926960743964" lon="2.1492433547973633">
        <ele>188.57</ele>
      </trkpt>
      <trkpt lat="41.458990992978215" lon="2.149193314835429">
        <ele>191.07</ele>
      </trkpt>
      <trkpt lat="41.45871237851679" lon="2.149143358692527">
        <ele>193.6</ele>
      </trkpt>
      <trkpt lat="41.45843267440796" lon="2.1490931510925293">
        <ele>196.22</ele>
      </trkpt>
      <trkpt lat="41.4582181815058" lon="2.1489572804421186">
        <ele>198.91</ele>
      </trkpt>
      <trkpt lat="41.45800377242267" lon="2.1488214936107397">
        <ele>201.58</ele>
      </trkpt>
      <trkpt lat="41.457788944244385" lon="2.1486854553222656">
        <ele>204.08</ele>
      </trkpt>
      <trkpt lat="41.45760647021234" lon="2.148481523618102">
        <ele>206.59</ele>
      </trkpt>
      <trkpt lat="41.45742416381836" lon="2.148277759552002">
        <ele>209.16</ele>
      </trkpt>
      <trkpt lat="41.457273960113525" lon="2.148256301879883">
        <ele>211.44</ele>
      </trkpt>
      <trkpt lat="41.45716667175293" lon="2.1481919288635254">
        <ele>213.73</ele>
      </trkpt>
      <trkpt lat="41.45708084106445" lon="2.1480846405029297">
        <ele>216.01</ele>
      </trkpt>
      <trkpt lat="41.45706256851554" lon="2.1480116341263056">
        <ele>218.34</ele>
      </trkpt>
      <trkpt lat="41.457037925720215" lon="2.1479129791259766">
        <ele>220.66</ele>
      </trkpt>
      <trkpt lat="41.457016468048096" lon="2.147698402404785">
        <ele>223.06</ele>
      </trkpt>
      <trkpt lat="41.457080924883485" lon="2.147504948079586">
        <ele>225.55</ele>
      </trkpt>
      <trkpt lat="41.45714521408081" lon="2.1473121643066406">
        <ele>228.0</ele>
      </trkpt>
      <trkpt lat="41.45708084106445" lon="2.14707612991333">
        <ele>230.34</ele>
      </trkpt>
      <trkpt lat="41.456973385065794" lon="2.146893572062254">
        <ele>232.59</ele>
      </trkpt>
      <trkpt lat="41.45686626434326" lon="2.1467113494873047">
        <ele>234.9</ele>
      </trkpt>
      <trkpt lat="41.45673751831055" lon="2.146604061126709">
        <ele>237.13</ele>
      </trkpt>
      <trkpt lat="41.45650173537433" lon="2.146518314257264">
        <ele>239.2</ele>
      </trkpt>
      <trkpt lat="41.45626603625715" lon="2.1464325673878193">
        <ele>241.28</ele>
      </trkpt>
      <trkpt lat="41.45603025332093" lon="2.1463468205183744">
        <ele>243.47</ele>
      </trkpt>
      <trkpt lat="41.455793464556336" lon="2.1462607383728027">
        <ele>245.72</ele>
      </trkpt>
      <trkpt lat="41.45568609237671" lon="2.1462392807006836">
        <ele>247.87</ele>
      </trkpt>
      <trkpt lat="41.45568617619574" lon="2.1462392807006836">
        <ele>249.96</ele>
      </trkpt>
      <trkpt lat="41.455428935587406" lon="2.1461642626672983">
        <ele>252.26</ele>
      </trkpt>
      <trkpt lat="41.45517110824585" lon="2.1460890769958496">
        <ele>254.64</ele>
      </trkpt>
      <trkpt lat="41.454881681129336" lon="2.1459604147821665">
        <ele>257.22</ele>
      </trkpt>
      <trkpt lat="41.45459175109863" lon="2.14583158493042">
        <ele>259.8</ele>
      </trkpt>
      <trkpt lat="41.45448446273804" lon="2.14583158493042">
        <ele>261.98</ele>
      </trkpt>
      <trkpt lat="41.4543342590332" lon="2.1458959579467773">
        <ele>264.05</ele>
      </trkpt>
      <trkpt lat="41.45415186882019" lon="2.146088993176818">
        <ele>266.11</ele>
      </trkpt>
      <trkpt lat="41.45396947860718" lon="2.146282196044922">
        <ele>268.11</ele>
      </trkpt>
      <trkpt lat="41.45384073257446" lon="2.14632511138916">
        <ele>270.06</ele>
      </trkpt>
      <trkpt lat="41.4535728469491" lon="2.1462714672088623">
        <ele>271.97</ele>
      </trkpt>
      <trkpt lat="41.45330496132374" lon="2.146217906847596">
        <ele>273.96</ele>
      </trkpt>
      <trkpt lat="41.45303715951741" lon="2.14616434648633">
        <ele>275.96</ele>
      </trkpt>
      <trkpt lat="41.452767848968506" lon="2.1461105346679688">
        <ele>277.89</ele>
      </trkpt>
      <trkpt lat="41.45248906686902" lon="2.146267695352435">
        <ele>279.72</ele>
      </trkpt>
      <trkpt lat="41.45221036858857" lon="2.146424939855933">
        <ele>281.77</ele>
      </trkpt>
      <trkpt lat="41.45193099975586" lon="2.14658260345459">
        <ele>283.88</ele>
      </trkpt>
      <trkpt lat="41.45170284435153" lon="2.146564330905676">
        <ele>286.11</ele>
      </trkpt>
      <trkpt lat="41.45139455795288" lon="2.1465396881103516">
        <ele>288.33</ele>
      </trkpt>
      <trkpt lat="41.451265811920166" lon="2.1465182304382324">
        <ele>290.67</ele>
      </trkpt>
      <trkpt lat="41.45111560821533" lon="2.146432399749756">
        <ele>293.12</ele>
      </trkpt>
      <trkpt lat="41.45083665847778" lon="2.146453857421875">
        <ele>295.89</ele>
      </trkpt>
      <trkpt lat="41.45066499710083" lon="2.1463680267333984">
        <ele>298.8</ele>
      </trkpt>
      <trkpt lat="41.45038638263941" lon="2.146389400586486">
        <ele>301.69</ele>
      </trkpt>
      <trkpt lat="41.45010709762573" lon="2.1464109420776367">
        <ele>304.62</ele>
      </trkpt>
      <trkpt lat="41.44989252090454" lon="2.1463465690612793">
        <ele>307.5</ele>
      </trkpt>
      <trkpt lat="41.44966738298535" lon="2.1462071780115366">
        <ele>310.37</ele>
      </trkpt>
      <trkpt lat="41.44944190979004" lon="2.1460676193237305">
        <ele>313.02</ele>
      </trkpt>
      <trkpt lat="41.449227249249816" lon="2.1458387095481157">
        <ele>315.53</ele>
      </trkpt>
      <trkpt lat="41.449012672528625" lon="2.145609799772501">
        <ele>317.87</ele>
      </trkpt>
      <trkpt lat="41.448798179626465" lon="2.145380973815918">
        <ele>320.05</ele>
      </trkpt>
      <trkpt lat="41.448776721954346" lon="2.1452736854553223">
        <ele>321.94</ele>
      </trkpt>
      <trkpt lat="41.4488410949707" lon="2.1449732780456543">
        <ele>323.66</ele>
      </trkpt>
      <trkpt lat="41.448819637298584" lon="2.1448659896850586">
        <ele>325.09</ele>
      </trkpt>
      <trkpt lat="41.448615873232484" lon="2.144705057144165">
        <ele>326.4</ele>
      </trkpt>
      <trkpt lat="41.44841194152832" lon="2.1445441246032715">
        <ele>327.5</ele>
      </trkpt>
      <trkpt lat="41.448261737823486" lon="2.1443724632263184">
        <ele>328.33</ele>
      </trkpt>
      <trkpt lat="41.448132740333676" lon="2.144050095230341">
        <ele>328.88</ele>
      </trkpt>
      <trkpt lat="41.44800424575806" lon="2.143728733062744">
        <ele>329.13</ele>
      </trkpt>
      <trkpt lat="41.44796133041382" lon="2.1433424949645996">
        <ele>328.89</ele>
      </trkpt>
      <trkpt lat="41.44791841506958" lon="2.1432137489318848">
        <ele>328.67</ele>
      </trkpt>
      <trkpt lat="41.44785404205322" lon="2.143106460571289">
        <ele>328.42</ele>
      </trkpt>
      <trkpt lat="41.44771448336542" lon="2.142945444211364">
        <ele>328.04</ele>
      </trkpt>
      <trkpt lat="41.447575092315674" lon="2.142784595489502">
        <ele>327.61</ele>
      </trkpt>
      <trkpt lat="41.4474892616272" lon="2.142655849456787">
        <ele>327.06</ele>
      </trkpt>
      <trkpt lat="41.44738188944757" lon="2.1424840204417706">
        <ele>326.4</ele>
      </trkpt>
      <trkpt lat="41.447274684906006" lon="2.142312526702881">
        <ele>325.74</ele>
      </trkpt>
      <trkpt lat="41.447210144251585" lon="2.1420868020504713">
        <ele>325.01</ele>
      </trkpt>
      <trkpt lat="41.44714593887329" lon="2.141861915588379">
        <ele>324.34</ele>
      </trkpt>
      <trkpt lat="41.44712448120117" lon="2.1416687965393066">
        <ele>323.62</ele>
      </trkpt>
      <trkpt lat="41.44716748036444" lon="2.141411304473877">
        <ele>322.96</ele>
      </trkpt>
      <trkpt lat="41.44718885421753" lon="2.141282558441162">
        <ele>322.54</ele>
      </trkpt>
      <trkpt lat="41.447306955233216" lon="2.1410892717540264">
        <ele>322.2</ele>
      </trkpt>
      <trkpt lat="41.44742488861084" lon="2.1408963203430176">
        <ele>322.04</ele>
      </trkpt>
      <trkpt lat="41.44746780395508" lon="2.1407246589660645">
        <ele>322.09</ele>
      </trkpt>
      <trkpt lat="41.44747660495341" lon="2.1406586933881044">
        <ele>322.19</ele>
      </trkpt>
      <trkpt lat="41.447510719299316" lon="2.1404027938842773">
        <ele>322.43</ele>
      </trkpt>
      <trkpt lat="41.447510719299316" lon="2.1401238441467285">
        <ele>322.83</ele>
      </trkpt>
      <trkpt lat="41.44753226079047" lon="2.140016555786133">
        <ele>323.34</ele>
      </trkpt>
      <trkpt lat="41.447532176971436" lon="2.1399950981140137">
        <ele>323.95</ele>
      </trkpt>
      <trkpt lat="41.44742488861084" lon="2.139887809753418">
        <ele>324.76</ele>
      </trkpt>
      <trkpt lat="41.44748934544623" lon="2.139737606048584">
        <ele>325.69</ele>
      </trkpt>
      <trkpt lat="41.447532176971436" lon="2.1396732330322266">
        <ele>326.55</ele>
      </trkpt>
      <trkpt lat="41.447575092315674" lon="2.1393513679504395">
        <ele>327.76</ele>
      </trkpt>
      <trkpt lat="41.44768238067627" lon="2.1390724182128906">
        <ele>329.08</ele>
      </trkpt>
      <trkpt lat="41.44774683751166" lon="2.138728341087699">
        <ele>330.46</ele>
      </trkpt>
      <trkpt lat="41.447811126708984" lon="2.138385772705078">
        <ele>331.72</ele>
      </trkpt>
      <trkpt lat="41.44787549972534" lon="2.138235569000244">
        <ele>332.86</ele>
      </trkpt>
      <trkpt lat="41.4478325843811" lon="2.1378493309020996">
        <ele>333.99</ele>
      </trkpt>
      <trkpt lat="41.44768238067627" lon="2.1375060081481934">
        <ele>334.9</ele>
      </trkpt>
      <trkpt lat="41.44770383834839" lon="2.1373987197875977">
        <ele>335.88</ele>
      </trkpt>
      <trkpt lat="41.44766092300415" lon="2.1370339393615723">
        <ele>336.89</ele>
      </trkpt>
      <trkpt lat="41.44767165184021" lon="2.1367973182350397">
        <ele>337.78</ele>
      </trkpt>
      <trkpt lat="41.44768238067627" lon="2.136561870574951">
        <ele>338.51</ele>
      </trkpt>
      <trkpt lat="41.44766092300415" lon="2.136368751525879">
        <ele>339.16</ele>
      </trkpt>
      <trkpt lat="41.44759654998779" lon="2.1363043785095215">
        <ele>339.83</ele>
      </trkpt>
      <trkpt lat="41.447596633806825" lon="2.1363043785095215">
        <ele>340.59</ele>
      </trkpt>
      <trkpt lat="41.44740343093872" lon="2.136068344116211">
        <ele>341.14</ele>
      </trkpt>
      <trkpt lat="41.4473819732666" lon="2.135939598083496">
        <ele>341.96</ele>
      </trkpt>
      <trkpt lat="41.44740351475775" lon="2.135789394378662">
        <ele>342.93</ele>
      </trkpt>
      <trkpt lat="41.44746788777411" lon="2.1354246139526367">
        <ele>344.19</ele>
      </trkpt>
      <trkpt lat="41.447510719299316" lon="2.1352529525756836">
        <ele>345.49</ele>
      </trkpt>
      <trkpt lat="41.44742497242987" lon="2.135188579559326">
        <ele>346.8</ele>
      </trkpt>
      <trkpt lat="41.44740343093872" lon="2.134995460510254">
        <ele>348.38</ele>
      </trkpt>
      <trkpt lat="41.447274684906006" lon="2.134866714477539">
        <ele>350.05</ele>
      </trkpt>
      <trkpt lat="41.447017192840576" lon="2.134823799133301">
        <ele>351.82</ele>
      </trkpt>
      <trkpt lat="41.44710302352905" lon="2.134673595428467">
        <ele>354.05</ele>
      </trkpt>
      <trkpt lat="41.447038650512695" lon="2.1345019340515137">
        <ele>356.44</ele>
      </trkpt>
      <trkpt lat="41.44683849066496" lon="2.134358938783407">
        <ele>359.09</ele>
      </trkpt>
      <trkpt lat="41.44663833081722" lon="2.1342159435153008">
        <ele>361.93</ele>
      </trkpt>
      <trkpt lat="41.44643783569336" lon="2.134072780609131">
        <ele>364.8</ele>
      </trkpt>
      <trkpt lat="41.44627086818218" lon="2.1339836809784174">
        <ele>367.89</ele>
      </trkpt>
      <trkpt lat="41.44611597061157" lon="2.1339011192321777">
        <ele>371.1</ele>
      </trkpt>
      <trkpt lat="41.44599795341492" lon="2.1337615605443716">
        <ele>374.54</ele>
      </trkpt>
      <trkpt lat="41.44588002003729" lon="2.133622169494629">
        <ele>377.99</ele>
      </trkpt>
      <trkpt lat="41.44566535949707" lon="2.133471965789795">
        <ele>381.62</ele>
      </trkpt>
      <trkpt lat="41.44555790349841" lon="2.133203325793147">
        <ele>385.34</ele>
      </trkpt>
      <trkpt lat="41.44545086659491" lon="2.1329355239868164">
        <ele>389.01</ele>
      </trkpt>
      <trkpt lat="41.44545078277588" lon="2.1329355239868164">
        <ele>392.13</ele>
      </trkpt>
      <trkpt lat="41.44522572867572" lon="2.132924795150757">
        <ele>395.67</ele>
      </trkpt>
      <trkpt lat="41.44500017166138" lon="2.1329140663146973">
        <ele>398.95</ele>
      </trkpt>
      <trkpt lat="41.44493579864502" lon="2.132742404937744">
        <ele>401.76</ele>
      </trkpt>
      <trkpt lat="41.444807136431336" lon="2.1326136589050293">
        <ele>404.46</ele>
      </trkpt>
      <trkpt lat="41.44463539123535" lon="2.132549285888672">
        <ele>406.91</ele>
      </trkpt>
      <trkpt lat="41.4444637298584" lon="2.132549285888672">
        <ele>408.94</ele>
      </trkpt>
      <trkpt lat="41.444313526153564" lon="2.1323776245117188">
        <ele>410.65</ele>
      </trkpt>
      <trkpt lat="41.44416332244873" lon="2.13209867477417">
        <ele>412.19</ele>
      </trkpt>
      <trkpt lat="41.44409894943237" lon="2.1316909790039062">
        <ele>413.69</ele>
      </trkpt>
      <trkpt lat="41.44400222226977" lon="2.1314007975161076">
        <ele>414.93</ele>
      </trkpt>
      <trkpt lat="41.4439058303833" lon="2.1311116218566895">
        <ele>416.04</ele>
      </trkpt>
      <trkpt lat="41.44388437271118" lon="2.1308112144470215">
        <ele>417.16</ele>
      </trkpt>
      <trkpt lat="41.44384145736694" lon="2.1306824684143066">
        <ele>418.16</ele>
      </trkpt>
      <trkpt lat="41.44364833831787" lon="2.13059663772583">
        <ele>419.05</ele>
      </trkpt>
      <trkpt lat="41.44357306882739" lon="2.1303709130734205">
        <ele>419.99</ele>
      </trkpt>
      <trkpt lat="41.44349813461304" lon="2.130146026611328">
        <ele>420.82</ele>
      </trkpt>
      <trkpt lat="41.443456057459116" lon="2.129935808479786">
        <ele>421.34</ele>
      </trkpt>
      <trkpt lat="41.443456057459116" lon="2.129935724660754">
        <ele>421.65</ele>
      </trkpt>
      <trkpt lat="41.44343376159668" lon="2.129824161529541">
        <ele>421.81</ele>
      </trkpt>
      <trkpt lat="41.443326557055116" lon="2.1295666694641113">
        <ele>421.85</ele>
      </trkpt>
      <trkpt lat="41.44315481185913" lon="2.129824161529541">
        <ele>421.91</ele>
      </trkpt>
      <trkpt lat="41.4430046081543" lon="2.129952907562256">
        <ele>421.7</ele>
      </trkpt>
      <trkpt lat="41.4427902828902" lon="2.1299635525792837">
        <ele>421.27</ele>
      </trkpt>
      <trkpt lat="41.442575454711914" lon="2.129974365234375">
        <ele>420.91</ele>
      </trkpt>
      <trkpt lat="41.44246816635132" lon="2.1299314498901367">
        <ele>420.34</ele>
      </trkpt>
      <trkpt lat="41.442307233810425" lon="2.129802703857422">
        <ele>419.56</ele>
      </trkpt>
      <trkpt lat="41.44214630126953" lon="2.129673957824707">
        <ele>418.59</ele>
      </trkpt>
      <trkpt lat="41.44191026687622" lon="2.129502296447754">
        <ele>417.39</ele>
      </trkpt>
      <trkpt lat="41.44173860549927" lon="2.129502296447754">
        <ele>416.06</ele>
      </trkpt>
      <trkpt lat="41.44167423248291" lon="2.129652500152588">
        <ele>414.66</ele>
      </trkpt>
      <trkpt lat="41.441566944122314" lon="2.1296310424804688">
        <ele>413.19</ele>
      </trkpt>
      <trkpt lat="41.441330993548036" lon="2.129791807383299">
        <ele>411.36</ele>
      </trkpt>
      <trkpt lat="41.44109487533569" lon="2.129952907562256">
        <ele>409.52</ele>
      </trkpt>
      <trkpt lat="41.44085917621851" lon="2.1299421787261963">
        <ele>407.93</ele>
      </trkpt>
      <trkpt lat="41.44062280654907" lon="2.1299314498901367">
        <ele>406.3</ele>
      </trkpt>
      <trkpt lat="41.44039741717279" lon="2.1296631451696157">
        <ele>404.75</ele>
      </trkpt>
      <trkpt lat="41.44017219543457" lon="2.129395008087158">
        <ele>403.32</ele>
      </trkpt>
      <trkpt lat="41.440064907073975" lon="2.12935209274292">
        <ele>401.87</ele>
      </trkpt>
      <trkpt lat="41.439893413335085" lon="2.129384195432067">
        <ele>400.38</ele>
      </trkpt>
      <trkpt lat="41.43972158432007" lon="2.1294164657592773">
        <ele>398.92</ele>
      </trkpt>
      <trkpt lat="41.43972158432007" lon="2.1293091773986816">
        <ele>397.72</ele>
      </trkpt>
      <trkpt lat="41.43951773643494" lon="2.1291375160217285">
        <ele>396.56</ele>
      </trkpt>
      <trkpt lat="41.439313888549805" lon="2.1289658546447754">
        <ele>395.31</ele>
      </trkpt>
      <trkpt lat="41.43901457078755" lon="2.129089068621397">
        <ele>394.16</ele>
      </trkpt>
      <trkpt lat="41.43894919194281" lon="2.1291160583496094">
        <ele>393.06</ele>
      </trkpt>
      <trkpt lat="41.43875598907471" lon="2.129073143005371">
        <ele>392.13</ele>
      </trkpt>
      <trkpt lat="41.43859505653381" lon="2.1289443969726562">
        <ele>391.08</ele>
      </trkpt>
      <trkpt lat="41.43843412399292" lon="2.1288156509399414">
        <ele>390.01</ele>
      </trkpt>
      <trkpt lat="41.43830521032214" lon="2.128600822761655">
        <ele>388.74</ele>
      </trkpt>
      <trkpt lat="41.43817663192749" lon="2.1283864974975586">
        <ele>387.46</ele>
      </trkpt>
      <trkpt lat="41.43794059753418" lon="2.128450870513916">
        <ele>387.07</ele>
      </trkpt>
      <trkpt lat="41.43787622451782" lon="2.1283864974975586">
        <ele>386.15</ele>
      </trkpt>
      <trkpt lat="41.43772602081299" lon="2.1280860900878906">
        <ele>384.94</ele>
      </trkpt>
      <trkpt lat="41.43761873245239" lon="2.1277427673339844">
        <ele>384.0</ele>
      </trkpt>
      <trkpt lat="41.437618816271424" lon="2.1277427673339844">
        <ele>383.3</ele>
      </trkpt>
      <trkpt lat="41.437532901763916" lon="2.1276140213012695">
        <ele>382.77</ele>
      </trkpt>
      <trkpt lat="41.43748269416392" lon="2.1273200679570436">
        <ele>382.03</ele>
      </trkpt>
      <trkpt lat="41.43743248656392" lon="2.1270261984318495">
        <ele>381.34</ele>
      </trkpt>
      <trkpt lat="41.43738269805908" lon="2.1267342567443848">
        <ele>380.77</ele>
      </trkpt>
      <trkpt lat="41.437296867370605" lon="2.126648426055908">
        <ele>380.45</ele>
      </trkpt>
      <trkpt lat="41.43723249435425" lon="2.126648426055908">
        <ele>380.3</ele>
      </trkpt>
      <trkpt lat="41.43712520599365" lon="2.126755714416504">
        <ele>380.42</ele>
      </trkpt>
      <trkpt lat="41.43706091679633" lon="2.126777172088623">
        <ele>380.5</ele>
      </trkpt>
      <trkpt lat="41.436824882403016" lon="2.1265841368585825">
        <ele>380.48</ele>
      </trkpt>
      <trkpt lat="41.436588764190674" lon="2.1263909339904785">
        <ele>380.59</ele>
      </trkpt>
      <trkpt lat="41.43642774783075" lon="2.126165460795164">
        <ele>380.71</ele>
      </trkpt>
      <trkpt lat="41.43626689910889" lon="2.1259403228759766">
        <ele>380.7</ele>
      </trkpt>
      <trkpt lat="41.43611669540405" lon="2.1258974075317383">
        <ele>380.99</ele>
      </trkpt>
      <trkpt lat="41.43596649169922" lon="2.126004695892334">
        <ele>381.37</ele>
      </trkpt>
      <trkpt lat="41.43580539152026" lon="2.1262516267597675">
        <ele>381.88</ele>
      </trkpt>
      <trkpt lat="41.43564462661743" lon="2.126498222351074">
        <ele>382.34</ele>
      </trkpt>
      <trkpt lat="41.43560171127319" lon="2.126626968383789">
        <ele>382.9</ele>
      </trkpt>
      <trkpt lat="41.43560171127319" lon="2.126732161268592">
        <ele>383.51</ele>
      </trkpt>
      <trkpt lat="41.43560171127319" lon="2.1268200874328613">
        <ele>384.11</ele>
      </trkpt>
      <trkpt lat="41.435580253601074" lon="2.126927375793457">
        <ele>384.69</ele>
      </trkpt>
      <trkpt lat="41.43536567687988" lon="2.1270346641540527">
        <ele>385.26</ele>
      </trkpt>
      <trkpt lat="41.43517255783081" lon="2.127056121826172">
        <ele>385.91</ele>
      </trkpt>
      <trkpt lat="41.43510818481445" lon="2.1269917488098145">
        <ele>386.25</ele>
      </trkpt>
      <trkpt lat="41.43500089645386" lon="2.1266698837280273">
        <ele>386.04</ele>
      </trkpt>
      <trkpt lat="41.4349365234375" lon="2.1265625953674316">
        <ele>386.26</ele>
      </trkpt>
      <trkpt lat="41.434829235076904" lon="2.126498222351074">
        <ele>386.69</ele>
      </trkpt>
      <trkpt lat="41.43461465835571" lon="2.126455307006836">
        <ele>387.47</ele>
      </trkpt>
      <trkpt lat="41.434528827667236" lon="2.126326560974121">
        <ele>387.71</ele>
      </trkpt>
      <trkpt lat="41.434485912323" lon="2.126133441925049">
        <ele>387.87</ele>
      </trkpt>
      <trkpt lat="41.43450736999512" lon="2.1259188652038574">
        <ele>387.74</ele>
      </trkpt>
      <trkpt lat="41.43456109799445" lon="2.125671599060297">
        <ele>387.47</ele>
      </trkpt>
      <trkpt lat="41.43461465835571" lon="2.125425338745117">
        <ele>387.27</ele>
      </trkpt>
      <trkpt lat="41.434593200683594" lon="2.125253677368164">
        <ele>387.48</ele>
      </trkpt>
      <trkpt lat="41.43450736999512" lon="2.125124931335449">
        <ele>387.86</ele>
      </trkpt>
      <trkpt lat="41.43430360592902" lon="2.1249855402857065">
        <ele>388.43</ele>
      </trkpt>
      <trkpt lat="41.43409967422485" lon="2.1248459815979004">
        <ele>388.9</ele>
      </trkpt>
      <trkpt lat="41.433992218226194" lon="2.1246203407645226">
        <ele>388.95</ele>
      </trkpt>
      <trkpt lat="41.43388509750366" lon="2.1243953704833984">
        <ele>389.19</ele>
      </trkpt>
      <trkpt lat="41.43371343612671" lon="2.1242880821228027">
        <ele>389.44</ele>
      </trkpt>
      <trkpt lat="41.43360614776611" lon="2.12435245513916">
        <ele>389.9</ele>
      </trkpt>
      <trkpt lat="41.433563232421875" lon="2.1244168281555176">
        <ele>390.3</ele>
      </trkpt>
      <trkpt lat="41.43345602788031" lon="2.124781608581543">
        <ele>390.86</ele>
      </trkpt>
      <trkpt lat="41.43336282111704" lon="2.125068185850978">
        <ele>391.42</ele>
      </trkpt>
      <trkpt lat="41.433269614353776" lon="2.125354763120413">
        <ele>392.17</ele>
      </trkpt>
      <trkpt lat="41.43317699432373" lon="2.1256399154663086">
        <ele>392.98</ele>
      </trkpt>
      <trkpt lat="41.43305880948901" lon="2.1258546598255634">
        <ele>393.65</ele>
      </trkpt>
      <trkpt lat="41.43294095993042" lon="2.1260690689086914">
        <ele>394.28</ele>
      </trkpt>
      <trkpt lat="41.43285512924194" lon="2.1261119842529297">
        <ele>394.69</ele>
      </trkpt>
      <trkpt lat="41.43272638320923" lon="2.126133441925049">
        <ele>395.04</ele>
      </trkpt>
      <trkpt lat="41.43249051645398" lon="2.125994050875306">
        <ele>395.23</ele>
      </trkpt>
      <trkpt lat="41.43225431442261" lon="2.1258544921875">
        <ele>395.62</ele>
      </trkpt>
      <trkpt lat="41.43210411071777" lon="2.1258974075317383">
        <ele>396.04</ele>
      </trkpt>
      <trkpt lat="41.43195399083197" lon="2.126026153564453">
        <ele>396.43</ele>
      </trkpt>
      <trkpt lat="41.431803703308105" lon="2.1262192726135254">
        <ele>396.92</ele>
      </trkpt>
      <trkpt lat="41.43169641494751" lon="2.1263909339904785">
        <ele>397.39</ele>
      </trkpt>
      <trkpt lat="41.431567668914795" lon="2.126584053039551">
        <ele>397.89</ele>
      </trkpt>
      <trkpt lat="41.43140313215554" lon="2.126390850171447">
        <ele>398.62</ele>
      </trkpt>
      <trkpt lat="41.43123859539628" lon="2.1261977311223745">
        <ele>399.39</ele>
      </trkpt>
      <trkpt lat="41.431074226275086" lon="2.126004695892334">
        <ele>400.2</ele>
      </trkpt>
      <trkpt lat="41.43087389878929" lon="2.1257685776799917">
        <ele>400.92</ele>
      </trkpt>
      <trkpt lat="41.43067357130349" lon="2.1255324594676495">
        <ele>401.67</ele>
      </trkpt>
      <trkpt lat="41.43047341145575" lon="2.1252965927124023">
        <ele>402.61</ele>
      </trkpt>
      <trkpt lat="41.43028733320534" lon="2.125067599117756">
        <ele>403.73</ele>
      </trkpt>
      <trkpt lat="41.430101338773966" lon="2.124838689342141">
        <ele>405.01</ele>
      </trkpt>
      <trkpt lat="41.42991551198065" lon="2.12460994720459">
        <ele>406.43</ele>
      </trkpt>
      <trkpt lat="41.429686518386006" lon="2.1243452467024326">
        <ele>407.96</ele>
      </trkpt>
      <trkpt lat="41.42945760861039" lon="2.1240805462002754">
        <ele>409.61</ele>
      </trkpt>
      <trkpt lat="41.42922878265381" lon="2.1238160133361816">
        <ele>411.32</ele>
      </trkpt>
      <trkpt lat="41.429042872041464" lon="2.123673018068075">
        <ele>413.13</ele>
      </trkpt>
      <trkpt lat="41.42885704524815" lon="2.1235300227999687">
        <ele>415.06</ele>
      </trkpt>
      <trkpt lat="41.42867096699774" lon="2.123386859893799">
        <ele>417.23</ele>
      </trkpt>
      <trkpt lat="41.42848874442279" lon="2.123333215713501">
        <ele>419.37</ele>
      </trkpt>
      <trkpt lat="41.428306102752686" lon="2.123279571533203">
        <ele>421.6</ele>
      </trkpt>
      <trkpt lat="41.42826318740845" lon="2.123279571533203">
        <ele>423.83</ele>
      </trkpt>
      <trkpt lat="41.42826318740845" lon="2.1232151985168457">
        <ele>426.21</ele>
      </trkpt>
      <trkpt lat="41.428306102752686" lon="2.122957706451416">
        <ele>428.82</ele>
      </trkpt>
      <trkpt lat="41.42822027206421" lon="2.1228933334350586">
        <ele>431.34</ele>
      </trkpt>
      <trkpt lat="41.42815589904785" lon="2.1228504180908203">
        <ele>433.84</ele>
      </trkpt>
      <trkpt lat="41.428091526031494" lon="2.1227216720581055">
        <ele>436.42</ele>
      </trkpt>
      <trkpt lat="41.4279842376709" lon="2.1224212646484375">
        <ele>438.99</ele>
      </trkpt>
      <trkpt lat="41.4278769493103" lon="2.1222925186157227">
        <ele>441.51</ele>
      </trkpt>
      <trkpt lat="41.427597999572754" lon="2.122206687927246">
        <ele>444.2</ele>
      </trkpt>
      <trkpt lat="41.42738342285156" lon="2.122056484222412">
        <ele>446.73</ele>
      </trkpt>
      <trkpt lat="41.42725467681885" lon="2.121884822845459">
        <ele>449.02</ele>
      </trkpt>
      <trkpt lat="41.42712593078613" lon="2.121562957763672">
        <ele>451.11</ele>
      </trkpt>
      <trkpt lat="41.4269757270813" lon="2.1213912963867188">
        <ele>453.2</ele>
      </trkpt>
      <trkpt lat="41.42680414952338" lon="2.121262550354004">
        <ele>455.23</ele>
      </trkpt>
      <trkpt lat="41.42663240432739" lon="2.121133804321289">
        <ele>457.15</ele>
      </trkpt>
      <trkpt lat="41.426568031311035" lon="2.1210479736328125">
        <ele>458.71</ele>
      </trkpt>
      <trkpt lat="41.426568031311035" lon="2.1207690238952637">
        <ele>459.88</ele>
      </trkpt>
      <trkpt lat="41.42656811513007" lon="2.1207690238952637">
        <ele>461.05</ele>
      </trkpt>
      <trkpt lat="41.426546573638916" lon="2.120661735534668">
        <ele>462.1</ele>
      </trkpt>
      <trkpt lat="41.426675487309694" lon="2.120393179357052">
        <ele>462.52</ele>
      </trkpt>
      <trkpt lat="41.42680414952338" lon="2.1201252937316895">
        <ele>462.82</ele>
      </trkpt>
      <trkpt lat="41.42673969268799" lon="2.1198463439941406">
        <ele>463.77</ele>
      </trkpt>
      <trkpt lat="41.42664296552539" lon="2.119663702324033">
        <ele>464.71</ele>
      </trkpt>
      <trkpt lat="41.426546573638916" lon="2.1194815635681152">
        <ele>465.56</ele>
      </trkpt>
      <trkpt lat="41.42668613232672" lon="2.11927754804492">
        <ele>465.66</ele>
      </trkpt>
      <trkpt lat="41.4268256071955" lon="2.1190738677978516">
        <ele>465.88</ele>
      </trkpt>
      <trkpt lat="41.426846981048584" lon="2.1189022064208984">
        <ele>466.38</ele>
      </trkpt>
      <trkpt lat="41.426825523376465" lon="2.1187520027160645">
        <ele>466.88</ele>
      </trkpt>
      <trkpt lat="41.426739525049925" lon="2.118537090718746">
        <ele>467.47</ele>
      </trkpt>
      <trkpt lat="41.42665386199951" lon="2.1183228492736816">
        <ele>467.74</ele>
      </trkpt>
      <trkpt lat="41.42654640600085" lon="2.1180864796042442">
        <ele>467.82</ele>
      </trkpt>
      <trkpt lat="41.42643928527832" lon="2.1178507804870605">
        <ele>467.8</ele>
      </trkpt>
      <trkpt lat="41.42618179321289" lon="2.1178293228149414">
        <ele>467.66</ele>
      </trkpt>
      <trkpt lat="41.42616033554077" lon="2.117786407470703">
        <ele>467.29</ele>
      </trkpt>
      <trkpt lat="41.42607433721423" lon="2.1175392251461744">
        <ele>466.63</ele>
      </trkpt>
      <trkpt lat="41.42598867416382" lon="2.117292881011963">
        <ele>465.65</ele>
      </trkpt>
      <trkpt lat="41.4259672164917" lon="2.1170997619628906">
        <ele>464.75</ele>
      </trkpt>
      <trkpt lat="41.42604240216315" lon="2.1167449560016394">
        <ele>463.77</ele>
      </trkpt>
      <trkpt lat="41.42611742019653" lon="2.116391658782959">
        <ele>462.63</ele>
      </trkpt>
      <trkpt lat="41.42620325088501" lon="2.1162843704223633">
        <ele>461.43</ele>
      </trkpt>
      <trkpt lat="41.426331996917725" lon="2.1161985397338867">
        <ele>460.12</ele>
      </trkpt>
      <trkpt lat="41.42639636993408" lon="2.116069793701172">
        <ele>458.53</ele>
      </trkpt>
      <trkpt lat="41.42639636993408" lon="2.1158981323242188">
        <ele>456.61</ele>
      </trkpt>
      <trkpt lat="41.426353454589844" lon="2.1155548095703125">
        <ele>454.32</ele>
      </trkpt>
      <trkpt lat="41.42646074295044" lon="2.115318775177002">
        <ele>452.33</ele>
      </trkpt>
      <trkpt lat="41.42636401578784" lon="2.1151254046708345">
        <ele>449.91</ele>
      </trkpt>
      <trkpt lat="41.42626762390137" lon="2.1149325370788574">
        <ele>447.33</ele>
      </trkpt>
      <trkpt lat="41.426074504852295" lon="2.114739418029785">
        <ele>444.54</ele>
      </trkpt>
      <trkpt lat="41.425817012786865" lon="2.114589214324951">
        <ele>441.58</ele>
      </trkpt>
      <trkpt lat="41.42561341635883" lon="2.114546298980713">
        <ele>438.63</ele>
      </trkpt>
      <trkpt lat="41.4254093170166" lon="2.1145033836364746">
        <ele>435.61</ele>
      </trkpt>
      <trkpt lat="41.425226759165525" lon="2.114234995096922">
        <ele>432.77</ele>
      </trkpt>
      <trkpt lat="41.425044536590576" lon="2.113966941833496">
        <ele>429.74</ele>
      </trkpt>
      <trkpt lat="41.42500162124634" lon="2.1138596534729004">
        <ele>426.95</ele>
      </trkpt>
      <trkpt lat="41.42498016357422" lon="2.1138381958007812">
        <ele>424.22</ele>
      </trkpt>
      <trkpt lat="41.4249587059021" lon="2.113773822784424">
        <ele>421.54</ele>
      </trkpt>
      <trkpt lat="41.42474421299994" lon="2.113773822784424">
        <ele>418.52</ele>
      </trkpt>
      <trkpt lat="41.42474412918091" lon="2.113773822784424">
        <ele>415.99</ele>
      </trkpt>
      <trkpt lat="41.42470121383667" lon="2.1138596534729004">
        <ele>413.41</ele>
      </trkpt>
      <trkpt lat="41.42467975616455" lon="2.1139883995056152">
        <ele>410.92</ele>
      </trkpt>
      <trkpt lat="41.42470121383667" lon="2.1143746376037598">
        <ele>408.4</ele>
      </trkpt>
      <trkpt lat="41.42467975616455" lon="2.1146535873413086">
        <ele>405.82</ele>
      </trkpt>
      <trkpt lat="41.42476558685303" lon="2.115039825439453">
        <ele>403.55</ele>
      </trkpt>
      <trkpt lat="41.42467975616455" lon="2.115297317504883">
        <ele>401.44</ele>
      </trkpt>
      <trkpt lat="41.42467975616455" lon="2.115340232849121">
        <ele>399.48</ele>
      </trkpt>
      <trkpt lat="41.42472267150879" lon="2.1153616905212402">
        <ele>397.61</ele>
      </trkpt>
      <trkpt lat="41.42470121383667" lon="2.1153831481933594">
        <ele>395.73</ele>
      </trkpt>
      <trkpt lat="41.42465829849243" lon="2.115447521209717">
        <ele>393.92</ele>
      </trkpt>
      <trkpt lat="41.42457255162299" lon="2.115447521209717">
        <ele>392.11</ele>
      </trkpt>
      <trkpt lat="41.424572467803955" lon="2.115447521209717">
        <ele>390.34</ele>
      </trkpt>
      <trkpt lat="41.42448672093451" lon="2.1153831481933594">
        <ele>388.5</ele>
      </trkpt>
      <trkpt lat="41.42437934875488" lon="2.1153831481933594">
        <ele>386.71</ele>
      </trkpt>
      <trkpt lat="41.4242506865412" lon="2.115297317504883">
        <ele>384.83</ele>
      </trkpt>
      <trkpt lat="41.42403602600098" lon="2.114996910095215">
        <ele>382.64</ele>
      </trkpt>
      <trkpt lat="41.423810720443726" lon="2.1148037910461426">
        <ele>380.48</ele>
      </trkpt>
      <trkpt lat="41.423585414886475" lon="2.1146106719970703">
        <ele>378.36</ele>
      </trkpt>
      <trkpt lat="41.423499584198" lon="2.114567756652832">
        <ele>376.69</ele>
      </trkpt>
      <trkpt lat="41.423349464312196" lon="2.1146321296691895">
        <ele>375.21</ele>
      </trkpt>
      <trkpt lat="41.423306465148926" lon="2.114546298980713">
        <ele>373.57</ele>
      </trkpt>
      <trkpt lat="41.423306465148926" lon="2.1143746376037598">
        <ele>371.86</ele>
      </trkpt>
      <trkpt lat="41.42324209213257" lon="2.1141600608825684">
        <ele>370.26</ele>
      </trkpt>
      <trkpt lat="41.423059701919556" lon="2.1139883995056152">
        <ele>368.93</ele>
      </trkpt>
      <trkpt lat="41.42287731170654" lon="2.113816738128662">
        <ele>367.57</ele>
      </trkpt>
      <trkpt lat="41.42280204221606" lon="2.1135694719851017">
        <ele>365.88</ele>
      </trkpt>
      <trkpt lat="41.42272719182074" lon="2.113323211669922">
        <ele>364.32</ele>
      </trkpt>
      <trkpt lat="41.42272710800171" lon="2.113323211669922">
        <ele>362.99</ele>
      </trkpt>
      <trkpt lat="41.42261981964111" lon="2.113215923309326">
        <ele>361.6</ele>
      </trkpt>
      <trkpt lat="41.422576904296875" lon="2.113022804260254">
        <ele>360.14</ele>
      </trkpt>
      <trkpt lat="41.42244815826416" lon="2.112894058227539">
        <ele>358.81</ele>
      </trkpt>
      <trkpt lat="41.422276329249144" lon="2.1125933155417442">
        <ele>357.54</ele>
      </trkpt>
      <trkpt lat="41.422104835510254" lon="2.112293243408203">
        <ele>356.09</ele>
      </trkpt>
      <trkpt lat="41.422104919329286" lon="2.1122074127197266">
        <ele>354.57</ele>
      </trkpt>
      <trkpt lat="41.422283789142966" lon="2.1124793216586113">
        <ele>353.41</ele>
      </trkpt>
      <trkpt lat="41.42246265895665" lon="2.1127513144165277">
        <ele>352.06</ele>
      </trkpt>
      <trkpt lat="41.42264127731323" lon="2.113022804260254">
        <ele>350.86</ele>
      </trkpt>
      <trkpt lat="41.42270565032959" lon="2.113044261932373">
        <ele>349.44</ele>
      </trkpt>
      <trkpt lat="41.42274864949286" lon="2.113022804260254">
        <ele>347.94</ele>
      </trkpt>
      <trkpt lat="41.42277002334595" lon="2.1129369735717773">
        <ele>346.36</ele>
      </trkpt>
      <trkpt lat="41.422726940363646" lon="2.1127004362642765">
        <ele>344.6</ele>
      </trkpt>
      <trkpt lat="41.42268419265747" lon="2.1124649047851562">
        <ele>342.78</ele>
      </trkpt>
      <trkpt lat="41.42266265116632" lon="2.112163743004203">
        <ele>340.96</ele>
      </trkpt>
      <trkpt lat="41.42264127731323" lon="2.1118640899658203">
        <ele>339.27</ele>
      </trkpt>
      <trkpt lat="41.42255519516766" lon="2.1114985551685095">
        <ele>337.5</ele>
      </trkpt>
      <trkpt lat="41.42246919684112" lon="2.1111330203711987">
        <ele>335.92</ele>
      </trkpt>
      <trkpt lat="41.4223837852478" lon="2.110769748687744">
        <ele>334.53</ele>
      </trkpt>
      <trkpt lat="41.42234078608453" lon="2.110457858070731">
        <ele>333.23</ele>
      </trkpt>
      <trkpt lat="41.42229803837836" lon="2.110147476196289">
        <ele>332.04</ele>
      </trkpt>
      <trkpt lat="41.4223837852478" lon="2.110104560852051">
        <ele>331.23</ele>
      </trkpt>
      <trkpt lat="41.42244815826416" lon="2.11012601852417">
        <ele>330.57</ele>
      </trkpt>
      <trkpt lat="41.42264110967517" lon="2.1102438680827618">
        <ele>330.22</ele>
      </trkpt>
      <trkpt lat="41.422834396362305" lon="2.1103620529174805">
        <ele>330.03</ele>
      </trkpt>
      <trkpt lat="41.42302726395428" lon="2.1102548483759165">
        <ele>329.63</ele>
      </trkpt>
      <trkpt lat="41.42322063446045" lon="2.110147476196289">
        <ele>329.29</ele>
      </trkpt>
      <trkpt lat="41.4233922958374" lon="2.1101903915405273">
        <ele>329.32</ele>
      </trkpt>
      <trkpt lat="41.42343521118164" lon="2.1102547645568848">
        <ele>329.56</ele>
      </trkpt>
      <trkpt lat="41.423499584198" lon="2.110297679901123">
        <ele>329.92</ele>
      </trkpt>
      <trkpt lat="41.42364978790283" lon="2.110319137573242">
        <ele>330.38</ele>
      </trkpt>
      <trkpt lat="41.42375716008246" lon="2.1102118492126465">
        <ele>330.89</ele>
      </trkpt>
      <trkpt lat="41.423864448443055" lon="2.1100292913615704">
        <ele>331.67</ele>
      </trkpt>
      <trkpt lat="41.42397165298462" lon="2.109847068786621">
        <ele>332.71</ele>
      </trkpt>
      <trkpt lat="41.42390727996826" lon="2.109804153442383">
        <ele>333.64</ele>
      </trkpt>
      <trkpt lat="41.42373561859131" lon="2.109847068786621">
        <ele>334.61</ele>
      </trkpt>
      <trkpt lat="41.42362833023071" lon="2.1097826957702637">
        <ele>335.81</ele>
      </trkpt>
      <trkpt lat="41.4233922958374" lon="2.1095681190490723">
        <ele>337.12</ele>
      </trkpt>
      <trkpt lat="41.42322063446045" lon="2.109224796295166">
        <ele>338.55</ele>
      </trkpt>
      <trkpt lat="41.42322063446045" lon="2.1090102195739746">
        <ele>340.24</ele>
      </trkpt>
      <trkpt lat="41.42337083816528" lon="2.108731269836426">
        <ele>342.28</ele>
      </trkpt>
      <trkpt lat="41.423327922821045" lon="2.1084952354431152">
        <ele>343.94</ele>
      </trkpt>
      <trkpt lat="41.42324209213257" lon="2.108430862426758">
        <ele>345.33</ele>
      </trkpt>
      <trkpt lat="41.42311334609985" lon="2.1084094047546387">
        <ele>346.56</ele>
      </trkpt>
      <trkpt lat="41.42296314239502" lon="2.1083450317382812">
        <ele>347.75</ele>
      </trkpt>
      <trkpt lat="41.42284101806581" lon="2.108059963211417">
        <ele>349.22</ele>
      </trkpt>
      <trkpt lat="41.42284101806581" lon="2.108060047030449">
        <ele>350.35</ele>
      </trkpt>
      <trkpt lat="41.42270565032959" lon="2.1077442169189453">
        <ele>351.51</ele>
      </trkpt>
      <trkpt lat="41.422555446624756" lon="2.1075940132141113">
        <ele>352.38</ele>
      </trkpt>
      <trkpt lat="41.422340869903564" lon="2.107529640197754">
        <ele>353.0</ele>
      </trkpt>
      <trkpt lat="41.42214775085449" lon="2.107422351837158">
        <ele>353.52</ele>
      </trkpt>
      <trkpt lat="41.4220404624939" lon="2.1071863174438477">
        <ele>353.93</ele>
      </trkpt>
      <trkpt lat="41.4220404624939" lon="2.107079029083252">
        <ele>354.05</ele>
      </trkpt>
      <trkpt lat="41.42191171646118" lon="2.106950283050537">
        <ele>353.77</ele>
      </trkpt>
      <trkpt lat="41.42167568206787" lon="2.1068429946899414">
        <ele>353.1</ele>
      </trkpt>
      <trkpt lat="41.421611309051514" lon="2.1068215370178223">
        <ele>352.42</ele>
      </trkpt>
      <trkpt lat="41.421568393707275" lon="2.1066713333129883">
        <ele>351.54</ele>
      </trkpt>
      <trkpt lat="41.4214825630188" lon="2.106306552886963">
        <ele>350.34</ele>
      </trkpt>
      <trkpt lat="41.42135356552899" lon="2.105973372235894">
        <ele>348.98</ele>
      </trkpt>
      <trkpt lat="41.42122465185821" lon="2.1056402754038572">
        <ele>347.39</ele>
      </trkpt>
      <trkpt lat="41.42109573818743" lon="2.1053071785718203">
        <ele>345.51</ele>
      </trkpt>
      <trkpt lat="41.42096757888794" lon="2.104976177215576">
        <ele>343.28</ele>
      </trkpt>
      <trkpt lat="41.4208815805614" lon="2.104682307690382">
        <ele>340.81</ele>
      </trkpt>
      <trkpt lat="41.42079558223486" lon="2.1043885219842196">
        <ele>338.14</ele>
      </trkpt>
      <trkpt lat="41.42071008682251" lon="2.1040964126586914">
        <ele>335.3</ele>
      </trkpt>
      <trkpt lat="41.4205810893327" lon="2.103752503171563">
        <ele>332.34</ele>
      </trkpt>
      <trkpt lat="41.42045217566192" lon="2.1034086775034666">
        <ele>329.21</ele>
      </trkpt>
      <trkpt lat="41.420323848724365" lon="2.1030664443969727">
        <ele>325.99</ele>
      </trkpt>
      <trkpt lat="41.420323848724365" lon="2.102937698364258">
        <ele>323.15</ele>
      </trkpt>
      <trkpt lat="41.42040967941284" lon="2.1027231216430664">
        <ele>320.48</ele>
      </trkpt>
      <trkpt lat="41.42038822174072" lon="2.102658748626709">
        <ele>317.69</ele>
      </trkpt>
      <trkpt lat="41.420323848724365" lon="2.1025729179382324">
        <ele>314.92</ele>
      </trkpt>
      <trkpt lat="41.42021656036377" lon="2.102508544921875">
        <ele>312.13</ele>
      </trkpt>
      <trkpt lat="41.42000198364258" lon="2.102487087249756">
        <ele>309.26</ele>
      </trkpt>
      <trkpt lat="41.4199161529541" lon="2.1025943756103516">
        <ele>306.61</ele>
      </trkpt>
      <trkpt lat="41.419808864593506" lon="2.102980613708496">
        <ele>304.14</ele>
      </trkpt>
      <trkpt lat="41.41978740692139" lon="2.1025943756103516">
        <ele>301.72</ele>
      </trkpt>
      <trkpt lat="41.419669138267636" lon="2.1022719237953424">
        <ele>299.48</ele>
      </trkpt>
      <trkpt lat="41.419551372528076" lon="2.1019506454467773">
        <ele>297.32</ele>
      </trkpt>
      <trkpt lat="41.419572830200195" lon="2.1016716957092285">
        <ele>295.22</ele>
      </trkpt>
      <trkpt lat="41.41972311772406" lon="2.1013283729553223">
        <ele>293.11</ele>
      </trkpt>
      <trkpt lat="41.419808864593506" lon="2.1010923385620117">
        <ele>291.01</ele>
      </trkpt>
      <trkpt lat="41.419851779937744" lon="2.10113525390625">
        <ele>289.36</ele>
      </trkpt>
      <trkpt lat="41.419851779937744" lon="2.1010923385620117">
        <ele>287.62</ele>
      </trkpt>
      <trkpt lat="41.419873321428895" lon="2.1007919311523438">
        <ele>285.77</ele>
      </trkpt>
      <trkpt lat="41.419873321428895" lon="2.1004907693713903">
        <ele>284.12</ele>
      </trkpt>
      <trkpt lat="41.419873321428895" lon="2.100191116333008">
        <ele>282.59</ele>
      </trkpt>
      <trkpt lat="41.41989469528198" lon="2.1001052856445312">
        <ele>281.08</ele>
      </trkpt>
      <trkpt lat="41.4199161529541" lon="2.099857935681939">
        <ele>279.53</ele>
      </trkpt>
      <trkpt lat="41.41993761062622" lon="2.099611759185791">
        <ele>277.95</ele>
      </trkpt>
      <trkpt lat="41.419830322265625" lon="2.0992684364318848">
        <ele>276.14</ele>
      </trkpt>
      <trkpt lat="41.41978740692139" lon="2.0992040634155273">
        <ele>274.81</ele>
      </trkpt>
      <trkpt lat="41.41974449157715" lon="2.0992040634155273">
        <ele>273.59</ele>
      </trkpt>
      <trkpt lat="41.41952991485596" lon="2.099332809448242">
        <ele>272.12</ele>
      </trkpt>
      <trkpt lat="41.419572830200195" lon="2.098968029022217">
        <ele>271.06</ele>
      </trkpt>
      <trkpt lat="41.41972303390503" lon="2.098817825317383">
        <ele>270.27</ele>
      </trkpt>
      <trkpt lat="41.419851779937744" lon="2.0986032485961914">
        <ele>269.17</ele>
      </trkpt>
      <trkpt lat="41.419851779937744" lon="2.098560333251953">
        <ele>267.71</ele>
      </trkpt>
      <trkpt lat="41.41978740692139" lon="2.098538875579834">
        <ele>266.02</ele>
      </trkpt>
      <trkpt lat="41.419615745544434" lon="2.098560333251953">
        <ele>264.01</ele>
      </trkpt>
      <trkpt lat="41.41962647438049" lon="2.0983237121254206">
        <ele>261.95</ele>
      </trkpt>
      <trkpt lat="41.41963720321655" lon="2.098088264465332">
        <ele>259.59</ele>
      </trkpt>
      <trkpt lat="41.41963720321655" lon="2.0978731848299503">
        <ele>257.02</ele>
      </trkpt>
      <trkpt lat="41.41963720321655" lon="2.097659111022949">
        <ele>254.49</ele>
      </trkpt>
      <trkpt lat="41.41963720321655" lon="2.0973801612854004">
        <ele>251.71</ele>
      </trkpt>
      <trkpt lat="41.41963720321655" lon="2.097294330596924">
        <ele>249.64</ele>
      </trkpt>
      <trkpt lat="41.41970166005194" lon="2.0972084999084473">
        <ele>247.56</ele>
      </trkpt>
      <trkpt lat="41.41963720321655" lon="2.0971012115478516">
        <ele>245.59</ele>
      </trkpt>
      <trkpt lat="41.419798051938415" lon="2.0969724655151367">
        <ele>243.83</ele>
      </trkpt>
      <trkpt lat="41.41995915211737" lon="2.096843719482422">
        <ele>242.06</ele>
      </trkpt>
      <trkpt lat="41.42000315710902" lon="2.0967996306717396">
        <ele>240.89</ele>
      </trkpt>
    </trkseg>
  </trk>
</gpx>
