<?xml version="1.0" encoding="UTF-8"?>
<gpx version="1.1" creator="GR92-split" xmlns="http://www.topografix.com/GPX/1/1">
  <trk><name>Etappi 26a - Tarragona to Vila-seca</name><trkseg>
    <trkpt lat="41.111224" lon="1.253536"><ele>6.1</ele></trkpt>
    <trkpt lat="41.111854" lon="1.253353"><ele>7.8</ele></trkpt>
    <trkpt lat="41.111831" lon="1.253381"><ele>7.8</ele></trkpt>
    <trkpt lat="41.111887" lon="1.253465"><ele>8.0</ele></trkpt>
    <trkpt lat="41.111924" lon="1.253530"><ele>8.2</ele></trkpt>
    <trkpt lat="41.111960" lon="1.253602"><ele>8.4</ele></trkpt>
    <trkpt lat="41.112101" lon="1.253882"><ele>10.1</ele></trkpt>
    <trkpt lat="41.112243" lon="1.254163"><ele>11.6</ele></trkpt>
    <trkpt lat="41.112347" lon="1.254257"><ele>12.6</ele></trkpt>
    <trkpt lat="41.112364" lon="1.254252"><ele>12.5</ele></trkpt>
    <trkpt lat="41.112382" lon="1.254253"><ele>12.4</ele></trkpt>
    <trkpt lat="41.112399" lon="1.254260"><ele>12.4</ele></trkpt>
    <trkpt lat="41.112417" lon="1.254275"><ele>12.7</ele></trkpt>
    <trkpt lat="41.112431" lon="1.254296"><ele>13.0</ele></trkpt>
    <trkpt lat="41.112440" lon="1.254322"><ele>13.2</ele></trkpt>
    <trkpt lat="41.112442" lon="1.254350"><ele>13.1</ele></trkpt>
    <trkpt lat="41.112439" lon="1.254375"><ele>13.1</ele></trkpt>
    <trkpt lat="41.112431" lon="1.254397"><ele>13.0</ele></trkpt>
    <trkpt lat="41.112419" lon="1.254416"><ele>13.0</ele></trkpt>
    <trkpt lat="41.112385" lon="1.254540"><ele>13.0</ele></trkpt>
    <trkpt lat="41.112418" lon="1.254574"><ele>12.8</ele></trkpt>
    <trkpt lat="41.112470" lon="1.254604"><ele>17.1</ele></trkpt>
    <trkpt lat="41.112463" lon="1.254657"><ele>17.6</ele></trkpt>
    <trkpt lat="41.112460" lon="1.254685"><ele>17.9</ele></trkpt>
    <trkpt lat="41.112463" lon="1.254742"><ele>18.7</ele></trkpt>
    <trkpt lat="41.112476" lon="1.254789"><ele>19.7</ele></trkpt>
    <trkpt lat="41.112501" lon="1.254832"><ele>21.0</ele></trkpt>
    <trkpt lat="41.112544" lon="1.254892"><ele>21.9</ele></trkpt>
    <trkpt lat="41.112564" lon="1.254872"><ele>23.9</ele></trkpt>
    <trkpt lat="41.112603" lon="1.254928"><ele>23.4</ele></trkpt>
    <trkpt lat="41.112773" lon="1.255167"><ele>25.3</ele></trkpt>
    <trkpt lat="41.112942" lon="1.255406"><ele>28.8</ele></trkpt>
    <trkpt lat="41.113143" lon="1.255688"><ele>31.2</ele></trkpt>
    <trkpt lat="41.113343" lon="1.255971"><ele>35.1</ele></trkpt>
    <trkpt lat="41.113482" lon="1.256173"><ele>34.7</ele></trkpt>
    <trkpt lat="41.113505" lon="1.256139"><ele>39.2</ele></trkpt>
    <trkpt lat="41.113527" lon="1.256103"><ele>38.1</ele></trkpt>
    <trkpt lat="41.113392" lon="1.255919"><ele>36.2</ele></trkpt>
    <trkpt lat="41.113241" lon="1.255699"><ele>34.2</ele></trkpt>
    <trkpt lat="41.113014" lon="1.255400"><ele>29.9</ele></trkpt>
    <trkpt lat="41.112808" lon="1.255098"><ele>26.7</ele></trkpt>
    <trkpt lat="41.112667" lon="1.254880"><ele>24.7</ele></trkpt>
    <trkpt lat="41.112651" lon="1.254852"><ele>24.5</ele></trkpt>
    <trkpt lat="41.112645" lon="1.254718"><ele>24.3</ele></trkpt>
    <trkpt lat="41.112667" lon="1.254676"><ele>24.5</ele></trkpt>
    <trkpt lat="41.112773" lon="1.254472"><ele>25.9</ele></trkpt>
    <trkpt lat="41.112974" lon="1.254086"><ele>28.9</ele></trkpt>
    <trkpt lat="41.113094" lon="1.253858"><ele>29.9</ele></trkpt>
    <trkpt lat="41.113282" lon="1.253487"><ele>28.9</ele></trkpt>
    <trkpt lat="41.113441" lon="1.253180"><ele>30.0</ele></trkpt>
    <trkpt lat="41.113465" lon="1.253182"><ele>31.0</ele></trkpt>
    <trkpt lat="41.113471" lon="1.253171"><ele>31.2</ele></trkpt>
    <trkpt lat="41.113490" lon="1.253132"><ele>31.7</ele></trkpt>
    <trkpt lat="41.113513" lon="1.253086"><ele>31.7</ele></trkpt>
    <trkpt lat="41.113645" lon="1.252814"><ele>30.9</ele></trkpt>
    <trkpt lat="41.113778" lon="1.252542"><ele>29.9</ele></trkpt>
    <trkpt lat="41.113967" lon="1.252214"><ele>28.6</ele></trkpt>
    <trkpt lat="41.114048" lon="1.252045"><ele>27.8</ele></trkpt>
    <trkpt lat="41.114180" lon="1.251793"><ele>26.8</ele></trkpt>
    <trkpt lat="41.114312" lon="1.251541"><ele>26.1</ele></trkpt>
    <trkpt lat="41.114337" lon="1.251493"><ele>26.0</ele></trkpt>
    <trkpt lat="41.114370" lon="1.251430"><ele>26.2</ele></trkpt>
    <trkpt lat="41.114348" lon="1.251410"><ele>26.1</ele></trkpt>
    <trkpt lat="41.114545" lon="1.251036"><ele>27.3</ele></trkpt>
    <trkpt lat="41.114742" lon="1.250661"><ele>29.8</ele></trkpt>
    <trkpt lat="41.114916" lon="1.250331"><ele>31.3</ele></trkpt>
    <trkpt lat="41.115090" lon="1.250001"><ele>32.4</ele></trkpt>
    <trkpt lat="41.115264" lon="1.249670"><ele>33.6</ele></trkpt>
    <trkpt lat="41.115415" lon="1.249353"><ele>33.4</ele></trkpt>
    <trkpt lat="41.115469" lon="1.249234"><ele>33.4</ele></trkpt>
    <trkpt lat="41.115488" lon="1.249192"><ele>33.3</ele></trkpt>
    <trkpt lat="41.115640" lon="1.248847"><ele>32.0</ele></trkpt>
    <trkpt lat="41.115792" lon="1.248501"><ele>31.7</ele></trkpt>
    <trkpt lat="41.115944" lon="1.248156"><ele>30.0</ele></trkpt>
    <trkpt lat="41.116004" lon="1.248052"><ele>30.3</ele></trkpt>
    <trkpt lat="41.116179" lon="1.247685"><ele>28.9</ele></trkpt>
    <trkpt lat="41.116355" lon="1.247318"><ele>26.9</ele></trkpt>
    <trkpt lat="41.116530" lon="1.246951"><ele>25.4</ele></trkpt>
    <trkpt lat="41.116419" lon="1.246560"><ele>24.5</ele></trkpt>
    <trkpt lat="41.116715" lon="1.246428"><ele>23.6</ele></trkpt>
    <trkpt lat="41.117011" lon="1.246296"><ele>23.1</ele></trkpt>
    <trkpt lat="41.117023" lon="1.246291"><ele>23.1</ele></trkpt>
    <trkpt lat="41.117307" lon="1.246165"><ele>22.6</ele></trkpt>
    <trkpt lat="41.117435" lon="1.246107"><ele>22.6</ele></trkpt>
    <trkpt lat="41.117749" lon="1.245961"><ele>22.6</ele></trkpt>
    <trkpt lat="41.118062" lon="1.245814"><ele>22.8</ele></trkpt>
    <trkpt lat="41.118376" lon="1.245667"><ele>23.1</ele></trkpt>
    <trkpt lat="41.118357" lon="1.245589"><ele>23.2</ele></trkpt>
    <trkpt lat="41.118431" lon="1.245553"><ele>23.3</ele></trkpt>
    <trkpt lat="41.118423" lon="1.245431"><ele>23.6</ele></trkpt>
    <trkpt lat="41.118423" lon="1.245363"><ele>23.5</ele></trkpt>
    <trkpt lat="41.118422" lon="1.245296"><ele>23.4</ele></trkpt>
    <trkpt lat="41.118431" lon="1.245209"><ele>23.1</ele></trkpt>
    <trkpt lat="41.118433" lon="1.245190"><ele>23.0</ele></trkpt>
    <trkpt lat="41.118438" lon="1.245172"><ele>22.9</ele></trkpt>
    <trkpt lat="41.118458" lon="1.245098"><ele>22.9</ele></trkpt>
    <trkpt lat="41.118462" lon="1.245082"><ele>22.9</ele></trkpt>
    <trkpt lat="41.118474" lon="1.245035"><ele>22.9</ele></trkpt>
    <trkpt lat="41.118485" lon="1.245015"><ele>22.9</ele></trkpt>
    <trkpt lat="41.118565" lon="1.244867"><ele>23.2</ele></trkpt>
    <trkpt lat="41.118598" lon="1.244822"><ele>23.3</ele></trkpt>
    <trkpt lat="41.118656" lon="1.244741"><ele>23.2</ele></trkpt>
    <trkpt lat="41.118733" lon="1.244668"><ele>23.1</ele></trkpt>
    <trkpt lat="41.118752" lon="1.244653"><ele>23.0</ele></trkpt>
    <trkpt lat="41.118766" lon="1.244641"><ele>23.0</ele></trkpt>
    <trkpt lat="41.118825" lon="1.244639"><ele>22.9</ele></trkpt>
    <trkpt lat="41.118920" lon="1.244637"><ele>23.2</ele></trkpt>
    <trkpt lat="41.118994" lon="1.244606"><ele>23.1</ele></trkpt>
    <trkpt lat="41.119076" lon="1.244573"><ele>23.3</ele></trkpt>
    <trkpt lat="41.119269" lon="1.244508"><ele>23.6</ele></trkpt>
    <trkpt lat="41.119447" lon="1.244134"><ele>23.6</ele></trkpt>
    <trkpt lat="41.119444" lon="1.244100"><ele>23.6</ele></trkpt>
    <trkpt lat="41.119468" lon="1.244057"><ele>23.6</ele></trkpt>
    <trkpt lat="41.119480" lon="1.244034"><ele>23.6</ele></trkpt>
    <trkpt lat="41.119499" lon="1.243998"><ele>23.5</ele></trkpt>
    <trkpt lat="41.119517" lon="1.243966"><ele>23.5</ele></trkpt>
    <trkpt lat="41.119546" lon="1.243915"><ele>23.7</ele></trkpt>
    <trkpt lat="41.119575" lon="1.243886"><ele>23.8</ele></trkpt>
    <trkpt lat="41.119740" lon="1.243540"><ele>24.1</ele></trkpt>
    <trkpt lat="41.119763" lon="1.243491"><ele>24.1</ele></trkpt>
    <trkpt lat="41.119950" lon="1.243097"><ele>24.5</ele></trkpt>
    <trkpt lat="41.119984" lon="1.243128"><ele>24.5</ele></trkpt>
    <trkpt lat="41.120049" lon="1.242992"><ele>24.8</ele></trkpt>
    <trkpt lat="41.120100" lon="1.242880"><ele>24.5</ele></trkpt>
    <trkpt lat="41.120287" lon="1.242500"><ele>26.2</ele></trkpt>
    <trkpt lat="41.120314" lon="1.242445"><ele>26.4</ele></trkpt>
    <trkpt lat="41.120370" lon="1.242330"><ele>26.8</ele></trkpt>
    <trkpt lat="41.120584" lon="1.241881"><ele>28.3</ele></trkpt>
    <trkpt lat="41.120622" lon="1.241801"><ele>28.4</ele></trkpt>
    <trkpt lat="41.120832" lon="1.241361"><ele>29.6</ele></trkpt>
    <trkpt lat="41.120850" lon="1.241324"><ele>29.7</ele></trkpt>
    <trkpt lat="41.120929" lon="1.241159"><ele>30.2</ele></trkpt>
    <trkpt lat="41.120981" lon="1.241115"><ele>30.2</ele></trkpt>
    <trkpt lat="41.120969" lon="1.241053"><ele>30.2</ele></trkpt>
    <trkpt lat="41.120970" lon="1.240988"><ele>30.3</ele></trkpt>
    <trkpt lat="41.120983" lon="1.240926"><ele>30.2</ele></trkpt>
    <trkpt lat="41.121007" lon="1.240870"><ele>30.1</ele></trkpt>
    <trkpt lat="41.121042" lon="1.240823"><ele>30.1</ele></trkpt>
    <trkpt lat="41.121085" lon="1.240790"><ele>30.2</ele></trkpt>
    <trkpt lat="41.121133" lon="1.240773"><ele>30.1</ele></trkpt>
    <trkpt lat="41.121176" lon="1.240654"><ele>30.2</ele></trkpt>
    <trkpt lat="41.121198" lon="1.240609"><ele>30.1</ele></trkpt>
    <trkpt lat="41.121282" lon="1.240435"><ele>29.7</ele></trkpt>
    <trkpt lat="41.121423" lon="1.240149"><ele>28.8</ele></trkpt>
    <trkpt lat="41.121563" lon="1.239862"><ele>27.5</ele></trkpt>
    <trkpt lat="41.121667" lon="1.239639"><ele>26.4</ele></trkpt>
    <trkpt lat="41.121743" lon="1.239476"><ele>25.6</ele></trkpt>
    <trkpt lat="41.121790" lon="1.239377"><ele>25.1</ele></trkpt>
    <trkpt lat="41.121918" lon="1.239109"><ele>23.9</ele></trkpt>
    <trkpt lat="41.122047" lon="1.238841"><ele>22.7</ele></trkpt>
    <trkpt lat="41.122233" lon="1.238452"><ele>20.8</ele></trkpt>
    <trkpt lat="41.122400" lon="1.238104"><ele>19.3</ele></trkpt>
    <trkpt lat="41.122567" lon="1.237755"><ele>17.6</ele></trkpt>
    <trkpt lat="41.122734" lon="1.237407"><ele>16.2</ele></trkpt>
    <trkpt lat="41.122751" lon="1.237357"><ele>16.1</ele></trkpt>
    <trkpt lat="41.122822" lon="1.237153"><ele>15.6</ele></trkpt>
    <trkpt lat="41.122808" lon="1.237101"><ele>15.4</ele></trkpt>
    <trkpt lat="41.122800" lon="1.237048"><ele>15.3</ele></trkpt>
    <trkpt lat="41.122797" lon="1.236996"><ele>15.3</ele></trkpt>
    <trkpt lat="41.122801" lon="1.236938"><ele>15.2</ele></trkpt>
    <trkpt lat="41.122805" lon="1.236912"><ele>15.2</ele></trkpt>
    <trkpt lat="41.122815" lon="1.236867"><ele>15.2</ele></trkpt>
    <trkpt lat="41.122833" lon="1.236816"><ele>15.1</ele></trkpt>
    <trkpt lat="41.122844" lon="1.236792"><ele>15.1</ele></trkpt>
    <trkpt lat="41.122656" lon="1.236616"><ele>14.5</ele></trkpt>
    <trkpt lat="41.122469" lon="1.236440"><ele>13.6</ele></trkpt>
    <trkpt lat="41.122142" lon="1.236154"><ele>12.4</ele></trkpt>
    <trkpt lat="41.121815" lon="1.235868"><ele>12.2</ele></trkpt>
    <trkpt lat="41.121873" lon="1.235734"><ele>12.3</ele></trkpt>
    <trkpt lat="41.121602" lon="1.235459"><ele>13.2</ele></trkpt>
    <trkpt lat="41.121589" lon="1.235446"><ele>13.3</ele></trkpt>
    <trkpt lat="41.121694" lon="1.235351"><ele>13.2</ele></trkpt>
    <trkpt lat="41.121771" lon="1.235264"><ele>13.8</ele></trkpt>
    <trkpt lat="41.121842" lon="1.235164"><ele>14.3</ele></trkpt>
    <trkpt lat="41.121884" lon="1.235059"><ele>14.6</ele></trkpt>
    <trkpt lat="41.121929" lon="1.235014"><ele>14.6</ele></trkpt>
    <trkpt lat="41.122049" lon="1.234893"><ele>14.7</ele></trkpt>
    <trkpt lat="41.122098" lon="1.234844"><ele>15.0</ele></trkpt>
    <trkpt lat="41.122190" lon="1.234783"><ele>15.1</ele></trkpt>
    <trkpt lat="41.122016" lon="1.234827"><ele>13.9</ele></trkpt>
    <trkpt lat="41.121926" lon="1.234873"><ele>12.8</ele></trkpt>
    <trkpt lat="41.121794" lon="1.234967"><ele>10.7</ele></trkpt>
    <trkpt lat="41.121669" lon="1.235053"><ele>9.7</ele></trkpt>
    <trkpt lat="41.121566" lon="1.235118"><ele>8.7</ele></trkpt>
    <trkpt lat="41.121446" lon="1.235137"><ele>7.6</ele></trkpt>
    <trkpt lat="41.121314" lon="1.235168"><ele>7.2</ele></trkpt>
    <trkpt lat="41.121458" lon="1.234907"><ele>7.2</ele></trkpt>
    <trkpt lat="41.121556" lon="1.234798"><ele>7.2</ele></trkpt>
    <trkpt lat="41.121680" lon="1.234700"><ele>7.2</ele></trkpt>
    <trkpt lat="41.121749" lon="1.234616"><ele>7.3</ele></trkpt>
    <trkpt lat="41.121890" lon="1.234489"><ele>7.6</ele></trkpt>
    <trkpt lat="41.121965" lon="1.234446"><ele>7.7</ele></trkpt>
    <trkpt lat="41.122044" lon="1.234428"><ele>7.6</ele></trkpt>
    <trkpt lat="41.122186" lon="1.234389"><ele>7.7</ele></trkpt>
    <trkpt lat="41.122307" lon="1.234342"><ele>7.9</ele></trkpt>
    <trkpt lat="41.122396" lon="1.234290"><ele>8.2</ele></trkpt>
    <trkpt lat="41.122307" lon="1.234342"><ele>7.9</ele></trkpt>
    <trkpt lat="41.122186" lon="1.234389"><ele>7.7</ele></trkpt>
    <trkpt lat="41.122044" lon="1.234428"><ele>7.6</ele></trkpt>
    <trkpt lat="41.121965" lon="1.234446"><ele>7.7</ele></trkpt>
    <trkpt lat="41.121890" lon="1.234489"><ele>7.6</ele></trkpt>
    <trkpt lat="41.121749" lon="1.234616"><ele>7.3</ele></trkpt>
    <trkpt lat="41.121626" lon="1.234379"><ele>6.4</ele></trkpt>
    <trkpt lat="41.121550" lon="1.234017"><ele>7.4</ele></trkpt>
    <trkpt lat="41.121504" lon="1.233483"><ele>9.2</ele></trkpt>
    <trkpt lat="41.121596" lon="1.233402"><ele>9.3</ele></trkpt>
    <trkpt lat="41.121693" lon="1.233271"><ele>9.4</ele></trkpt>
    <trkpt lat="41.121745" lon="1.233198"><ele>9.4</ele></trkpt>
    <trkpt lat="41.121828" lon="1.233180"><ele>9.2</ele></trkpt>
    <trkpt lat="41.121896" lon="1.233129"><ele>9.3</ele></trkpt>
    <trkpt lat="41.122000" lon="1.233001"><ele>9.6</ele></trkpt>
    <trkpt lat="41.122109" lon="1.232875"><ele>10.2</ele></trkpt>
    <trkpt lat="41.122220" lon="1.232775"><ele>10.5</ele></trkpt>
    <trkpt lat="41.122300" lon="1.232678"><ele>10.7</ele></trkpt>
    <trkpt lat="41.122383" lon="1.232587"><ele>10.8</ele></trkpt>
    <trkpt lat="41.122414" lon="1.232438"><ele>11.1</ele></trkpt>
    <trkpt lat="41.122588" lon="1.232320"><ele>11.2</ele></trkpt>
    <trkpt lat="41.122891" lon="1.232177"><ele>11.0</ele></trkpt>
    <trkpt lat="41.123258" lon="1.231996"><ele>11.3</ele></trkpt>
    <trkpt lat="41.123479" lon="1.231889"><ele>11.3</ele></trkpt>
    <trkpt lat="41.123805" lon="1.231772"><ele>11.3</ele></trkpt>
    <trkpt lat="41.124101" lon="1.231615"><ele>11.3</ele></trkpt>
    <trkpt lat="41.124397" lon="1.231457"><ele>11.5</ele></trkpt>
    <trkpt lat="41.124636" lon="1.231358"><ele>11.6</ele></trkpt>
    <trkpt lat="41.124874" lon="1.231259"><ele>11.4</ele></trkpt>
    <trkpt lat="41.125118" lon="1.231118"><ele>11.0</ele></trkpt>
    <trkpt lat="41.125297" lon="1.231033"><ele>10.8</ele></trkpt>
    <trkpt lat="41.125409" lon="1.230989"><ele>10.9</ele></trkpt>
    <trkpt lat="41.125513" lon="1.230917"><ele>11.1</ele></trkpt>
    <trkpt lat="41.125593" lon="1.230864"><ele>11.1</ele></trkpt>
    <trkpt lat="41.125666" lon="1.230842"><ele>11.2</ele></trkpt>
    <trkpt lat="41.125737" lon="1.230839"><ele>11.2</ele></trkpt>
    <trkpt lat="41.125905" lon="1.230855"><ele>11.0</ele></trkpt>
    <trkpt lat="41.126089" lon="1.230855"><ele>11.0</ele></trkpt>
    <trkpt lat="41.126158" lon="1.230870"><ele>11.1</ele></trkpt>
    <trkpt lat="41.126244" lon="1.230859"><ele>11.0</ele></trkpt>
    <trkpt lat="41.126415" lon="1.230846"><ele>11.2</ele></trkpt>
    <trkpt lat="41.126516" lon="1.230844"><ele>11.5</ele></trkpt>
    <trkpt lat="41.126646" lon="1.230843"><ele>11.5</ele></trkpt>
    <trkpt lat="41.126690" lon="1.230880"><ele>11.4</ele></trkpt>
    <trkpt lat="41.126784" lon="1.230895"><ele>11.3</ele></trkpt>
    <trkpt lat="41.127078" lon="1.230883"><ele>11.5</ele></trkpt>
    <trkpt lat="41.127327" lon="1.230904"><ele>11.6</ele></trkpt>
    <trkpt lat="41.127559" lon="1.230913"><ele>11.5</ele></trkpt>
    <trkpt lat="41.127906" lon="1.230904"><ele>11.6</ele></trkpt>
    <trkpt lat="41.128159" lon="1.230899"><ele>12.0</ele></trkpt>
    <trkpt lat="41.128412" lon="1.230895"><ele>12.1</ele></trkpt>
    <trkpt lat="41.128620" lon="1.230899"><ele>12.3</ele></trkpt>
    <trkpt lat="41.128732" lon="1.230901"><ele>12.5</ele></trkpt>
    <trkpt lat="41.129047" lon="1.230916"><ele>12.9</ele></trkpt>
    <trkpt lat="41.129144" lon="1.230929"><ele>13.4</ele></trkpt>
    <trkpt lat="41.129265" lon="1.230938"><ele>13.8</ele></trkpt>
    <trkpt lat="41.129406" lon="1.230965"><ele>14.5</ele></trkpt>
    <trkpt lat="41.129514" lon="1.231014"><ele>14.8</ele></trkpt>
    <trkpt lat="41.129661" lon="1.231093"><ele>15.2</ele></trkpt>
    <trkpt lat="41.129716" lon="1.231121"><ele>15.3</ele></trkpt>
    <trkpt lat="41.129774" lon="1.231118"><ele>15.6</ele></trkpt>
    <trkpt lat="41.129829" lon="1.231096"><ele>15.8</ele></trkpt>
    <trkpt lat="41.129861" lon="1.231057"><ele>15.8</ele></trkpt>
    <trkpt lat="41.129971" lon="1.231099"><ele>16.0</ele></trkpt>
    <trkpt lat="41.130131" lon="1.231108"><ele>16.3</ele></trkpt>
    <trkpt lat="41.130291" lon="1.231107"><ele>16.4</ele></trkpt>
    <trkpt lat="41.130436" lon="1.231114"><ele>16.3</ele></trkpt>
    <trkpt lat="41.130547" lon="1.231158"><ele>16.3</ele></trkpt>
    <trkpt lat="41.130649" lon="1.231189"><ele>16.4</ele></trkpt>
    <trkpt lat="41.130758" lon="1.231230"><ele>16.5</ele></trkpt>
    <trkpt lat="41.130919" lon="1.231286"><ele>16.6</ele></trkpt>
    <trkpt lat="41.131149" lon="1.231319"><ele>16.8</ele></trkpt>
    <trkpt lat="41.131220" lon="1.231344"><ele>17.0</ele></trkpt>
    <trkpt lat="41.131317" lon="1.231365"><ele>17.1</ele></trkpt>
    <trkpt lat="41.131724" lon="1.231395"><ele>17.4</ele></trkpt>
    <trkpt lat="41.132038" lon="1.231458"><ele>17.7</ele></trkpt>
    <trkpt lat="41.132290" lon="1.231554"><ele>17.9</ele></trkpt>
    <trkpt lat="41.132550" lon="1.231615"><ele>18.3</ele></trkpt>
    <trkpt lat="41.132862" lon="1.231670"><ele>18.6</ele></trkpt>
    <trkpt lat="41.133105" lon="1.231721"><ele>18.7</ele></trkpt>
    <trkpt lat="41.133348" lon="1.231771"><ele>18.9</ele></trkpt>
    <trkpt lat="41.133589" lon="1.231815"><ele>18.7</ele></trkpt>
    <trkpt lat="41.133831" lon="1.231860"><ele>18.8</ele></trkpt>
    <trkpt lat="41.134072" lon="1.231901"><ele>18.8</ele></trkpt>
    <trkpt lat="41.134314" lon="1.231942"><ele>18.9</ele></trkpt>
    <trkpt lat="41.134504" lon="1.231982"><ele>18.9</ele></trkpt>
    <trkpt lat="41.134746" lon="1.232032"><ele>19.0</ele></trkpt>
    <trkpt lat="41.134987" lon="1.232083"><ele>19.0</ele></trkpt>
    <trkpt lat="41.135315" lon="1.232150"><ele>19.2</ele></trkpt>
    <trkpt lat="41.135643" lon="1.232217"><ele>19.2</ele></trkpt>
    <trkpt lat="41.135844" lon="1.232258"><ele>19.3</ele></trkpt>
    <trkpt lat="41.135869" lon="1.232284"><ele>19.2</ele></trkpt>
    <trkpt lat="41.135946" lon="1.232345"><ele>19.0</ele></trkpt>
    <trkpt lat="41.136041" lon="1.232382"><ele>18.9</ele></trkpt>
    <trkpt lat="41.136188" lon="1.232428"><ele>19.0</ele></trkpt>
    <trkpt lat="41.136577" lon="1.232532"><ele>18.8</ele></trkpt>
    <trkpt lat="41.136957" lon="1.232645"><ele>18.9</ele></trkpt>
    <trkpt lat="41.137336" lon="1.232759"><ele>19.1</ele></trkpt>
    <trkpt lat="41.137681" lon="1.232901"><ele>19.3</ele></trkpt>
    <trkpt lat="41.138026" lon="1.233042"><ele>19.3</ele></trkpt>
    <trkpt lat="41.138371" lon="1.233184"><ele>19.8</ele></trkpt>
    <trkpt lat="41.138676" lon="1.233310"><ele>20.4</ele></trkpt>
    <trkpt lat="41.138981" lon="1.233435"><ele>20.7</ele></trkpt>
    <trkpt lat="41.139250" lon="1.233558"><ele>21.1</ele></trkpt>
    <trkpt lat="41.139518" lon="1.233681"><ele>20.9</ele></trkpt>
    <trkpt lat="41.139900" lon="1.233939"><ele>20.4</ele></trkpt>
    <trkpt lat="41.140281" lon="1.234198"><ele>20.6</ele></trkpt>
    <trkpt lat="41.140337" lon="1.234236"><ele>20.8</ele></trkpt>
    <trkpt lat="41.140598" lon="1.234384"><ele>20.6</ele></trkpt>
    <trkpt lat="41.140858" lon="1.234532"><ele>20.5</ele></trkpt>
    <trkpt lat="41.141122" lon="1.234698"><ele>20.7</ele></trkpt>
    <trkpt lat="41.141385" lon="1.234864"><ele>20.9</ele></trkpt>
    <trkpt lat="41.141591" lon="1.235027"><ele>21.3</ele></trkpt>
    <trkpt lat="41.141875" lon="1.235230"><ele>21.4</ele></trkpt>
    <trkpt lat="41.142160" lon="1.235432"><ele>21.5</ele></trkpt>
    <trkpt lat="41.142434" lon="1.235613"><ele>21.8</ele></trkpt>
    <trkpt lat="41.142708" lon="1.235793"><ele>22.2</ele></trkpt>
    <trkpt lat="41.142982" lon="1.235974"><ele>22.4</ele></trkpt>
    <trkpt lat="41.143221" lon="1.236137"><ele>22.6</ele></trkpt>
    <trkpt lat="41.143461" lon="1.236300"><ele>22.8</ele></trkpt>
    <trkpt lat="41.143595" lon="1.236392"><ele>22.8</ele></trkpt>
    <trkpt lat="41.143984" lon="1.236496"><ele>23.2</ele></trkpt>
    <trkpt lat="41.144374" lon="1.236601"><ele>23.7</ele></trkpt>
    <trkpt lat="41.144763" lon="1.236705"><ele>24.5</ele></trkpt>
    <trkpt lat="41.145143" lon="1.236684"><ele>25.1</ele></trkpt>
    <trkpt lat="41.145482" lon="1.236615"><ele>25.7</ele></trkpt>
    <trkpt lat="41.145822" lon="1.236546"><ele>26.4</ele></trkpt>
    <trkpt lat="41.145817" lon="1.236356"><ele>26.4</ele></trkpt>
    <trkpt lat="41.145900" lon="1.235898"><ele>27.3</ele></trkpt>
    <trkpt lat="41.145983" lon="1.235440"><ele>33.0</ele></trkpt>
    <trkpt lat="41.146046" lon="1.235261"><ele>35.2</ele></trkpt>
    <trkpt lat="41.146130" lon="1.235135"><ele>36.6</ele></trkpt>
    <trkpt lat="41.146310" lon="1.234888"><ele>36.8</ele></trkpt>
    <trkpt lat="41.146536" lon="1.234461"><ele>38.1</ele></trkpt>
    <trkpt lat="41.146629" lon="1.234173"><ele>40.0</ele></trkpt>
    <trkpt lat="41.146680" lon="1.233796"><ele>43.1</ele></trkpt>
    <trkpt lat="41.146614" lon="1.233371"><ele>44.5</ele></trkpt>
    <trkpt lat="41.146976" lon="1.233116"><ele>41.1</ele></trkpt>
    <trkpt lat="41.147034" lon="1.232993"><ele>41.2</ele></trkpt>
    <trkpt lat="41.147102" lon="1.232771"><ele>41.4</ele></trkpt>
    <trkpt lat="41.147193" lon="1.232675"><ele>41.4</ele></trkpt>
    <trkpt lat="41.147392" lon="1.232597"><ele>41.2</ele></trkpt>
    <trkpt lat="41.147424" lon="1.232538"><ele>41.1</ele></trkpt>
    <trkpt lat="41.147429" lon="1.232456"><ele>41.0</ele></trkpt>
    <trkpt lat="41.147379" lon="1.232358"><ele>41.1</ele></trkpt>
    <trkpt lat="41.147229" lon="1.232134"><ele>41.4</ele></trkpt>
    <trkpt lat="41.147079" lon="1.231910"><ele>41.6</ele></trkpt>
    <trkpt lat="41.147028" lon="1.231813"><ele>41.6</ele></trkpt>
    <trkpt lat="41.146920" lon="1.231328"><ele>41.6</ele></trkpt>
    <trkpt lat="41.146866" lon="1.231355"><ele>41.6</ele></trkpt>
    <trkpt lat="41.146710" lon="1.231363"><ele>41.8</ele></trkpt>
    <trkpt lat="41.146599" lon="1.231437"><ele>41.9</ele></trkpt>
    <trkpt lat="41.146359" lon="1.231637"><ele>42.0</ele></trkpt>
    <trkpt lat="41.146192" lon="1.231749"><ele>42.1</ele></trkpt>
    <trkpt lat="41.146034" lon="1.231978"><ele>42.0</ele></trkpt>
    <trkpt lat="41.145944" lon="1.232078"><ele>43.8</ele></trkpt>
    <trkpt lat="41.145861" lon="1.232125"><ele>44.5</ele></trkpt>
    <trkpt lat="41.145783" lon="1.232119"><ele>45.4</ele></trkpt>
    <trkpt lat="41.145756" lon="1.231699"><ele>44.2</ele></trkpt>
    <trkpt lat="41.145728" lon="1.231278"><ele>44.0</ele></trkpt>
    <trkpt lat="41.145701" lon="1.230858"><ele>44.4</ele></trkpt>
    <trkpt lat="41.145677" lon="1.230446"><ele>44.4</ele></trkpt>
    <trkpt lat="41.145654" lon="1.230034"><ele>44.3</ele></trkpt>
    <trkpt lat="41.145643" lon="1.229505"><ele>43.6</ele></trkpt>
    <trkpt lat="41.145626" lon="1.229035"><ele>43.2</ele></trkpt>
    <trkpt lat="41.145610" lon="1.228566"><ele>42.7</ele></trkpt>
    <trkpt lat="41.145666" lon="1.228325"><ele>42.5</ele></trkpt>
    <trkpt lat="41.145971" lon="1.228271"><ele>42.0</ele></trkpt>
    <trkpt lat="41.146277" lon="1.228218"><ele>41.8</ele></trkpt>
    <trkpt lat="41.146659" lon="1.228148"><ele>42.3</ele></trkpt>
    <trkpt lat="41.146884" lon="1.228118"><ele>41.9</ele></trkpt>
    <trkpt lat="41.146891" lon="1.228032"><ele>42.3</ele></trkpt>
    <trkpt lat="41.146808" lon="1.227910"><ele>43.2</ele></trkpt>
    <trkpt lat="41.146456" lon="1.227924"><ele>43.6</ele></trkpt>
    <trkpt lat="41.146108" lon="1.227867"><ele>44.0</ele></trkpt>
    <trkpt lat="41.145663" lon="1.227817"><ele>44.3</ele></trkpt>
    <trkpt lat="41.145582" lon="1.227740"><ele>45.0</ele></trkpt>
    <trkpt lat="41.145545" lon="1.227404"><ele>46.2</ele></trkpt>
    <trkpt lat="41.145507" lon="1.227068"><ele>47.3</ele></trkpt>
    <trkpt lat="41.145550" lon="1.226572"><ele>49.2</ele></trkpt>
    <trkpt lat="41.145577" lon="1.226259"><ele>49.9</ele></trkpt>
    <trkpt lat="41.145610" lon="1.225668"><ele>50.3</ele></trkpt>
    <trkpt lat="41.145572" lon="1.225195"><ele>50.5</ele></trkpt>
    <trkpt lat="41.145535" lon="1.224722"><ele>50.2</ele></trkpt>
    <trkpt lat="41.145570" lon="1.224366"><ele>50.0</ele></trkpt>
    <trkpt lat="41.145605" lon="1.224010"><ele>49.9</ele></trkpt>
    <trkpt lat="41.145600" lon="1.223782"><ele>49.2</ele></trkpt>
    <trkpt lat="41.145598" lon="1.223693"><ele>49.0</ele></trkpt>
    <trkpt lat="41.145549" lon="1.223187"><ele>48.8</ele></trkpt>
    <trkpt lat="41.145545" lon="1.223145"><ele>48.8</ele></trkpt>
    <trkpt lat="41.145501" lon="1.222680"><ele>48.7</ele></trkpt>
    <trkpt lat="41.145453" lon="1.222174"><ele>47.8</ele></trkpt>
    <trkpt lat="41.145477" lon="1.221761"><ele>49.5</ele></trkpt>
    <trkpt lat="41.145634" lon="1.221411"><ele>51.0</ele></trkpt>
    <trkpt lat="41.145500" lon="1.221117"><ele>52.4</ele></trkpt>
    <trkpt lat="41.145367" lon="1.220822"><ele>53.7</ele></trkpt>
    <trkpt lat="41.145245" lon="1.220367"><ele>55.4</ele></trkpt>
    <trkpt lat="41.145123" lon="1.219913"><ele>56.6</ele></trkpt>
    <trkpt lat="41.145041" lon="1.219468"><ele>57.5</ele></trkpt>
    <trkpt lat="41.145312" lon="1.219222"><ele>58.6</ele></trkpt>
    <trkpt lat="41.145583" lon="1.218975"><ele>59.6</ele></trkpt>
    <trkpt lat="41.145910" lon="1.218701"><ele>60.8</ele></trkpt>
    <trkpt lat="41.146237" lon="1.218428"><ele>61.8</ele></trkpt>
    <trkpt lat="41.146564" lon="1.218155"><ele>62.6</ele></trkpt>
    <trkpt lat="41.146675" lon="1.218142"><ele>62.8</ele></trkpt>
    <trkpt lat="41.146772" lon="1.218139"><ele>63.0</ele></trkpt>
    <trkpt lat="41.146847" lon="1.218185"><ele>63.3</ele></trkpt>
    <trkpt lat="41.146938" lon="1.218178"><ele>63.5</ele></trkpt>
    <trkpt lat="41.147010" lon="1.218120"><ele>63.7</ele></trkpt>
    <trkpt lat="41.147050" lon="1.218045"><ele>64.0</ele></trkpt>
    <trkpt lat="41.147192" lon="1.217990"><ele>64.2</ele></trkpt>
    <trkpt lat="41.147354" lon="1.217956"><ele>64.6</ele></trkpt>
    <trkpt lat="41.147600" lon="1.217868"><ele>65.1</ele></trkpt>
    <trkpt lat="41.147760" lon="1.217803"><ele>65.3</ele></trkpt>
    <trkpt lat="41.148107" lon="1.217664"><ele>65.6</ele></trkpt>
    <trkpt lat="41.148453" lon="1.217526"><ele>65.7</ele></trkpt>
    <trkpt lat="41.148757" lon="1.217404"><ele>66.0</ele></trkpt>
    <trkpt lat="41.149170" lon="1.217224"><ele>66.5</ele></trkpt>
    <trkpt lat="41.149177" lon="1.217222"><ele>66.5</ele></trkpt>
    <trkpt lat="41.149515" lon="1.217075"><ele>67.1</ele></trkpt>
    <trkpt lat="41.149901" lon="1.216916"><ele>68.0</ele></trkpt>
    <trkpt lat="41.150288" lon="1.216758"><ele>69.0</ele></trkpt>
    <trkpt lat="41.150587" lon="1.216632"><ele>69.7</ele></trkpt>
    <trkpt lat="41.150886" lon="1.216505"><ele>70.3</ele></trkpt>
    <trkpt lat="41.151186" lon="1.216379"><ele>70.8</ele></trkpt>
    <trkpt lat="41.151451" lon="1.216277"><ele>70.8</ele></trkpt>
    <trkpt lat="41.151631" lon="1.216068"><ele>70.4</ele></trkpt>
    <trkpt lat="41.151741" lon="1.215899"><ele>70.1</ele></trkpt>
    <trkpt lat="41.151930" lon="1.215607"><ele>69.2</ele></trkpt>
    <trkpt lat="41.152119" lon="1.215314"><ele>68.6</ele></trkpt>
    <trkpt lat="41.152285" lon="1.215052"><ele>68.8</ele></trkpt>
    <trkpt lat="41.152452" lon="1.214789"><ele>69.6</ele></trkpt>
    <trkpt lat="41.152463" lon="1.214771"><ele>69.7</ele></trkpt>
    <trkpt lat="41.152586" lon="1.214579"><ele>70.5</ele></trkpt>
    <trkpt lat="41.152695" lon="1.214391"><ele>70.9</ele></trkpt>
    <trkpt lat="41.152770" lon="1.214169"><ele>71.7</ele></trkpt>
    <trkpt lat="41.152710" lon="1.214119"><ele>71.0</ele></trkpt>
    <trkpt lat="41.152586" lon="1.214015"><ele>69.0</ele></trkpt>
    <trkpt lat="41.152511" lon="1.213852"><ele>67.1</ele></trkpt>
    <trkpt lat="41.152452" lon="1.213706"><ele>65.8</ele></trkpt>
    <trkpt lat="41.152433" lon="1.213610"><ele>65.2</ele></trkpt>
    <trkpt lat="41.152422" lon="1.213414"><ele>64.5</ele></trkpt>
    <trkpt lat="41.152412" lon="1.213285"><ele>64.1</ele></trkpt>
    <trkpt lat="41.152420" lon="1.213158"><ele>63.8</ele></trkpt>
    <trkpt lat="41.152431" lon="1.212981"><ele>63.4</ele></trkpt>
    <trkpt lat="41.152333" lon="1.212817"><ele>62.0</ele></trkpt>
    <trkpt lat="41.152162" lon="1.212671"><ele>60.7</ele></trkpt>
    <trkpt lat="41.152139" lon="1.212657"><ele>60.5</ele></trkpt>
    <trkpt lat="41.152116" lon="1.212654"><ele>60.4</ele></trkpt>
    <trkpt lat="41.152091" lon="1.212664"><ele>60.3</ele></trkpt>
    <trkpt lat="41.152071" lon="1.212685"><ele>60.1</ele></trkpt>
    <trkpt lat="41.151883" lon="1.212976"><ele>58.5</ele></trkpt>
    <trkpt lat="41.151862" lon="1.213001"><ele>58.3</ele></trkpt>
    <trkpt lat="41.151838" lon="1.213025"><ele>58.1</ele></trkpt>
    <trkpt lat="41.151813" lon="1.213040"><ele>58.0</ele></trkpt>
    <trkpt lat="41.151789" lon="1.213052"><ele>57.9</ele></trkpt>
    <trkpt lat="41.151738" lon="1.213068"><ele>57.7</ele></trkpt>
    <trkpt lat="41.151691" lon="1.213053"><ele>57.5</ele></trkpt>
    <trkpt lat="41.151656" lon="1.213041"><ele>57.2</ele></trkpt>
    <trkpt lat="41.151474" lon="1.212834"><ele>56.2</ele></trkpt>
    <trkpt lat="41.151207" lon="1.212511"><ele>54.0</ele></trkpt>
    <trkpt lat="41.151122" lon="1.212386"><ele>53.0</ele></trkpt>
    <trkpt lat="41.150878" lon="1.212050"><ele>51.2</ele></trkpt>
    <trkpt lat="41.150841" lon="1.212015"><ele>50.8</ele></trkpt>
    <trkpt lat="41.150802" lon="1.211992"><ele>50.3</ele></trkpt>
    <trkpt lat="41.150760" lon="1.211975"><ele>50.1</ele></trkpt>
    <trkpt lat="41.150718" lon="1.211963"><ele>50.0</ele></trkpt>
    <trkpt lat="41.150570" lon="1.211938"><ele>49.5</ele></trkpt>
    <trkpt lat="41.150384" lon="1.211901"><ele>49.8</ele></trkpt>
    <trkpt lat="41.150117" lon="1.211837"><ele>47.3</ele></trkpt>
    <trkpt lat="41.149724" lon="1.211790"><ele>46.5</ele></trkpt>
    <trkpt lat="41.149378" lon="1.211802"><ele>45.4</ele></trkpt>
    <trkpt lat="41.149304" lon="1.211780"><ele>45.0</ele></trkpt>
    <trkpt lat="41.149250" lon="1.211724"><ele>45.5</ele></trkpt>
    <trkpt lat="41.148999" lon="1.211328"><ele>46.1</ele></trkpt>
    <trkpt lat="41.148734" lon="1.210859"><ele>46.8</ele></trkpt>
    <trkpt lat="41.148469" lon="1.210390"><ele>47.4</ele></trkpt>
    <trkpt lat="41.148204" lon="1.209921"><ele>46.8</ele></trkpt>
    <trkpt lat="41.147939" lon="1.209453"><ele>46.6</ele></trkpt>
    <trkpt lat="41.147818" lon="1.209201"><ele>46.7</ele></trkpt>
    <trkpt lat="41.147676" lon="1.208968"><ele>46.7</ele></trkpt>
    <trkpt lat="41.147534" lon="1.208735"><ele>46.9</ele></trkpt>
    <trkpt lat="41.147391" lon="1.208462"><ele>47.0</ele></trkpt>
    <trkpt lat="41.147248" lon="1.208190"><ele>47.1</ele></trkpt>
    <trkpt lat="41.147091" lon="1.207931"><ele>47.3</ele></trkpt>
    <trkpt lat="41.146822" lon="1.207585"><ele>46.5</ele></trkpt>
    <trkpt lat="41.146778" lon="1.207530"><ele>45.9</ele></trkpt>
    <trkpt lat="41.146775" lon="1.207279"><ele>46.5</ele></trkpt>
    <trkpt lat="41.146716" lon="1.207150"><ele>47.0</ele></trkpt>
    <trkpt lat="41.146689" lon="1.207103"><ele>47.1</ele></trkpt>
    <trkpt lat="41.146378" lon="1.206732"><ele>47.7</ele></trkpt>
    <trkpt lat="41.146068" lon="1.206362"><ele>47.9</ele></trkpt>
    <trkpt lat="41.145757" lon="1.205991"><ele>48.1</ele></trkpt>
    <trkpt lat="41.145738" lon="1.205969"><ele>48.1</ele></trkpt>
    <trkpt lat="41.145446" lon="1.205620"><ele>48.3</ele></trkpt>
    <trkpt lat="41.145369" lon="1.205569"><ele>48.4</ele></trkpt>
    <trkpt lat="41.145298" lon="1.205612"><ele>49.0</ele></trkpt>
    <trkpt lat="41.145062" lon="1.205891"><ele>51.3</ele></trkpt>
    <trkpt lat="41.144867" lon="1.206032"><ele>52.5</ele></trkpt>
    <trkpt lat="41.144796" lon="1.206075"><ele>53.0</ele></trkpt>
    <trkpt lat="41.144499" lon="1.206087"><ele>52.7</ele></trkpt>
    <trkpt lat="41.144202" lon="1.206099"><ele>52.4</ele></trkpt>
    <trkpt lat="41.144090" lon="1.206032"><ele>51.2</ele></trkpt>
    <trkpt lat="41.144031" lon="1.205958"><ele>50.8</ele></trkpt>
    <trkpt lat="41.143993" lon="1.205863"><ele>50.5</ele></trkpt>
    <trkpt lat="41.143995" lon="1.205722"><ele>49.7</ele></trkpt>
    <trkpt lat="41.144063" lon="1.205499"><ele>48.6</ele></trkpt>
    <trkpt lat="41.144205" lon="1.205040"><ele>47.5</ele></trkpt>
    <trkpt lat="41.144241" lon="1.204883"><ele>47.2</ele></trkpt>
    <trkpt lat="41.144252" lon="1.204757"><ele>47.3</ele></trkpt>
    <trkpt lat="41.144247" lon="1.204530"><ele>47.4</ele></trkpt>
    <trkpt lat="41.144235" lon="1.204243"><ele>48.0</ele></trkpt>
    <trkpt lat="41.144193" lon="1.204078"><ele>47.5</ele></trkpt>
    <trkpt lat="41.144137" lon="1.204030"><ele>47.2</ele></trkpt>
    <trkpt lat="41.144093" lon="1.203759"><ele>47.3</ele></trkpt>
    <trkpt lat="41.144075" lon="1.203431"><ele>47.6</ele></trkpt>
    <trkpt lat="41.144057" lon="1.203103"><ele>48.3</ele></trkpt>
    <trkpt lat="41.144004" lon="1.202596"><ele>49.3</ele></trkpt>
    <trkpt lat="41.143952" lon="1.202089"><ele>49.4</ele></trkpt>
    <trkpt lat="41.143896" lon="1.201755"><ele>49.3</ele></trkpt>
    <trkpt lat="41.143840" lon="1.201422"><ele>49.1</ele></trkpt>
    <trkpt lat="41.143772" lon="1.200999"><ele>49.3</ele></trkpt>
    <trkpt lat="41.143703" lon="1.200576"><ele>49.6</ele></trkpt>
    <trkpt lat="41.143635" lon="1.200153"><ele>50.0</ele></trkpt>
    <trkpt lat="41.143572" lon="1.199654"><ele>50.8</ele></trkpt>
    <trkpt lat="41.143513" lon="1.199349"><ele>51.7</ele></trkpt>
    <trkpt lat="41.143454" lon="1.199043"><ele>52.1</ele></trkpt>
    <trkpt lat="41.143407" lon="1.198705"><ele>52.8</ele></trkpt>
    <trkpt lat="41.143425" lon="1.198584"><ele>53.7</ele></trkpt>
    <trkpt lat="41.143318" lon="1.198109"><ele>54.1</ele></trkpt>
    <trkpt lat="41.143251" lon="1.197605"><ele>55.5</ele></trkpt>
    <trkpt lat="41.143185" lon="1.197298"><ele>56.4</ele></trkpt>
    <trkpt lat="41.143119" lon="1.196991"><ele>56.2</ele></trkpt>
    <trkpt lat="41.143056" lon="1.196624"><ele>56.6</ele></trkpt>
    <trkpt lat="41.142947" lon="1.196146"><ele>57.0</ele></trkpt>
    <trkpt lat="41.142837" lon="1.195668"><ele>58.0</ele></trkpt>
    <trkpt lat="41.142728" lon="1.195191"><ele>58.1</ele></trkpt>
    <trkpt lat="41.142621" lon="1.194812"><ele>58.2</ele></trkpt>
    <trkpt lat="41.142514" lon="1.194434"><ele>59.0</ele></trkpt>
    <trkpt lat="41.142407" lon="1.194056"><ele>59.6</ele></trkpt>
    <trkpt lat="41.142296" lon="1.193654"><ele>61.1</ele></trkpt>
    <trkpt lat="41.142186" lon="1.193253"><ele>63.8</ele></trkpt>
    <trkpt lat="41.142075" lon="1.192851"><ele>64.5</ele></trkpt>
    <trkpt lat="41.142030" lon="1.192508"><ele>62.9</ele></trkpt>
    <trkpt lat="41.141885" lon="1.192080"><ele>61.9</ele></trkpt>
    <trkpt lat="41.141838" lon="1.191938"><ele>61.5</ele></trkpt>
    <trkpt lat="41.141714" lon="1.191561"><ele>61.0</ele></trkpt>
    <trkpt lat="41.141591" lon="1.191184"><ele>60.3</ele></trkpt>
    <trkpt lat="41.141468" lon="1.190807"><ele>59.8</ele></trkpt>
    <trkpt lat="41.141356" lon="1.190622"><ele>59.6</ele></trkpt>
    <trkpt lat="41.141161" lon="1.190233"><ele>59.4</ele></trkpt>
    <trkpt lat="41.140906" lon="1.190057"><ele>58.8</ele></trkpt>
    <trkpt lat="41.140802" lon="1.189943"><ele>58.6</ele></trkpt>
    <trkpt lat="41.140733" lon="1.189777"><ele>58.3</ele></trkpt>
    <trkpt lat="41.140708" lon="1.189510"><ele>58.2</ele></trkpt>
    <trkpt lat="41.140621" lon="1.189077"><ele>58.4</ele></trkpt>
    <trkpt lat="41.140583" lon="1.188884"><ele>58.4</ele></trkpt>
    <trkpt lat="41.140637" lon="1.188715"><ele>59.1</ele></trkpt>
    <trkpt lat="41.140538" lon="1.188316"><ele>58.5</ele></trkpt>
    <trkpt lat="41.140438" lon="1.187917"><ele>58.3</ele></trkpt>
    <trkpt lat="41.140319" lon="1.187604"><ele>58.0</ele></trkpt>
    <trkpt lat="41.140199" lon="1.187292"><ele>57.4</ele></trkpt>
    <trkpt lat="41.139972" lon="1.186780"><ele>57.4</ele></trkpt>
    <trkpt lat="41.139744" lon="1.186268"><ele>57.2</ele></trkpt>
    <trkpt lat="41.139509" lon="1.185797"><ele>55.2</ele></trkpt>
    <trkpt lat="41.139177" lon="1.185865"><ele>55.5</ele></trkpt>
    <trkpt lat="41.138845" lon="1.185934"><ele>55.1</ele></trkpt>
    <trkpt lat="41.138721" lon="1.185957"><ele>55.2</ele></trkpt>
    <trkpt lat="41.138629" lon="1.185934"><ele>55.2</ele></trkpt>
    <trkpt lat="41.138426" lon="1.185737"><ele>54.9</ele></trkpt>
    <trkpt lat="41.138223" lon="1.185540"><ele>54.7</ele></trkpt>
    <trkpt lat="41.138183" lon="1.185503"><ele>54.6</ele></trkpt>
    <trkpt lat="41.137997" lon="1.185332"><ele>54.4</ele></trkpt>
    <trkpt lat="41.137771" lon="1.185123"><ele>54.2</ele></trkpt>
    <trkpt lat="41.137496" lon="1.184820"><ele>53.8</ele></trkpt>
    <trkpt lat="41.137221" lon="1.184516"><ele>53.5</ele></trkpt>
    <trkpt lat="41.136968" lon="1.184370"><ele>53.1</ele></trkpt>
    <trkpt lat="41.136831" lon="1.184427"><ele>52.8</ele></trkpt>
    <trkpt lat="41.136470" lon="1.184569"><ele>52.8</ele></trkpt>
    <trkpt lat="41.136110" lon="1.184712"><ele>52.4</ele></trkpt>
    <trkpt lat="41.135932" lon="1.184735"><ele>52.2</ele></trkpt>
    <trkpt lat="41.135660" lon="1.184749"><ele>51.8</ele></trkpt>
    <trkpt lat="41.135453" lon="1.184692"><ele>51.2</ele></trkpt>
    <trkpt lat="41.135146" lon="1.184516"><ele>50.9</ele></trkpt>
    <trkpt lat="41.134958" lon="1.184424"><ele>50.6</ele></trkpt>
    <trkpt lat="41.134658" lon="1.184332"><ele>50.6</ele></trkpt>
    <trkpt lat="41.134417" lon="1.184318"><ele>50.0</ele></trkpt>
    <trkpt lat="41.134322" lon="1.184338"><ele>49.8</ele></trkpt>
    <trkpt lat="41.134288" lon="1.184357"><ele>50.1</ele></trkpt>
    <trkpt lat="41.134219" lon="1.184396"><ele>50.3</ele></trkpt>
    <trkpt lat="41.134192" lon="1.184422"><ele>50.5</ele></trkpt>
    <trkpt lat="41.134172" lon="1.184441"><ele>50.7</ele></trkpt>
    <trkpt lat="41.134150" lon="1.184454"><ele>50.8</ele></trkpt>
    <trkpt lat="41.134131" lon="1.184458"><ele>50.9</ele></trkpt>
    <trkpt lat="41.134102" lon="1.184455"><ele>51.0</ele></trkpt>
    <trkpt lat="41.134082" lon="1.184443"><ele>51.0</ele></trkpt>
    <trkpt lat="41.134069" lon="1.184426"><ele>50.9</ele></trkpt>
    <trkpt lat="41.134059" lon="1.184403"><ele>50.9</ele></trkpt>
    <trkpt lat="41.134052" lon="1.184355"><ele>50.7</ele></trkpt>
    <trkpt lat="41.134053" lon="1.184329"><ele>50.7</ele></trkpt>
    <trkpt lat="41.134061" lon="1.184268"><ele>50.6</ele></trkpt>
    <trkpt lat="41.134104" lon="1.184030"><ele>49.9</ele></trkpt>
    <trkpt lat="41.134120" lon="1.183960"><ele>49.6</ele></trkpt>
    <trkpt lat="41.134130" lon="1.183885"><ele>49.3</ele></trkpt>
    <trkpt lat="41.134130" lon="1.183804"><ele>49.1</ele></trkpt>
    <trkpt lat="41.134121" lon="1.183720"><ele>48.8</ele></trkpt>
    <trkpt lat="41.134108" lon="1.183651"><ele>48.5</ele></trkpt>
    <trkpt lat="41.134084" lon="1.183575"><ele>48.2</ele></trkpt>
    <trkpt lat="41.134059" lon="1.183522"><ele>48.0</ele></trkpt>
    <trkpt lat="41.134028" lon="1.183466"><ele>47.8</ele></trkpt>
    <trkpt lat="41.133988" lon="1.183408"><ele>47.5</ele></trkpt>
    <trkpt lat="41.133949" lon="1.183362"><ele>47.4</ele></trkpt>
    <trkpt lat="41.133891" lon="1.183313"><ele>46.9</ele></trkpt>
    <trkpt lat="41.133832" lon="1.183278"><ele>46.7</ele></trkpt>
    <trkpt lat="41.133508" lon="1.183113"><ele>46.6</ele></trkpt>
    <trkpt lat="41.133259" lon="1.182988"><ele>45.6</ele></trkpt>
    <trkpt lat="41.133010" lon="1.182863"><ele>44.6</ele></trkpt>
    <trkpt lat="41.132898" lon="1.182809"><ele>44.8</ele></trkpt>
    <trkpt lat="41.132631" lon="1.182675"><ele>45.3</ele></trkpt>
    <trkpt lat="41.132364" lon="1.182541"><ele>46.0</ele></trkpt>
    <trkpt lat="41.132150" lon="1.182513"><ele>46.4</ele></trkpt>
    <trkpt lat="41.132000" lon="1.182538"><ele>46.4</ele></trkpt>
    <trkpt lat="41.131939" lon="1.182573"><ele>46.3</ele></trkpt>
    <trkpt lat="41.131872" lon="1.182581"><ele>46.2</ele></trkpt>
    <trkpt lat="41.131807" lon="1.182562"><ele>46.2</ele></trkpt>
    <trkpt lat="41.131748" lon="1.182512"><ele>46.3</ele></trkpt>
    <trkpt lat="41.131707" lon="1.182449"><ele>46.3</ele></trkpt>
    <trkpt lat="41.131693" lon="1.182406"><ele>46.4</ele></trkpt>
    <trkpt lat="41.131681" lon="1.182367"><ele>46.4</ele></trkpt>
    <trkpt lat="41.131654" lon="1.182292"><ele>46.4</ele></trkpt>
    <trkpt lat="41.131619" lon="1.182240"><ele>46.4</ele></trkpt>
    <trkpt lat="41.131578" lon="1.182193"><ele>46.3</ele></trkpt>
    <trkpt lat="41.131507" lon="1.182129"><ele>46.2</ele></trkpt>
    <trkpt lat="41.131403" lon="1.182065"><ele>46.0</ele></trkpt>
    <trkpt lat="41.130995" lon="1.181859"><ele>44.9</ele></trkpt>
    <trkpt lat="41.130587" lon="1.181653"><ele>44.5</ele></trkpt>
    <trkpt lat="41.130509" lon="1.181602"><ele>44.6</ele></trkpt>
    <trkpt lat="41.130457" lon="1.181547"><ele>44.5</ele></trkpt>
    <trkpt lat="41.130415" lon="1.181483"><ele>44.4</ele></trkpt>
    <trkpt lat="41.130379" lon="1.181398"><ele>44.4</ele></trkpt>
    <trkpt lat="41.130354" lon="1.181292"><ele>44.3</ele></trkpt>
    <trkpt lat="41.130347" lon="1.181198"><ele>44.3</ele></trkpt>
    <trkpt lat="41.130354" lon="1.181089"><ele>44.3</ele></trkpt>
    <trkpt lat="41.130386" lon="1.180970"><ele>44.1</ele></trkpt>
    <trkpt lat="41.130491" lon="1.180580"><ele>44.0</ele></trkpt>
    <trkpt lat="41.130512" lon="1.180475"><ele>44.0</ele></trkpt>
    <trkpt lat="41.130522" lon="1.180411"><ele>44.0</ele></trkpt>
    <trkpt lat="41.130508" lon="1.180305"><ele>43.9</ele></trkpt>
    <trkpt lat="41.130481" lon="1.180195"><ele>43.8</ele></trkpt>
    <trkpt lat="41.130455" lon="1.180132"><ele>43.8</ele></trkpt>
    <trkpt lat="41.130423" lon="1.180075"><ele>43.9</ele></trkpt>
    <trkpt lat="41.130388" lon="1.180026"><ele>44.0</ele></trkpt>
    <trkpt lat="41.130318" lon="1.179950"><ele>44.2</ele></trkpt>
    <trkpt lat="41.130268" lon="1.179920"><ele>44.3</ele></trkpt>
    <trkpt lat="41.130227" lon="1.179872"><ele>44.5</ele></trkpt>
    <trkpt lat="41.130200" lon="1.179809"><ele>44.6</ele></trkpt>
    <trkpt lat="41.130134" lon="1.179716"><ele>44.8</ele></trkpt>
    <trkpt lat="41.130096" lon="1.179683"><ele>45.0</ele></trkpt>
    <trkpt lat="41.130052" lon="1.179657"><ele>45.3</ele></trkpt>
    <trkpt lat="41.129922" lon="1.179601"><ele>46.2</ele></trkpt>
    <trkpt lat="41.129658" lon="1.179540"><ele>47.5</ele></trkpt>
    <trkpt lat="41.129393" lon="1.179479"><ele>48.0</ele></trkpt>
    <trkpt lat="41.128972" lon="1.179382"><ele>48.3</ele></trkpt>
    <trkpt lat="41.128547" lon="1.179288"><ele>44.7</ele></trkpt>
    <trkpt lat="41.128327" lon="1.179250"><ele>42.7</ele></trkpt>
    <trkpt lat="41.128124" lon="1.179190"><ele>41.6</ele></trkpt>
    <trkpt lat="41.128088" lon="1.179172"><ele>41.5</ele></trkpt>
    <trkpt lat="41.128049" lon="1.179147"><ele>41.4</ele></trkpt>
    <trkpt lat="41.128027" lon="1.179138"><ele>41.3</ele></trkpt>
    <trkpt lat="41.127949" lon="1.179115"><ele>41.0</ele></trkpt>
    <trkpt lat="41.127925" lon="1.179108"><ele>40.8</ele></trkpt>
    <trkpt lat="41.127901" lon="1.179111"><ele>40.7</ele></trkpt>
    <trkpt lat="41.127529" lon="1.179050"><ele>39.8</ele></trkpt>
    <trkpt lat="41.127418" lon="1.179019"><ele>39.7</ele></trkpt>
    <trkpt lat="41.127244" lon="1.178978"><ele>39.8</ele></trkpt>
    <trkpt lat="41.126943" lon="1.178909"><ele>40.1</ele></trkpt>
    <trkpt lat="41.126822" lon="1.178880"><ele>40.3</ele></trkpt>
    <trkpt lat="41.126505" lon="1.178807"><ele>40.9</ele></trkpt>
    <trkpt lat="41.126424" lon="1.178788"><ele>41.0</ele></trkpt>
    <trkpt lat="41.126136" lon="1.178721"><ele>41.4</ele></trkpt>
    <trkpt lat="41.126089" lon="1.178710"><ele>41.5</ele></trkpt>
    <trkpt lat="41.125988" lon="1.178685"><ele>41.5</ele></trkpt>
    <trkpt lat="41.125668" lon="1.178612"><ele>41.8</ele></trkpt>
    <trkpt lat="41.125261" lon="1.178534"><ele>42.0</ele></trkpt>
    <trkpt lat="41.124853" lon="1.178456"><ele>42.2</ele></trkpt>
    <trkpt lat="41.124445" lon="1.178378"><ele>42.4</ele></trkpt>
    <trkpt lat="41.124293" lon="1.178355"><ele>42.5</ele></trkpt>
    <trkpt lat="41.124152" lon="1.178348"><ele>42.9</ele></trkpt>
    <trkpt lat="41.123802" lon="1.178339"><ele>44.0</ele></trkpt>
    <trkpt lat="41.123712" lon="1.178340"><ele>44.1</ele></trkpt>
    <trkpt lat="41.123721" lon="1.177902"><ele>40.5</ele></trkpt>
    <trkpt lat="41.123729" lon="1.177465"><ele>38.3</ele></trkpt>
    <trkpt lat="41.123778" lon="1.176930"><ele>36.6</ele></trkpt>
    <trkpt lat="41.123809" lon="1.176352"><ele>35.4</ele></trkpt>
    <trkpt lat="41.123840" lon="1.175996"><ele>35.0</ele></trkpt>
    <trkpt lat="41.123855" lon="1.175836"><ele>34.9</ele></trkpt>
    <trkpt lat="41.123863" lon="1.175764"><ele>34.9</ele></trkpt>
    <trkpt lat="41.123904" lon="1.175585"><ele>35.1</ele></trkpt>
    <trkpt lat="41.123998" lon="1.175302"><ele>35.1</ele></trkpt>
    <trkpt lat="41.124118" lon="1.175029"><ele>35.3</ele></trkpt>
    <trkpt lat="41.124315" lon="1.174682"><ele>35.4</ele></trkpt>
    <trkpt lat="41.124413" lon="1.174473"><ele>35.4</ele></trkpt>
    <trkpt lat="41.124517" lon="1.174219"><ele>35.4</ele></trkpt>
    <trkpt lat="41.124664" lon="1.173823"><ele>35.8</ele></trkpt>
    <trkpt lat="41.124695" lon="1.173668"><ele>36.0</ele></trkpt>
    <trkpt lat="41.124685" lon="1.173533"><ele>36.1</ele></trkpt>
    <trkpt lat="41.124643" lon="1.173451"><ele>36.5</ele></trkpt>
    <trkpt lat="41.124572" lon="1.173387"><ele>36.5</ele></trkpt>
    <trkpt lat="41.124383" lon="1.173295"><ele>35.8</ele></trkpt>
    <trkpt lat="41.124243" lon="1.173212"><ele>34.5</ele></trkpt>
    <trkpt lat="41.124180" lon="1.173140"><ele>34.2</ele></trkpt>
    <trkpt lat="41.124065" lon="1.173039"><ele>34.5</ele></trkpt>
    <trkpt lat="41.123979" lon="1.172923"><ele>35.6</ele></trkpt>
    <trkpt lat="41.123823" lon="1.172644"><ele>35.3</ele></trkpt>
    <trkpt lat="41.123711" lon="1.172476"><ele>35.5</ele></trkpt>
    <trkpt lat="41.123649" lon="1.172412"><ele>35.5</ele></trkpt>
    <trkpt lat="41.123529" lon="1.172324"><ele>35.7</ele></trkpt>
    <trkpt lat="41.123352" lon="1.172186"><ele>35.8</ele></trkpt>
    <trkpt lat="41.123226" lon="1.172062"><ele>36.1</ele></trkpt>
    <trkpt lat="41.123097" lon="1.171903"><ele>36.6</ele></trkpt>
    <trkpt lat="41.122977" lon="1.171751"><ele>36.6</ele></trkpt>
    <trkpt lat="41.122861" lon="1.171630"><ele>36.2</ele></trkpt>
    <trkpt lat="41.122780" lon="1.171589"><ele>36.1</ele></trkpt>
    <trkpt lat="41.122668" lon="1.171539"><ele>35.8</ele></trkpt>
    <trkpt lat="41.122516" lon="1.171476"><ele>35.2</ele></trkpt>
    <trkpt lat="41.122431" lon="1.171412"><ele>34.9</ele></trkpt>
    <trkpt lat="41.122383" lon="1.171352"><ele>34.8</ele></trkpt>
    <trkpt lat="41.122327" lon="1.171258"><ele>34.7</ele></trkpt>
    <trkpt lat="41.122213" lon="1.171024"><ele>34.4</ele></trkpt>
    <trkpt lat="41.122130" lon="1.170903"><ele>34.1</ele></trkpt>
    <trkpt lat="41.121962" lon="1.170647"><ele>34.1</ele></trkpt>
    <trkpt lat="41.121861" lon="1.170503"><ele>34.3</ele></trkpt>
    <trkpt lat="41.121780" lon="1.170440"><ele>34.6</ele></trkpt>
    <trkpt lat="41.121581" lon="1.170289"><ele>35.2</ele></trkpt>
    <trkpt lat="41.121383" lon="1.170137"><ele>36.3</ele></trkpt>
    <trkpt lat="41.121309" lon="1.170052"><ele>35.9</ele></trkpt>
    <trkpt lat="41.121246" lon="1.169911"><ele>35.0</ele></trkpt>
    <trkpt lat="41.121122" lon="1.169570"><ele>33.6</ele></trkpt>
    <trkpt lat="41.121014" lon="1.169286"><ele>33.2</ele></trkpt>
    <trkpt lat="41.120943" lon="1.169030"><ele>32.5</ele></trkpt>
    <trkpt lat="41.120862" lon="1.168644"><ele>31.7</ele></trkpt>
    <trkpt lat="41.120829" lon="1.168457"><ele>31.4</ele></trkpt>
    <trkpt lat="41.120815" lon="1.168347"><ele>31.4</ele></trkpt>
    <trkpt lat="41.120765" lon="1.168225"><ele>31.4</ele></trkpt>
    <trkpt lat="41.120558" lon="1.167848"><ele>31.7</ele></trkpt>
    <trkpt lat="41.120352" lon="1.167471"><ele>32.1</ele></trkpt>
    <trkpt lat="41.120120" lon="1.167096"><ele>32.4</ele></trkpt>
    <trkpt lat="41.119896" lon="1.166765"><ele>33.5</ele></trkpt>
    <trkpt lat="41.119702" lon="1.166512"><ele>34.7</ele></trkpt>
    <trkpt lat="41.119601" lon="1.166349"><ele>34.9</ele></trkpt>
    <trkpt lat="41.119553" lon="1.166212"><ele>35.1</ele></trkpt>
    <trkpt lat="41.119524" lon="1.166060"><ele>34.8</ele></trkpt>
    <trkpt lat="41.119482" lon="1.165669"><ele>34.7</ele></trkpt>
    <trkpt lat="41.119443" lon="1.165416"><ele>34.8</ele></trkpt>
    <trkpt lat="41.119370" lon="1.165038"><ele>34.8</ele></trkpt>
    <trkpt lat="41.119330" lon="1.164849"><ele>34.8</ele></trkpt>
    <trkpt lat="41.119292" lon="1.164667"><ele>34.9</ele></trkpt>
    <trkpt lat="41.119229" lon="1.164496"><ele>35.0</ele></trkpt>
    <trkpt lat="41.119163" lon="1.164374"><ele>35.0</ele></trkpt>
    <trkpt lat="41.119054" lon="1.164240"><ele>35.0</ele></trkpt>
    <trkpt lat="41.119039" lon="1.164220"><ele>35.0</ele></trkpt>
    <trkpt lat="41.118898" lon="1.164011"><ele>35.1</ele></trkpt>
    <trkpt lat="41.118828" lon="1.163875"><ele>35.2</ele></trkpt>
    <trkpt lat="41.118727" lon="1.163599"><ele>34.5</ele></trkpt>
    <trkpt lat="41.118664" lon="1.163412"><ele>35.3</ele></trkpt>
    <trkpt lat="41.118495" lon="1.162947"><ele>35.7</ele></trkpt>
    <trkpt lat="41.118456" lon="1.162816"><ele>35.4</ele></trkpt>
    <trkpt lat="41.118417" lon="1.162686"><ele>35.7</ele></trkpt>
    <trkpt lat="41.118398" lon="1.162608"><ele>35.8</ele></trkpt>
    <trkpt lat="41.118377" lon="1.162569"><ele>35.9</ele></trkpt>
    <trkpt lat="41.118356" lon="1.162513"><ele>35.8</ele></trkpt>
    <trkpt lat="41.118286" lon="1.162358"><ele>35.6</ele></trkpt>
    <trkpt lat="41.118211" lon="1.162192"><ele>35.5</ele></trkpt>
    <trkpt lat="41.118115" lon="1.161901"><ele>35.8</ele></trkpt>
    <trkpt lat="41.118010" lon="1.161691"><ele>36.5</ele></trkpt>
    <trkpt lat="41.117766" lon="1.161199"><ele>37.7</ele></trkpt>
    <trkpt lat="41.117522" lon="1.160707"><ele>38.3</ele></trkpt>
    <trkpt lat="41.117339" lon="1.160333"><ele>37.6</ele></trkpt>
    <trkpt lat="41.117157" lon="1.159959"><ele>37.4</ele></trkpt>
    <trkpt lat="41.116974" lon="1.159584"><ele>37.4</ele></trkpt>
    <trkpt lat="41.116789" lon="1.159252"><ele>37.2</ele></trkpt>
    <trkpt lat="41.116603" lon="1.158919"><ele>36.5</ele></trkpt>
    <trkpt lat="41.116405" lon="1.158455"><ele>36.2</ele></trkpt>
    <trkpt lat="41.116212" lon="1.158033"><ele>36.4</ele></trkpt>
    <trkpt lat="41.116019" lon="1.157611"><ele>36.6</ele></trkpt>
    <trkpt lat="41.115998" lon="1.157497"><ele>36.9</ele></trkpt>
    <trkpt lat="41.116177" lon="1.157295"><ele>37.0</ele></trkpt>
  </trkseg></trk></gpx>