<?xml version="1.0" encoding="UTF-8" standalone="yes"?>
<gpx version="1.1" creator="outdooractive - http://www.outdooractive.com" xmlns="http://www.topografix.com/GPX/1/1" xmlns:oa="http://www.outdooractive.com/GPX/Extensions/1" xmlns:xsi="http://www.w3.org/2001/XMLSchema-instance" xsi:schemaLocation="http://www.topografix.com/GPX/1/1 http://www.topografix.com/GPX/1/1/gpx.xsd http://www.outdooractive.com/GPX/Extensions/1 https://www.outdooractive.com/schema/gpx_extensions.xsd">
  <metadata>
    <name>GR92 E31Amposta-la Ràpita</name>
    <author>
      <name>Jari Tossavainen - Community</name>
    </author>
    <link href="https://www.outdooractive.com/r/353458155"/>
    <time>2026-09-21T12:05:47.994Z</time>
    <extensions>
      <oa:oaCategory>longDistanceHikingTrail</oa:oaCategory>
    </extensions>
  </metadata>
  <trk>
    <name>GR92 E31Amposta-la Ràpita</name>
    <type>longDistanceHikingTrail</type>
    <trkseg>
      <trkpt lat="40.712791" lon="0.58336">
        <ele>4.8</ele>
        <name>Pl. de la Pau, Amposta, Montsià</name>
        <extensions>
          <oa:Extension>
            <oa:mapZoom>17</oa:mapZoom>
          </oa:Extension>
        </extensions>
      </trkpt>
      <trkpt lat="40.712747" lon="0.583461">
        <ele>4.9</ele>
      </trkpt>
      <trkpt lat="40.712675" lon="0.583594">
        <ele>5.0</ele>
      </trkpt>
      <trkpt lat="40.712646" lon="0.583649">
        <ele>5.1</ele>
      </trkpt>
      <trkpt lat="40.712568" lon="0.583775">
        <ele>5.4</ele>
      </trkpt>
      <trkpt lat="40.712498" lon="0.583868">
        <ele>5.5</ele>
      </trkpt>
      <trkpt lat="40.712285" lon="0.584105">
        <ele>5.4</ele>
      </trkpt>
      <trkpt lat="40.712155" lon="0.584244">
        <ele>5.2</ele>
      </trkpt>
      <trkpt lat="40.711934" lon="0.584503">
        <ele>5.1</ele>
      </trkpt>
      <trkpt lat="40.711897" lon="0.584547">
        <ele>5.0</ele>
      </trkpt>
      <trkpt lat="40.711737" lon="0.584728">
        <ele>4.8</ele>
      </trkpt>
      <trkpt lat="40.711661" lon="0.584815">
        <ele>4.8</ele>
      </trkpt>
      <trkpt lat="40.711631" lon="0.584849">
        <ele>4.8</ele>
      </trkpt>
      <trkpt lat="40.711518" lon="0.584977">
        <ele>4.7</ele>
      </trkpt>
      <trkpt lat="40.711412" lon="0.585096">
        <ele>4.8</ele>
      </trkpt>
      <trkpt lat="40.711302" lon="0.585221">
        <ele>4.7</ele>
      </trkpt>
      <trkpt lat="40.711131" lon="0.585416">
        <ele>4.6</ele>
      </trkpt>
      <trkpt lat="40.711078" lon="0.585468">
        <ele>4.6</ele>
      </trkpt>
      <trkpt lat="40.710851" lon="0.58569">
        <ele>4.6</ele>
      </trkpt>
      <trkpt lat="40.710626" lon="0.585912">
        <ele>4.7</ele>
      </trkpt>
      <trkpt lat="40.710401" lon="0.586133">
        <ele>4.7</ele>
      </trkpt>
      <trkpt lat="40.710293" lon="0.586239">
        <ele>4.7</ele>
      </trkpt>
      <trkpt lat="40.710033" lon="0.586552">
        <ele>4.6</ele>
      </trkpt>
      <trkpt lat="40.709773" lon="0.586866">
        <ele>4.6</ele>
      </trkpt>
      <trkpt lat="40.709512" lon="0.587179">
        <ele>4.7</ele>
      </trkpt>
      <trkpt lat="40.709437" lon="0.587275">
        <ele>4.8</ele>
      </trkpt>
      <trkpt lat="40.709196" lon="0.587676">
        <ele>4.9</ele>
      </trkpt>
      <trkpt lat="40.709079" lon="0.587618">
        <ele>5.1</ele>
      </trkpt>
      <trkpt lat="40.70903" lon="0.58759">
        <ele>5.2</ele>
      </trkpt>
      <trkpt lat="40.70898" lon="0.587556">
        <ele>4.3</ele>
      </trkpt>
      <trkpt lat="40.708854" lon="0.587478">
        <ele>4.6</ele>
      </trkpt>
      <trkpt lat="40.70883" lon="0.587464">
        <ele>5.3</ele>
      </trkpt>
      <trkpt lat="40.708655" lon="0.587824">
        <ele>4.9</ele>
        <name>Canal de la Dreta de l&apos;Ebre, Amposta, Montsià</name>
        <extensions>
          <oa:Extension>
            <oa:mapZoom>15</oa:mapZoom>
          </oa:Extension>
        </extensions>
      </trkpt>
      <trkpt lat="40.708649" lon="0.587837">
        <ele>4.9</ele>
      </trkpt>
      <trkpt lat="40.708452" lon="0.588157">
        <ele>4.9</ele>
      </trkpt>
      <trkpt lat="40.708241" lon="0.588453">
        <ele>4.8</ele>
      </trkpt>
      <trkpt lat="40.708057" lon="0.588722">
        <ele>5.0</ele>
      </trkpt>
      <trkpt lat="40.707896" lon="0.588851">
        <ele>6.2</ele>
      </trkpt>
      <trkpt lat="40.707676" lon="0.589172">
        <ele>5.2</ele>
      </trkpt>
      <trkpt lat="40.707455" lon="0.589494">
        <ele>4.5</ele>
      </trkpt>
      <trkpt lat="40.707212" lon="0.589872">
        <ele>4.9</ele>
      </trkpt>
      <trkpt lat="40.706954" lon="0.590346">
        <ele>6.3</ele>
      </trkpt>
      <trkpt lat="40.706898" lon="0.590461">
        <ele>5.8</ele>
      </trkpt>
      <trkpt lat="40.706761" lon="0.59074">
        <ele>5.1</ele>
      </trkpt>
      <trkpt lat="40.706688" lon="0.590882">
        <ele>5.1</ele>
      </trkpt>
      <trkpt lat="40.70661" lon="0.591007">
        <ele>4.9</ele>
      </trkpt>
      <trkpt lat="40.706462" lon="0.59122">
        <ele>5.4</ele>
      </trkpt>
      <trkpt lat="40.706433" lon="0.591261">
        <ele>5.5</ele>
      </trkpt>
      <trkpt lat="40.706364" lon="0.591169">
        <ele>5.2</ele>
      </trkpt>
      <trkpt lat="40.706307" lon="0.591094">
        <ele>5.1</ele>
      </trkpt>
      <trkpt lat="40.70621" lon="0.590986">
        <ele>4.8</ele>
      </trkpt>
      <trkpt lat="40.706081" lon="0.590849">
        <ele>4.5</ele>
      </trkpt>
      <trkpt lat="40.705942" lon="0.590724">
        <ele>4.3</ele>
      </trkpt>
      <trkpt lat="40.705547" lon="0.590448">
        <ele>4.0</ele>
      </trkpt>
      <trkpt lat="40.705151" lon="0.590171">
        <ele>4.1</ele>
      </trkpt>
      <trkpt lat="40.704756" lon="0.589895">
        <ele>3.9</ele>
      </trkpt>
      <trkpt lat="40.704361" lon="0.589619">
        <ele>4.0</ele>
      </trkpt>
      <trkpt lat="40.704281" lon="0.589557">
        <ele>4.0</ele>
      </trkpt>
      <trkpt lat="40.704044" lon="0.589632">
        <ele>3.9</ele>
      </trkpt>
      <trkpt lat="40.703987" lon="0.589664">
        <ele>3.9</ele>
      </trkpt>
      <trkpt lat="40.703954" lon="0.589683">
        <ele>3.9</ele>
      </trkpt>
      <trkpt lat="40.703821" lon="0.589761">
        <ele>3.9</ele>
      </trkpt>
      <trkpt lat="40.703749" lon="0.589816">
        <ele>3.8</ele>
      </trkpt>
      <trkpt lat="40.703674" lon="0.589857">
        <ele>3.8</ele>
      </trkpt>
      <trkpt lat="40.703642" lon="0.589812">
        <ele>3.7</ele>
      </trkpt>
      <trkpt lat="40.703579" lon="0.589764">
        <ele>3.7</ele>
      </trkpt>
      <trkpt lat="40.703512" lon="0.589736">
        <ele>3.7</ele>
      </trkpt>
      <trkpt lat="40.703443" lon="0.589719">
        <ele>3.6</ele>
      </trkpt>
      <trkpt lat="40.70303" lon="0.589789">
        <ele>3.3</ele>
      </trkpt>
      <trkpt lat="40.702618" lon="0.58986">
        <ele>3.6</ele>
      </trkpt>
      <trkpt lat="40.702251" lon="0.590015">
        <ele>3.7</ele>
      </trkpt>
      <trkpt lat="40.701883" lon="0.59017">
        <ele>3.7</ele>
      </trkpt>
      <trkpt lat="40.701516" lon="0.590325">
        <ele>3.6</ele>
      </trkpt>
      <trkpt lat="40.701149" lon="0.590479">
        <ele>3.5</ele>
      </trkpt>
      <trkpt lat="40.700897" lon="0.590594">
        <ele>3.4</ele>
        <name>Camí de Vigos, Amposta, Montsià</name>
        <extensions>
          <oa:Extension>
            <oa:mapZoom>16</oa:mapZoom>
          </oa:Extension>
        </extensions>
      </trkpt>
      <trkpt lat="40.700853" lon="0.590615">
        <ele>3.4</ele>
      </trkpt>
      <trkpt lat="40.700558" lon="0.59075">
        <ele>3.4</ele>
      </trkpt>
      <trkpt lat="40.700262" lon="0.590885">
        <ele>3.2</ele>
      </trkpt>
      <trkpt lat="40.699984" lon="0.591003">
        <ele>3.2</ele>
      </trkpt>
      <trkpt lat="40.699853" lon="0.591065">
        <ele>3.2</ele>
      </trkpt>
      <trkpt lat="40.699722" lon="0.591144">
        <ele>3.2</ele>
      </trkpt>
      <trkpt lat="40.699475" lon="0.591417">
        <ele>3.1</ele>
      </trkpt>
      <trkpt lat="40.699229" lon="0.59169">
        <ele>2.8</ele>
      </trkpt>
      <trkpt lat="40.698958" lon="0.59199">
        <ele>2.8</ele>
      </trkpt>
      <trkpt lat="40.698688" lon="0.59229">
        <ele>2.8</ele>
      </trkpt>
      <trkpt lat="40.698408" lon="0.592623">
        <ele>2.7</ele>
      </trkpt>
      <trkpt lat="40.698128" lon="0.592955">
        <ele>2.6</ele>
      </trkpt>
      <trkpt lat="40.698062" lon="0.593035">
        <ele>2.7</ele>
      </trkpt>
      <trkpt lat="40.697839" lon="0.593338">
        <ele>2.6</ele>
      </trkpt>
      <trkpt lat="40.697615" lon="0.593641">
        <ele>2.6</ele>
      </trkpt>
      <trkpt lat="40.697392" lon="0.593944">
        <ele>2.4</ele>
      </trkpt>
      <trkpt lat="40.697148" lon="0.594323">
        <ele>2.4</ele>
      </trkpt>
      <trkpt lat="40.696904" lon="0.594701">
        <ele>2.1</ele>
      </trkpt>
      <trkpt lat="40.696659" lon="0.59508">
        <ele>2.1</ele>
      </trkpt>
      <trkpt lat="40.696422" lon="0.595443">
        <ele>2.0</ele>
      </trkpt>
      <trkpt lat="40.696185" lon="0.595805">
        <ele>2.1</ele>
      </trkpt>
      <trkpt lat="40.695978" lon="0.596182">
        <ele>2.0</ele>
      </trkpt>
      <trkpt lat="40.695921" lon="0.596255">
        <ele>1.9</ele>
      </trkpt>
      <trkpt lat="40.695852" lon="0.596318">
        <ele>1.7</ele>
      </trkpt>
      <trkpt lat="40.695702" lon="0.596366">
        <ele>1.7</ele>
      </trkpt>
      <trkpt lat="40.695269" lon="0.596509">
        <ele>1.8</ele>
      </trkpt>
      <trkpt lat="40.694836" lon="0.596651">
        <ele>1.7</ele>
      </trkpt>
      <trkpt lat="40.694403" lon="0.596793">
        <ele>1.7</ele>
      </trkpt>
      <trkpt lat="40.693969" lon="0.596935">
        <ele>1.6</ele>
      </trkpt>
      <trkpt lat="40.693571" lon="0.597059">
        <ele>1.6</ele>
      </trkpt>
      <trkpt lat="40.693172" lon="0.597183">
        <ele>1.6</ele>
      </trkpt>
      <trkpt lat="40.692773" lon="0.597307">
        <ele>1.6</ele>
      </trkpt>
      <trkpt lat="40.692374" lon="0.597431">
        <ele>1.1</ele>
      </trkpt>
      <trkpt lat="40.691975" lon="0.597555">
        <ele>1.5</ele>
      </trkpt>
      <trkpt lat="40.691576" lon="0.597679">
        <ele>1.6</ele>
      </trkpt>
      <trkpt lat="40.691169" lon="0.597808">
        <ele>1.3</ele>
      </trkpt>
      <trkpt lat="40.690762" lon="0.597936">
        <ele>1.3</ele>
      </trkpt>
      <trkpt lat="40.690355" lon="0.598065">
        <ele>1.2</ele>
      </trkpt>
      <trkpt lat="40.689948" lon="0.598193">
        <ele>1.2</ele>
      </trkpt>
      <trkpt lat="40.689541" lon="0.598321">
        <ele>1.2</ele>
      </trkpt>
      <trkpt lat="40.689134" lon="0.59845">
        <ele>1.0</ele>
      </trkpt>
      <trkpt lat="40.688807" lon="0.598556">
        <ele>1.0</ele>
      </trkpt>
      <trkpt lat="40.688479" lon="0.598663">
        <ele>1.2</ele>
      </trkpt>
      <trkpt lat="40.688152" lon="0.598769">
        <ele>1.6</ele>
      </trkpt>
      <trkpt lat="40.688122" lon="0.598785">
        <ele>1.6</ele>
      </trkpt>
      <trkpt lat="40.687974" lon="0.598863">
        <ele>1.3</ele>
      </trkpt>
      <trkpt lat="40.687569" lon="0.598979">
        <ele>1.4</ele>
      </trkpt>
      <trkpt lat="40.687164" lon="0.599095">
        <ele>1.3</ele>
      </trkpt>
      <trkpt lat="40.686814" lon="0.599162">
        <ele>1.2</ele>
      </trkpt>
      <trkpt lat="40.686464" lon="0.599229">
        <ele>1.3</ele>
      </trkpt>
      <trkpt lat="40.686114" lon="0.599296">
        <ele>1.2</ele>
      </trkpt>
      <trkpt lat="40.685743" lon="0.599366">
        <ele>1.4</ele>
      </trkpt>
      <trkpt lat="40.685373" lon="0.599437">
        <ele>1.3</ele>
      </trkpt>
      <trkpt lat="40.685003" lon="0.599507">
        <ele>1.4</ele>
      </trkpt>
      <trkpt lat="40.684633" lon="0.599577">
        <ele>1.4</ele>
      </trkpt>
      <trkpt lat="40.684244" lon="0.599683">
        <ele>1.3</ele>
      </trkpt>
      <trkpt lat="40.683928" lon="0.599816">
        <ele>1.5</ele>
      </trkpt>
      <trkpt lat="40.683611" lon="0.599948">
        <ele>1.8</ele>
      </trkpt>
      <trkpt lat="40.683409" lon="0.60002">
        <ele>2.0</ele>
      </trkpt>
      <trkpt lat="40.683403" lon="0.599971">
        <ele>2.0</ele>
      </trkpt>
      <trkpt lat="40.683395" lon="0.599906">
        <ele>1.8</ele>
      </trkpt>
      <trkpt lat="40.683392" lon="0.599884">
        <ele>2.0</ele>
      </trkpt>
      <trkpt lat="40.68339" lon="0.59987">
        <ele>2.1</ele>
      </trkpt>
      <trkpt lat="40.683382" lon="0.599807">
        <ele>2.2</ele>
      </trkpt>
      <trkpt lat="40.683382" lon="0.5998">
        <ele>2.2</ele>
      </trkpt>
      <trkpt lat="40.683378" lon="0.599774">
        <ele>1.9</ele>
      </trkpt>
      <trkpt lat="40.683369" lon="0.599697">
        <ele>0.3</ele>
      </trkpt>
      <trkpt lat="40.683357" lon="0.599601">
        <ele>0.8</ele>
      </trkpt>
      <trkpt lat="40.683308" lon="0.599229">
        <ele>1.1</ele>
      </trkpt>
      <trkpt lat="40.68326" lon="0.598856">
        <ele>0.9</ele>
      </trkpt>
      <trkpt lat="40.683194" lon="0.598398">
        <ele>1.0</ele>
      </trkpt>
      <trkpt lat="40.683128" lon="0.597939">
        <ele>0.9</ele>
      </trkpt>
      <trkpt lat="40.683062" lon="0.597481">
        <ele>1.3</ele>
      </trkpt>
      <trkpt lat="40.682999" lon="0.597045">
        <ele>1.1</ele>
      </trkpt>
      <trkpt lat="40.682936" lon="0.596608">
        <ele>1.3</ele>
      </trkpt>
      <trkpt lat="40.682873" lon="0.596172">
        <ele>1.6</ele>
      </trkpt>
      <trkpt lat="40.682829" lon="0.595865">
        <ele>1.4</ele>
      </trkpt>
      <trkpt lat="40.682758" lon="0.595324">
        <ele>1.2</ele>
      </trkpt>
      <trkpt lat="40.682688" lon="0.594783">
        <ele>1.3</ele>
      </trkpt>
      <trkpt lat="40.682617" lon="0.594241">
        <ele>1.6</ele>
      </trkpt>
      <trkpt lat="40.682547" lon="0.5937">
        <ele>1.4</ele>
      </trkpt>
      <trkpt lat="40.682508" lon="0.59324">
        <ele>2.4</ele>
      </trkpt>
      <trkpt lat="40.682439" lon="0.593219">
        <ele>2.5</ele>
      </trkpt>
      <trkpt lat="40.682206" lon="0.593252">
        <ele>2.5</ele>
      </trkpt>
      <trkpt lat="40.681884" lon="0.593318">
        <ele>1.9</ele>
      </trkpt>
      <trkpt lat="40.681531" lon="0.593387">
        <ele>1.9</ele>
      </trkpt>
      <trkpt lat="40.681205" lon="0.593451">
        <ele>1.7</ele>
      </trkpt>
      <trkpt lat="40.68079" lon="0.593533">
        <ele>1.8</ele>
      </trkpt>
      <trkpt lat="40.680545" lon="0.593584">
        <ele>1.8</ele>
      </trkpt>
      <trkpt lat="40.680363" lon="0.593623">
        <ele>1.8</ele>
      </trkpt>
      <trkpt lat="40.679921" lon="0.593716">
        <ele>2.1</ele>
      </trkpt>
      <trkpt lat="40.679568" lon="0.59379">
        <ele>2.0</ele>
        <name>Amposta, Montsià</name>
        <extensions>
          <oa:Extension>
            <oa:mapZoom>16</oa:mapZoom>
          </oa:Extension>
        </extensions>
      </trkpt>
      <trkpt lat="40.67948" lon="0.593809">
        <ele>1.9</ele>
      </trkpt>
      <trkpt lat="40.679038" lon="0.593902">
        <ele>1.8</ele>
      </trkpt>
      <trkpt lat="40.678597" lon="0.593995">
        <ele>1.8</ele>
      </trkpt>
      <trkpt lat="40.678156" lon="0.594088">
        <ele>1.7</ele>
      </trkpt>
      <trkpt lat="40.677756" lon="0.594159">
        <ele>1.8</ele>
      </trkpt>
      <trkpt lat="40.677357" lon="0.594229">
        <ele>1.7</ele>
      </trkpt>
      <trkpt lat="40.676958" lon="0.594299">
        <ele>1.6</ele>
      </trkpt>
      <trkpt lat="40.676559" lon="0.594369">
        <ele>1.4</ele>
      </trkpt>
      <trkpt lat="40.676159" lon="0.594439">
        <ele>1.4</ele>
      </trkpt>
      <trkpt lat="40.67576" lon="0.594509">
        <ele>1.6</ele>
      </trkpt>
      <trkpt lat="40.675697" lon="0.594323">
        <ele>0.6</ele>
      </trkpt>
      <trkpt lat="40.675661" lon="0.594209">
        <ele>1.5</ele>
      </trkpt>
      <trkpt lat="40.67556" lon="0.593794">
        <ele>1.4</ele>
      </trkpt>
      <trkpt lat="40.675524" lon="0.593737">
        <ele>1.3</ele>
      </trkpt>
      <trkpt lat="40.675474" lon="0.593691">
        <ele>1.4</ele>
      </trkpt>
      <trkpt lat="40.67514" lon="0.593732">
        <ele>1.1</ele>
      </trkpt>
      <trkpt lat="40.674806" lon="0.593772">
        <ele>1.4</ele>
      </trkpt>
      <trkpt lat="40.674702" lon="0.59378">
        <ele>1.4</ele>
      </trkpt>
      <trkpt lat="40.674594" lon="0.593743">
        <ele>1.3</ele>
      </trkpt>
      <trkpt lat="40.674195" lon="0.593581">
        <ele>1.3</ele>
      </trkpt>
      <trkpt lat="40.673927" lon="0.593478">
        <ele>1.4</ele>
      </trkpt>
      <trkpt lat="40.673793" lon="0.593428">
        <ele>1.4</ele>
      </trkpt>
      <trkpt lat="40.673371" lon="0.593261">
        <ele>1.3</ele>
      </trkpt>
      <trkpt lat="40.672949" lon="0.593093">
        <ele>1.7</ele>
      </trkpt>
      <trkpt lat="40.672943" lon="0.593055">
        <ele>1.6</ele>
      </trkpt>
      <trkpt lat="40.672935" lon="0.593007">
        <ele>1.7</ele>
      </trkpt>
      <trkpt lat="40.672929" lon="0.592968">
        <ele>1.8</ele>
      </trkpt>
      <trkpt lat="40.672913" lon="0.592857">
        <ele>1.6</ele>
      </trkpt>
      <trkpt lat="40.672882" lon="0.592759">
        <ele>1.6</ele>
      </trkpt>
      <trkpt lat="40.672846" lon="0.592678">
        <ele>1.6</ele>
      </trkpt>
      <trkpt lat="40.67278" lon="0.592595">
        <ele>1.8</ele>
      </trkpt>
      <trkpt lat="40.672598" lon="0.592444">
        <ele>2.0</ele>
      </trkpt>
      <trkpt lat="40.672526" lon="0.592384">
        <ele>2.2</ele>
      </trkpt>
      <trkpt lat="40.672154" lon="0.592089">
        <ele>2.2</ele>
      </trkpt>
      <trkpt lat="40.671782" lon="0.591794">
        <ele>2.4</ele>
      </trkpt>
      <trkpt lat="40.67141" lon="0.591499">
        <ele>2.8</ele>
      </trkpt>
      <trkpt lat="40.67131" lon="0.591387">
        <ele>3.0</ele>
      </trkpt>
      <trkpt lat="40.671271" lon="0.591231">
        <ele>3.1</ele>
      </trkpt>
      <trkpt lat="40.671265" lon="0.591099">
        <ele>3.2</ele>
      </trkpt>
      <trkpt lat="40.671273" lon="0.591057">
        <ele>3.2</ele>
      </trkpt>
      <trkpt lat="40.671264" lon="0.590998">
        <ele>3.3</ele>
      </trkpt>
      <trkpt lat="40.671247" lon="0.590955">
        <ele>3.3</ele>
      </trkpt>
      <trkpt lat="40.671182" lon="0.590898">
        <ele>3.3</ele>
      </trkpt>
      <trkpt lat="40.6711" lon="0.59088">
        <ele>3.4</ele>
      </trkpt>
      <trkpt lat="40.670748" lon="0.590893">
        <ele>4.1</ele>
      </trkpt>
      <trkpt lat="40.670722" lon="0.590876">
        <ele>4.0</ele>
      </trkpt>
      <trkpt lat="40.670678" lon="0.590846">
        <ele>4.3</ele>
      </trkpt>
      <trkpt lat="40.670643" lon="0.590822">
        <ele>4.5</ele>
      </trkpt>
      <trkpt lat="40.670639" lon="0.590845">
        <ele>4.4</ele>
      </trkpt>
      <trkpt lat="40.670589" lon="0.590963">
        <ele>3.5</ele>
      </trkpt>
      <trkpt lat="40.67046" lon="0.591211">
        <ele>3.3</ele>
      </trkpt>
      <trkpt lat="40.670348" lon="0.591426">
        <ele>3.2</ele>
      </trkpt>
      <trkpt lat="40.670259" lon="0.591642">
        <ele>3.2</ele>
      </trkpt>
      <trkpt lat="40.67015" lon="0.591976">
        <ele>2.9</ele>
      </trkpt>
      <trkpt lat="40.670041" lon="0.592311">
        <ele>2.9</ele>
      </trkpt>
      <trkpt lat="40.669879" lon="0.592802">
        <ele>2.6</ele>
      </trkpt>
      <trkpt lat="40.669718" lon="0.593292">
        <ele>2.4</ele>
      </trkpt>
      <trkpt lat="40.669556" lon="0.593782">
        <ele>2.2</ele>
      </trkpt>
      <trkpt lat="40.669395" lon="0.594272">
        <ele>2.2</ele>
      </trkpt>
      <trkpt lat="40.669233" lon="0.594763">
        <ele>2.1</ele>
      </trkpt>
      <trkpt lat="40.669071" lon="0.595254">
        <ele>2.1</ele>
      </trkpt>
      <trkpt lat="40.668909" lon="0.595746">
        <ele>2.1</ele>
      </trkpt>
      <trkpt lat="40.668747" lon="0.596238">
        <ele>2.2</ele>
      </trkpt>
      <trkpt lat="40.668734" lon="0.596278">
        <ele>2.2</ele>
      </trkpt>
      <trkpt lat="40.668711" lon="0.596349">
        <ele>2.1</ele>
      </trkpt>
      <trkpt lat="40.668668" lon="0.596478">
        <ele>2.1</ele>
      </trkpt>
      <trkpt lat="40.668532" lon="0.59689">
        <ele>2.2</ele>
      </trkpt>
      <trkpt lat="40.668397" lon="0.597301">
        <ele>2.1</ele>
      </trkpt>
      <trkpt lat="40.668261" lon="0.597713">
        <ele>2.0</ele>
      </trkpt>
      <trkpt lat="40.668125" lon="0.598124">
        <ele>1.9</ele>
      </trkpt>
      <trkpt lat="40.668023" lon="0.598385">
        <ele>1.9</ele>
      </trkpt>
      <trkpt lat="40.667822" lon="0.598626">
        <ele>2.0</ele>
      </trkpt>
      <trkpt lat="40.66762" lon="0.598867">
        <ele>1.7</ele>
      </trkpt>
      <trkpt lat="40.667437" lon="0.599169">
        <ele>1.8</ele>
      </trkpt>
      <trkpt lat="40.667254" lon="0.599472">
        <ele>2.0</ele>
      </trkpt>
      <trkpt lat="40.667093" lon="0.599702">
        <ele>2.0</ele>
      </trkpt>
      <trkpt lat="40.666901" lon="0.599977">
        <ele>1.9</ele>
      </trkpt>
      <trkpt lat="40.666708" lon="0.600251">
        <ele>1.6</ele>
      </trkpt>
      <trkpt lat="40.666441" lon="0.600678">
        <ele>1.7</ele>
      </trkpt>
      <trkpt lat="40.666174" lon="0.601105">
        <ele>1.9</ele>
      </trkpt>
      <trkpt lat="40.665907" lon="0.601532">
        <ele>1.9</ele>
      </trkpt>
      <trkpt lat="40.66564" lon="0.601958">
        <ele>2.1</ele>
      </trkpt>
      <trkpt lat="40.665371" lon="0.602389">
        <ele>2.0</ele>
      </trkpt>
      <trkpt lat="40.665358" lon="0.602407">
        <ele>2.0</ele>
        <name>Camí de l&apos;Inglès, Amposta, Montsià</name>
        <extensions>
          <oa:Extension>
            <oa:mapZoom>16</oa:mapZoom>
          </oa:Extension>
        </extensions>
      </trkpt>
      <trkpt lat="40.665199" lon="0.602637">
        <ele>2.0</ele>
      </trkpt>
      <trkpt lat="40.665027" lon="0.602885">
        <ele>2.6</ele>
      </trkpt>
      <trkpt lat="40.665051" lon="0.602916">
        <ele>2.0</ele>
      </trkpt>
      <trkpt lat="40.665086" lon="0.602961">
        <ele>2.0</ele>
      </trkpt>
      <trkpt lat="40.665102" lon="0.602981">
        <ele>2.2</ele>
      </trkpt>
      <trkpt lat="40.665206" lon="0.603115">
        <ele>1.8</ele>
      </trkpt>
      <trkpt lat="40.665399" lon="0.603332">
        <ele>1.5</ele>
      </trkpt>
      <trkpt lat="40.665592" lon="0.60355">
        <ele>0.5</ele>
      </trkpt>
      <trkpt lat="40.66563" lon="0.603592">
        <ele>1.3</ele>
      </trkpt>
      <trkpt lat="40.665658" lon="0.603624">
        <ele>1.6</ele>
      </trkpt>
      <trkpt lat="40.665482" lon="0.603968">
        <ele>1.8</ele>
      </trkpt>
      <trkpt lat="40.665305" lon="0.604312">
        <ele>1.2</ele>
      </trkpt>
      <trkpt lat="40.665129" lon="0.604655">
        <ele>1.4</ele>
      </trkpt>
      <trkpt lat="40.664908" lon="0.605061">
        <ele>1.1</ele>
      </trkpt>
      <trkpt lat="40.664721" lon="0.60545">
        <ele>1.0</ele>
      </trkpt>
      <trkpt lat="40.664534" lon="0.605839">
        <ele>0.9</ele>
      </trkpt>
      <trkpt lat="40.664346" lon="0.606228">
        <ele>0.9</ele>
      </trkpt>
      <trkpt lat="40.664126" lon="0.606655">
        <ele>0.9</ele>
      </trkpt>
      <trkpt lat="40.663906" lon="0.607082">
        <ele>1.1</ele>
      </trkpt>
      <trkpt lat="40.663685" lon="0.607509">
        <ele>1.0</ele>
      </trkpt>
      <trkpt lat="40.663465" lon="0.607936">
        <ele>1.3</ele>
      </trkpt>
      <trkpt lat="40.663238" lon="0.608381">
        <ele>1.0</ele>
      </trkpt>
      <trkpt lat="40.663012" lon="0.608826">
        <ele>1.2</ele>
      </trkpt>
      <trkpt lat="40.662786" lon="0.609271">
        <ele>1.0</ele>
      </trkpt>
      <trkpt lat="40.662559" lon="0.609716">
        <ele>1.2</ele>
      </trkpt>
      <trkpt lat="40.662333" lon="0.610161">
        <ele>1.0</ele>
      </trkpt>
      <trkpt lat="40.662107" lon="0.610606">
        <ele>1.0</ele>
      </trkpt>
      <trkpt lat="40.661872" lon="0.611065">
        <ele>1.1</ele>
      </trkpt>
      <trkpt lat="40.661637" lon="0.611523">
        <ele>1.1</ele>
      </trkpt>
      <trkpt lat="40.661402" lon="0.611982">
        <ele>1.0</ele>
      </trkpt>
      <trkpt lat="40.661167" lon="0.612441">
        <ele>1.2</ele>
      </trkpt>
      <trkpt lat="40.660932" lon="0.6129">
        <ele>1.0</ele>
      </trkpt>
      <trkpt lat="40.660697" lon="0.613358">
        <ele>1.2</ele>
      </trkpt>
      <trkpt lat="40.660643" lon="0.613465">
        <ele>1.3</ele>
      </trkpt>
      <trkpt lat="40.660545" lon="0.613655">
        <ele>1.3</ele>
      </trkpt>
      <trkpt lat="40.660307" lon="0.614127">
        <ele>1.6</ele>
      </trkpt>
      <trkpt lat="40.660068" lon="0.6146">
        <ele>1.2</ele>
      </trkpt>
      <trkpt lat="40.659829" lon="0.615072">
        <ele>1.2</ele>
      </trkpt>
      <trkpt lat="40.65959" lon="0.615544">
        <ele>1.3</ele>
      </trkpt>
      <trkpt lat="40.659351" lon="0.616016">
        <ele>1.2</ele>
      </trkpt>
      <trkpt lat="40.659112" lon="0.616489">
        <ele>1.4</ele>
      </trkpt>
      <trkpt lat="40.658873" lon="0.616961">
        <ele>1.0</ele>
      </trkpt>
      <trkpt lat="40.658634" lon="0.617433">
        <ele>1.1</ele>
      </trkpt>
      <trkpt lat="40.658595" lon="0.617511">
        <ele>1.1</ele>
        <name>Amposta, Montsià</name>
        <extensions>
          <oa:Extension>
            <oa:mapZoom>16</oa:mapZoom>
          </oa:Extension>
        </extensions>
      </trkpt>
      <trkpt lat="40.658395" lon="0.617906">
        <ele>1.0</ele>
      </trkpt>
      <trkpt lat="40.658156" lon="0.618378">
        <ele>1.0</ele>
      </trkpt>
      <trkpt lat="40.657917" lon="0.61885">
        <ele>1.7</ele>
      </trkpt>
      <trkpt lat="40.657729" lon="0.619208">
        <ele>1.4</ele>
      </trkpt>
      <trkpt lat="40.65754" lon="0.619565">
        <ele>1.2</ele>
      </trkpt>
      <trkpt lat="40.657312" lon="0.620017">
        <ele>1.4</ele>
      </trkpt>
      <trkpt lat="40.657083" lon="0.620469">
        <ele>1.2</ele>
      </trkpt>
      <trkpt lat="40.656854" lon="0.620921">
        <ele>1.2</ele>
      </trkpt>
      <trkpt lat="40.656625" lon="0.621372">
        <ele>1.1</ele>
      </trkpt>
      <trkpt lat="40.656397" lon="0.621824">
        <ele>1.9</ele>
      </trkpt>
      <trkpt lat="40.65639" lon="0.621981">
        <ele>2.0</ele>
      </trkpt>
      <trkpt lat="40.656225" lon="0.622261">
        <ele>1.2</ele>
      </trkpt>
      <trkpt lat="40.65602" lon="0.622665">
        <ele>1.3</ele>
      </trkpt>
      <trkpt lat="40.655815" lon="0.623069">
        <ele>1.1</ele>
      </trkpt>
      <trkpt lat="40.65561" lon="0.623473">
        <ele>1.0</ele>
      </trkpt>
      <trkpt lat="40.655405" lon="0.623877">
        <ele>1.1</ele>
      </trkpt>
      <trkpt lat="40.655199" lon="0.624281">
        <ele>1.1</ele>
      </trkpt>
      <trkpt lat="40.655005" lon="0.624648">
        <ele>1.1</ele>
      </trkpt>
      <trkpt lat="40.654811" lon="0.625015">
        <ele>1.1</ele>
      </trkpt>
      <trkpt lat="40.654637" lon="0.625351">
        <ele>1.1</ele>
      </trkpt>
      <trkpt lat="40.654464" lon="0.625687">
        <ele>1.4</ele>
      </trkpt>
      <trkpt lat="40.65429" lon="0.626023">
        <ele>1.6</ele>
      </trkpt>
      <trkpt lat="40.654075" lon="0.626461">
        <ele>1.6</ele>
      </trkpt>
      <trkpt lat="40.653861" lon="0.626899">
        <ele>1.8</ele>
      </trkpt>
      <trkpt lat="40.653795" lon="0.627064">
        <ele>2.3</ele>
      </trkpt>
      <trkpt lat="40.65366" lon="0.627251">
        <ele>1.7</ele>
      </trkpt>
      <trkpt lat="40.65343" lon="0.627707">
        <ele>1.1</ele>
      </trkpt>
      <trkpt lat="40.6532" lon="0.628163">
        <ele>1.1</ele>
      </trkpt>
      <trkpt lat="40.652971" lon="0.628619">
        <ele>0.9</ele>
      </trkpt>
      <trkpt lat="40.652741" lon="0.629075">
        <ele>1.1</ele>
      </trkpt>
      <trkpt lat="40.652511" lon="0.629531">
        <ele>1.0</ele>
      </trkpt>
      <trkpt lat="40.652281" lon="0.629987">
        <ele>0.9</ele>
      </trkpt>
      <trkpt lat="40.652052" lon="0.630442">
        <ele>0.9</ele>
      </trkpt>
      <trkpt lat="40.651822" lon="0.630898">
        <ele>0.9</ele>
      </trkpt>
      <trkpt lat="40.651592" lon="0.631354">
        <ele>1.0</ele>
      </trkpt>
      <trkpt lat="40.651362" lon="0.63181">
        <ele>0.7</ele>
      </trkpt>
      <trkpt lat="40.651133" lon="0.632266">
        <ele>1.1</ele>
      </trkpt>
      <trkpt lat="40.650892" lon="0.632747">
        <ele>0.8</ele>
      </trkpt>
      <trkpt lat="40.650652" lon="0.633229">
        <ele>1.0</ele>
      </trkpt>
      <trkpt lat="40.650412" lon="0.63371">
        <ele>0.8</ele>
      </trkpt>
      <trkpt lat="40.650172" lon="0.634191">
        <ele>0.9</ele>
      </trkpt>
      <trkpt lat="40.649932" lon="0.634672">
        <ele>0.8</ele>
      </trkpt>
      <trkpt lat="40.649692" lon="0.635154">
        <ele>0.6</ele>
      </trkpt>
      <trkpt lat="40.649451" lon="0.635635">
        <ele>0.6</ele>
      </trkpt>
      <trkpt lat="40.649211" lon="0.636116">
        <ele>0.7</ele>
      </trkpt>
      <trkpt lat="40.648971" lon="0.636598">
        <ele>0.6</ele>
      </trkpt>
      <trkpt lat="40.648731" lon="0.637079">
        <ele>0.6</ele>
      </trkpt>
      <trkpt lat="40.648491" lon="0.63756">
        <ele>0.7</ele>
      </trkpt>
      <trkpt lat="40.64825" lon="0.638041">
        <ele>0.6</ele>
      </trkpt>
      <trkpt lat="40.64801" lon="0.638523">
        <ele>1.6</ele>
      </trkpt>
      <trkpt lat="40.647914" lon="0.638714">
        <ele>1.6</ele>
      </trkpt>
      <trkpt lat="40.647849" lon="0.638842">
        <ele>1.3</ele>
      </trkpt>
      <trkpt lat="40.64769" lon="0.639105">
        <ele>1.1</ele>
      </trkpt>
      <trkpt lat="40.647616" lon="0.639179">
        <ele>1.1</ele>
      </trkpt>
      <trkpt lat="40.647526" lon="0.639235">
        <ele>1.1</ele>
      </trkpt>
      <trkpt lat="40.647442" lon="0.639287">
        <ele>1.1</ele>
      </trkpt>
      <trkpt lat="40.647337" lon="0.639326">
        <ele>1.1</ele>
      </trkpt>
      <trkpt lat="40.646985" lon="0.639358">
        <ele>1.9</ele>
      </trkpt>
      <trkpt lat="40.646755" lon="0.639379">
        <ele>1.7</ele>
      </trkpt>
      <trkpt lat="40.646399" lon="0.639412">
        <ele>1.3</ele>
      </trkpt>
      <trkpt lat="40.645987" lon="0.639455">
        <ele>1.0</ele>
      </trkpt>
      <trkpt lat="40.645574" lon="0.639498">
        <ele>1.0</ele>
      </trkpt>
      <trkpt lat="40.645189" lon="0.639538">
        <ele>1.1</ele>
        <name>Camí del Través, Sant Carles de la Ràpita, Montsià</name>
        <extensions>
          <oa:Extension>
            <oa:mapZoom>16</oa:mapZoom>
          </oa:Extension>
        </extensions>
      </trkpt>
      <trkpt lat="40.645162" lon="0.639541">
        <ele>1.1</ele>
      </trkpt>
      <trkpt lat="40.644804" lon="0.63952">
        <ele>1.0</ele>
      </trkpt>
      <trkpt lat="40.644794" lon="0.639208">
        <ele>1.3</ele>
      </trkpt>
      <trkpt lat="40.644784" lon="0.638908">
        <ele>-0.2</ele>
      </trkpt>
      <trkpt lat="40.644772" lon="0.638704">
        <ele>1.1</ele>
      </trkpt>
      <trkpt lat="40.644794" lon="0.638636">
        <ele>1.2</ele>
      </trkpt>
      <trkpt lat="40.644861" lon="0.638561">
        <ele>0.9</ele>
      </trkpt>
      <trkpt lat="40.644789" lon="0.638426">
        <ele>0.6</ele>
      </trkpt>
      <trkpt lat="40.644722" lon="0.63827">
        <ele>0.7</ele>
      </trkpt>
      <trkpt lat="40.644699" lon="0.638186">
        <ele>0.5</ele>
      </trkpt>
      <trkpt lat="40.644685" lon="0.638102">
        <ele>0.4</ele>
      </trkpt>
      <trkpt lat="40.644665" lon="0.637797">
        <ele>0.7</ele>
      </trkpt>
      <trkpt lat="40.644659" lon="0.637594">
        <ele>0.8</ele>
      </trkpt>
      <trkpt lat="40.644672" lon="0.637357">
        <ele>0.8</ele>
      </trkpt>
      <trkpt lat="40.644695" lon="0.63715">
        <ele>0.7</ele>
      </trkpt>
      <trkpt lat="40.644734" lon="0.636864">
        <ele>0.9</ele>
      </trkpt>
      <trkpt lat="40.644792" lon="0.636578">
        <ele>0.8</ele>
      </trkpt>
      <trkpt lat="40.644836" lon="0.63644">
        <ele>0.7</ele>
      </trkpt>
      <trkpt lat="40.644881" lon="0.636218">
        <ele>0.6</ele>
      </trkpt>
      <trkpt lat="40.64493" lon="0.635885">
        <ele>0.9</ele>
      </trkpt>
      <trkpt lat="40.644964" lon="0.635583">
        <ele>0.8</ele>
      </trkpt>
      <trkpt lat="40.644998" lon="0.635282">
        <ele>0.7</ele>
      </trkpt>
      <trkpt lat="40.645042" lon="0.63498">
        <ele>0.8</ele>
      </trkpt>
      <trkpt lat="40.645086" lon="0.634678">
        <ele>0.9</ele>
      </trkpt>
      <trkpt lat="40.645157" lon="0.634327">
        <ele>0.7</ele>
      </trkpt>
      <trkpt lat="40.645262" lon="0.633932">
        <ele>0.8</ele>
      </trkpt>
      <trkpt lat="40.645385" lon="0.633523">
        <ele>1.0</ele>
      </trkpt>
      <trkpt lat="40.645499" lon="0.633148">
        <ele>0.9</ele>
      </trkpt>
      <trkpt lat="40.645553" lon="0.632957">
        <ele>0.8</ele>
      </trkpt>
      <trkpt lat="40.64559" lon="0.632765">
        <ele>0.8</ele>
      </trkpt>
      <trkpt lat="40.645627" lon="0.632499">
        <ele>0.9</ele>
      </trkpt>
      <trkpt lat="40.645654" lon="0.632354">
        <ele>0.9</ele>
      </trkpt>
      <trkpt lat="40.645696" lon="0.632246">
        <ele>0.8</ele>
      </trkpt>
      <trkpt lat="40.645762" lon="0.632143">
        <ele>0.9</ele>
      </trkpt>
      <trkpt lat="40.6459" lon="0.63194">
        <ele>1.0</ele>
      </trkpt>
      <trkpt lat="40.645956" lon="0.631873">
        <ele>1.0</ele>
      </trkpt>
      <trkpt lat="40.646016" lon="0.631827">
        <ele>0.9</ele>
      </trkpt>
      <trkpt lat="40.646302" lon="0.631661">
        <ele>0.8</ele>
      </trkpt>
      <trkpt lat="40.646588" lon="0.631494">
        <ele>1.0</ele>
      </trkpt>
      <trkpt lat="40.646674" lon="0.631429">
        <ele>1.4</ele>
      </trkpt>
      <trkpt lat="40.646727" lon="0.63133">
        <ele>1.0</ele>
      </trkpt>
      <trkpt lat="40.646871" lon="0.630976">
        <ele>1.3</ele>
      </trkpt>
      <trkpt lat="40.647104" lon="0.630623">
        <ele>1.6</ele>
      </trkpt>
      <trkpt lat="40.647082" lon="0.630599">
        <ele>2.1</ele>
      </trkpt>
      <trkpt lat="40.647049" lon="0.630565">
        <ele>2.1</ele>
      </trkpt>
      <trkpt lat="40.64704" lon="0.630556">
        <ele>2.1</ele>
      </trkpt>
      <trkpt lat="40.647006" lon="0.63046">
        <ele>1.4</ele>
      </trkpt>
      <trkpt lat="40.646965" lon="0.630347">
        <ele>1.0</ele>
      </trkpt>
      <trkpt lat="40.646966" lon="0.6303">
        <ele>1.0</ele>
      </trkpt>
      <trkpt lat="40.646969" lon="0.630202">
        <ele>0.8</ele>
      </trkpt>
      <trkpt lat="40.646971" lon="0.629776">
        <ele>1.0</ele>
      </trkpt>
      <trkpt lat="40.646973" lon="0.629349">
        <ele>1.0</ele>
      </trkpt>
      <trkpt lat="40.646937" lon="0.628963">
        <ele>0.9</ele>
      </trkpt>
      <trkpt lat="40.6469" lon="0.628577">
        <ele>0.9</ele>
      </trkpt>
      <trkpt lat="40.646878" lon="0.628381">
        <ele>1.2</ele>
      </trkpt>
      <trkpt lat="40.646818" lon="0.62783">
        <ele>0.9</ele>
      </trkpt>
      <trkpt lat="40.646757" lon="0.627279">
        <ele>0.9</ele>
      </trkpt>
      <trkpt lat="40.646695" lon="0.626782">
        <ele>0.9</ele>
      </trkpt>
      <trkpt lat="40.646633" lon="0.626285">
        <ele>0.9</ele>
      </trkpt>
      <trkpt lat="40.64657" lon="0.625787">
        <ele>0.9</ele>
      </trkpt>
      <trkpt lat="40.646599" lon="0.62561">
        <ele>0.8</ele>
      </trkpt>
      <trkpt lat="40.646721" lon="0.625189">
        <ele>0.6</ele>
      </trkpt>
      <trkpt lat="40.646843" lon="0.624768">
        <ele>0.8</ele>
      </trkpt>
      <trkpt lat="40.646815" lon="0.624639">
        <ele>0.6</ele>
      </trkpt>
      <trkpt lat="40.646565" lon="0.624232">
        <ele>0.6</ele>
      </trkpt>
      <trkpt lat="40.646316" lon="0.623824">
        <ele>1.4</ele>
      </trkpt>
      <trkpt lat="40.64626" lon="0.623852">
        <ele>0.7</ele>
      </trkpt>
      <trkpt lat="40.645978" lon="0.624079">
        <ele>0.5</ele>
      </trkpt>
      <trkpt lat="40.645697" lon="0.624307">
        <ele>0.5</ele>
      </trkpt>
      <trkpt lat="40.645348" lon="0.624588">
        <ele>0.6</ele>
      </trkpt>
      <trkpt lat="40.645" lon="0.62487">
        <ele>0.4</ele>
      </trkpt>
      <trkpt lat="40.644652" lon="0.625151">
        <ele>0.6</ele>
      </trkpt>
      <trkpt lat="40.644303" lon="0.625433">
        <ele>0.5</ele>
      </trkpt>
      <trkpt lat="40.643955" lon="0.625715">
        <ele>0.6</ele>
      </trkpt>
      <trkpt lat="40.643606" lon="0.625996">
        <ele>0.4</ele>
      </trkpt>
      <trkpt lat="40.643394" lon="0.626182">
        <ele>0.5</ele>
      </trkpt>
      <trkpt lat="40.643182" lon="0.626367">
        <ele>0.8</ele>
      </trkpt>
      <trkpt lat="40.642984" lon="0.62651">
        <ele>0.6</ele>
      </trkpt>
      <trkpt lat="40.642925" lon="0.626553">
        <ele>0.5</ele>
      </trkpt>
      <trkpt lat="40.64257" lon="0.626847">
        <ele>0.6</ele>
      </trkpt>
      <trkpt lat="40.642214" lon="0.627141">
        <ele>0.5</ele>
      </trkpt>
      <trkpt lat="40.641859" lon="0.627435">
        <ele>0.7</ele>
      </trkpt>
      <trkpt lat="40.641503" lon="0.62773">
        <ele>0.7</ele>
      </trkpt>
      <trkpt lat="40.641148" lon="0.628024">
        <ele>0.5</ele>
      </trkpt>
      <trkpt lat="40.640792" lon="0.628318">
        <ele>0.6</ele>
      </trkpt>
      <trkpt lat="40.640463" lon="0.628597">
        <ele>0.5</ele>
      </trkpt>
      <trkpt lat="40.640133" lon="0.628876">
        <ele>0.6</ele>
      </trkpt>
      <trkpt lat="40.639804" lon="0.629155">
        <ele>0.5</ele>
      </trkpt>
      <trkpt lat="40.639474" lon="0.629434">
        <ele>0.5</ele>
      </trkpt>
      <trkpt lat="40.639145" lon="0.629713">
        <ele>0.5</ele>
      </trkpt>
      <trkpt lat="40.638815" lon="0.629992">
        <ele>0.5</ele>
      </trkpt>
      <trkpt lat="40.638578" lon="0.630187">
        <ele>0.5</ele>
      </trkpt>
      <trkpt lat="40.638501" lon="0.63025">
        <ele>0.5</ele>
      </trkpt>
      <trkpt lat="40.638221" lon="0.630479">
        <ele>0.6</ele>
      </trkpt>
      <trkpt lat="40.637942" lon="0.630707">
        <ele>0.5</ele>
      </trkpt>
      <trkpt lat="40.637663" lon="0.630936">
        <ele>0.7</ele>
      </trkpt>
      <trkpt lat="40.637309" lon="0.631226">
        <ele>0.4</ele>
      </trkpt>
      <trkpt lat="40.636956" lon="0.631516">
        <ele>0.2</ele>
      </trkpt>
      <trkpt lat="40.636603" lon="0.631805">
        <ele>0.4</ele>
      </trkpt>
      <trkpt lat="40.636249" lon="0.632095">
        <ele>0.4</ele>
      </trkpt>
      <trkpt lat="40.635896" lon="0.632385">
        <ele>0.2</ele>
      </trkpt>
      <trkpt lat="40.635742" lon="0.632539">
        <ele>0.5</ele>
      </trkpt>
      <trkpt lat="40.635506" lon="0.632855">
        <ele>0.3</ele>
      </trkpt>
      <trkpt lat="40.635269" lon="0.63317">
        <ele>0.3</ele>
      </trkpt>
      <trkpt lat="40.635033" lon="0.633485">
        <ele>0.6</ele>
      </trkpt>
      <trkpt lat="40.634812" lon="0.633795">
        <ele>0.4</ele>
      </trkpt>
      <trkpt lat="40.63472" lon="0.63387">
        <ele>0.6</ele>
      </trkpt>
      <trkpt lat="40.634628" lon="0.633536">
        <ele>0.4</ele>
        <name>Parc Natural del Delta de l&apos;Ebre (Ebro Delta Natural Park), Sant Carles de la Ràpita, Montsià</name>
        <extensions>
          <oa:Extension>
            <oa:mapZoom>16</oa:mapZoom>
          </oa:Extension>
        </extensions>
      </trkpt>
      <trkpt lat="40.634608" lon="0.633463">
        <ele>0.4</ele>
      </trkpt>
      <trkpt lat="40.634496" lon="0.633057">
        <ele>0.4</ele>
      </trkpt>
      <trkpt lat="40.634384" lon="0.63265">
        <ele>0.2</ele>
      </trkpt>
      <trkpt lat="40.634245" lon="0.632119">
        <ele>0.4</ele>
      </trkpt>
      <trkpt lat="40.634106" lon="0.631588">
        <ele>0.2</ele>
      </trkpt>
      <trkpt lat="40.633967" lon="0.631057">
        <ele>0.3</ele>
      </trkpt>
      <trkpt lat="40.633828" lon="0.630527">
        <ele>0.7</ele>
      </trkpt>
      <trkpt lat="40.6338" lon="0.630164">
        <ele>0.5</ele>
      </trkpt>
      <trkpt lat="40.633773" lon="0.629801">
        <ele>0.5</ele>
      </trkpt>
      <trkpt lat="40.633727" lon="0.629261">
        <ele>0.5</ele>
      </trkpt>
      <trkpt lat="40.633681" lon="0.62872">
        <ele>0.6</ele>
      </trkpt>
      <trkpt lat="40.633635" lon="0.62818">
        <ele>0.4</ele>
      </trkpt>
      <trkpt lat="40.633589" lon="0.62764">
        <ele>0.5</ele>
      </trkpt>
      <trkpt lat="40.633543" lon="0.627099">
        <ele>0.5</ele>
      </trkpt>
      <trkpt lat="40.633497" lon="0.626559">
        <ele>0.7</ele>
      </trkpt>
      <trkpt lat="40.63347" lon="0.626248">
        <ele>0.7</ele>
      </trkpt>
      <trkpt lat="40.633424" lon="0.625726">
        <ele>0.8</ele>
      </trkpt>
      <trkpt lat="40.633379" lon="0.625205">
        <ele>0.7</ele>
      </trkpt>
      <trkpt lat="40.633333" lon="0.624683">
        <ele>0.8</ele>
      </trkpt>
      <trkpt lat="40.633289" lon="0.624169">
        <ele>0.5</ele>
      </trkpt>
      <trkpt lat="40.633244" lon="0.623655">
        <ele>0.5</ele>
      </trkpt>
      <trkpt lat="40.6332" lon="0.623141">
        <ele>0.4</ele>
      </trkpt>
      <trkpt lat="40.633155" lon="0.622627">
        <ele>0.5</ele>
      </trkpt>
      <trkpt lat="40.633111" lon="0.622112">
        <ele>0.5</ele>
      </trkpt>
      <trkpt lat="40.633071" lon="0.621663">
        <ele>0.5</ele>
      </trkpt>
      <trkpt lat="40.633031" lon="0.621213">
        <ele>0.4</ele>
      </trkpt>
      <trkpt lat="40.632991" lon="0.620763">
        <ele>0.5</ele>
      </trkpt>
      <trkpt lat="40.632951" lon="0.620313">
        <ele>0.8</ele>
      </trkpt>
      <trkpt lat="40.632948" lon="0.620276">
        <ele>0.8</ele>
      </trkpt>
      <trkpt lat="40.632916" lon="0.619871">
        <ele>0.6</ele>
      </trkpt>
      <trkpt lat="40.632884" lon="0.619466">
        <ele>0.8</ele>
      </trkpt>
      <trkpt lat="40.632853" lon="0.619061">
        <ele>0.5</ele>
      </trkpt>
      <trkpt lat="40.632813" lon="0.6186">
        <ele>0.7</ele>
      </trkpt>
      <trkpt lat="40.632774" lon="0.618139">
        <ele>0.5</ele>
      </trkpt>
      <trkpt lat="40.632735" lon="0.617677">
        <ele>0.7</ele>
      </trkpt>
      <trkpt lat="40.632696" lon="0.617216">
        <ele>0.6</ele>
      </trkpt>
      <trkpt lat="40.632644" lon="0.616699">
        <ele>0.6</ele>
      </trkpt>
      <trkpt lat="40.63267" lon="0.616448">
        <ele>0.5</ele>
      </trkpt>
      <trkpt lat="40.632625" lon="0.615947">
        <ele>0.7</ele>
      </trkpt>
      <trkpt lat="40.632579" lon="0.615447">
        <ele>0.6</ele>
      </trkpt>
      <trkpt lat="40.632534" lon="0.614946">
        <ele>0.8</ele>
      </trkpt>
      <trkpt lat="40.632488" lon="0.614445">
        <ele>0.6</ele>
      </trkpt>
      <trkpt lat="40.632441" lon="0.613875">
        <ele>0.9</ele>
      </trkpt>
      <trkpt lat="40.632394" lon="0.613305">
        <ele>0.8</ele>
      </trkpt>
      <trkpt lat="40.632346" lon="0.612735">
        <ele>0.7</ele>
      </trkpt>
      <trkpt lat="40.632299" lon="0.612166">
        <ele>0.7</ele>
      </trkpt>
      <trkpt lat="40.632252" lon="0.611596">
        <ele>0.8</ele>
      </trkpt>
      <trkpt lat="40.632211" lon="0.611089">
        <ele>0.9</ele>
      </trkpt>
      <trkpt lat="40.632169" lon="0.610582">
        <ele>0.9</ele>
      </trkpt>
      <trkpt lat="40.632128" lon="0.610075">
        <ele>0.8</ele>
      </trkpt>
      <trkpt lat="40.632087" lon="0.609569">
        <ele>0.9</ele>
      </trkpt>
      <trkpt lat="40.632046" lon="0.609062">
        <ele>0.8</ele>
      </trkpt>
      <trkpt lat="40.631996" lon="0.608536">
        <ele>0.8</ele>
      </trkpt>
      <trkpt lat="40.631946" lon="0.608009">
        <ele>1.1</ele>
      </trkpt>
      <trkpt lat="40.631892" lon="0.607968">
        <ele>1.1</ele>
      </trkpt>
      <trkpt lat="40.631538" lon="0.607749">
        <ele>0.8</ele>
      </trkpt>
      <trkpt lat="40.631184" lon="0.60753">
        <ele>0.9</ele>
      </trkpt>
      <trkpt lat="40.63083" lon="0.607311">
        <ele>1.2</ele>
      </trkpt>
      <trkpt lat="40.630786" lon="0.60729">
        <ele>1.1</ele>
        <name>Sant Carles de la Ràpita, Montsià</name>
        <extensions>
          <oa:Extension>
            <oa:mapZoom>16</oa:mapZoom>
          </oa:Extension>
        </extensions>
      </trkpt>
      <trkpt lat="40.630526" lon="0.607166">
        <ele>0.9</ele>
      </trkpt>
      <trkpt lat="40.630222" lon="0.607021">
        <ele>1.0</ele>
      </trkpt>
      <trkpt lat="40.629918" lon="0.606877">
        <ele>1.0</ele>
      </trkpt>
      <trkpt lat="40.629656" lon="0.606765">
        <ele>1.1</ele>
      </trkpt>
      <trkpt lat="40.62927" lon="0.606601">
        <ele>1.2</ele>
      </trkpt>
      <trkpt lat="40.628961" lon="0.606498">
        <ele>0.8</ele>
      </trkpt>
      <trkpt lat="40.628652" lon="0.606395">
        <ele>1.1</ele>
      </trkpt>
      <trkpt lat="40.628344" lon="0.606293">
        <ele>1.0</ele>
      </trkpt>
      <trkpt lat="40.627929" lon="0.606168">
        <ele>1.1</ele>
      </trkpt>
      <trkpt lat="40.627514" lon="0.606044">
        <ele>1.2</ele>
      </trkpt>
      <trkpt lat="40.627099" lon="0.605919">
        <ele>1.1</ele>
      </trkpt>
      <trkpt lat="40.626685" lon="0.605795">
        <ele>1.2</ele>
      </trkpt>
      <trkpt lat="40.626319" lon="0.605668">
        <ele>1.2</ele>
      </trkpt>
      <trkpt lat="40.625954" lon="0.605541">
        <ele>1.3</ele>
      </trkpt>
      <trkpt lat="40.625591" lon="0.605243">
        <ele>1.4</ele>
      </trkpt>
      <trkpt lat="40.625227" lon="0.604944">
        <ele>1.5</ele>
      </trkpt>
      <trkpt lat="40.625126" lon="0.604869">
        <ele>1.7</ele>
      </trkpt>
      <trkpt lat="40.625094" lon="0.604852">
        <ele>1.8</ele>
      </trkpt>
      <trkpt lat="40.625044" lon="0.604832">
        <ele>1.7</ele>
      </trkpt>
      <trkpt lat="40.624994" lon="0.604819">
        <ele>1.5</ele>
      </trkpt>
      <trkpt lat="40.624946" lon="0.604813">
        <ele>1.3</ele>
      </trkpt>
      <trkpt lat="40.624916" lon="0.60481">
        <ele>1.3</ele>
      </trkpt>
      <trkpt lat="40.624881" lon="0.60482">
        <ele>1.5</ele>
      </trkpt>
      <trkpt lat="40.62485" lon="0.604837">
        <ele>1.5</ele>
      </trkpt>
      <trkpt lat="40.624831" lon="0.604855">
        <ele>1.6</ele>
      </trkpt>
      <trkpt lat="40.624816" lon="0.604879">
        <ele>1.6</ele>
      </trkpt>
      <trkpt lat="40.624737" lon="0.60507">
        <ele>2.0</ele>
      </trkpt>
      <trkpt lat="40.624713" lon="0.605051">
        <ele>2.3</ele>
      </trkpt>
      <trkpt lat="40.624666" lon="0.605012">
        <ele>2.3</ele>
      </trkpt>
      <trkpt lat="40.624655" lon="0.605004">
        <ele>2.2</ele>
      </trkpt>
      <trkpt lat="40.624366" lon="0.604773">
        <ele>1.0</ele>
      </trkpt>
      <trkpt lat="40.624078" lon="0.604543">
        <ele>0.9</ele>
      </trkpt>
      <trkpt lat="40.62379" lon="0.604312">
        <ele>0.6</ele>
      </trkpt>
      <trkpt lat="40.623501" lon="0.604081">
        <ele>0.7</ele>
      </trkpt>
      <trkpt lat="40.623324" lon="0.604022">
        <ele>1.3</ele>
      </trkpt>
      <trkpt lat="40.623315" lon="0.603973">
        <ele>1.4</ele>
      </trkpt>
      <trkpt lat="40.623233" lon="0.603472">
        <ele>1.2</ele>
      </trkpt>
      <trkpt lat="40.623151" lon="0.602971">
        <ele>1.2</ele>
      </trkpt>
      <trkpt lat="40.623138" lon="0.602892">
        <ele>1.3</ele>
      </trkpt>
      <trkpt lat="40.62306" lon="0.602525">
        <ele>1.1</ele>
      </trkpt>
      <trkpt lat="40.622982" lon="0.602157">
        <ele>1.2</ele>
      </trkpt>
      <trkpt lat="40.622862" lon="0.601695">
        <ele>1.1</ele>
      </trkpt>
      <trkpt lat="40.622743" lon="0.601232">
        <ele>1.1</ele>
      </trkpt>
      <trkpt lat="40.622623" lon="0.60077">
        <ele>1.1</ele>
      </trkpt>
      <trkpt lat="40.622503" lon="0.600308">
        <ele>1.2</ele>
      </trkpt>
      <trkpt lat="40.622465" lon="0.600127">
        <ele>1.2</ele>
        <name>Carretera de la Ràpita a Poblenou del Delta, Sant Carles de la Ràpita, Montsià</name>
        <extensions>
          <oa:Extension>
            <oa:mapZoom>17</oa:mapZoom>
          </oa:Extension>
        </extensions>
      </trkpt>
      <trkpt lat="40.622415" lon="0.599894">
        <ele>1.1</ele>
      </trkpt>
      <trkpt lat="40.622326" lon="0.599479">
        <ele>1.2</ele>
      </trkpt>
      <trkpt lat="40.622294" lon="0.59933">
        <ele>1.3</ele>
      </trkpt>
      <trkpt lat="40.622171" lon="0.599167">
        <ele>1.4</ele>
      </trkpt>
      <trkpt lat="40.621934" lon="0.599109">
        <ele>1.4</ele>
      </trkpt>
      <trkpt lat="40.621831" lon="0.599015">
        <ele>1.7</ele>
      </trkpt>
      <trkpt lat="40.621484" lon="0.598938">
        <ele>2.2</ele>
      </trkpt>
      <trkpt lat="40.621137" lon="0.59886">
        <ele>3.0</ele>
      </trkpt>
      <trkpt lat="40.620791" lon="0.598782">
        <ele>3.7</ele>
      </trkpt>
      <trkpt lat="40.620777" lon="0.59878">
        <ele>3.7</ele>
      </trkpt>
      <trkpt lat="40.620715" lon="0.598781">
        <ele>3.8</ele>
      </trkpt>
      <trkpt lat="40.620636" lon="0.598803">
        <ele>3.7</ele>
      </trkpt>
      <trkpt lat="40.620423" lon="0.598905">
        <ele>3.7</ele>
      </trkpt>
      <trkpt lat="40.620373" lon="0.598923">
        <ele>3.8</ele>
      </trkpt>
      <trkpt lat="40.620328" lon="0.598925">
        <ele>3.9</ele>
      </trkpt>
      <trkpt lat="40.620291" lon="0.598914">
        <ele>3.9</ele>
      </trkpt>
      <trkpt lat="40.620268" lon="0.598902">
        <ele>4.0</ele>
      </trkpt>
      <trkpt lat="40.62024" lon="0.59888">
        <ele>4.0</ele>
      </trkpt>
      <trkpt lat="40.620215" lon="0.598848">
        <ele>4.1</ele>
      </trkpt>
      <trkpt lat="40.620198" lon="0.598808">
        <ele>4.3</ele>
      </trkpt>
      <trkpt lat="40.620177" lon="0.598743">
        <ele>2.2</ele>
      </trkpt>
      <trkpt lat="40.620147" lon="0.598641">
        <ele>1.7</ele>
      </trkpt>
      <trkpt lat="40.620036" lon="0.598254">
        <ele>2.6</ele>
      </trkpt>
      <trkpt lat="40.620002" lon="0.598137">
        <ele>2.4</ele>
      </trkpt>
      <trkpt lat="40.619978" lon="0.598057">
        <ele>2.5</ele>
      </trkpt>
      <trkpt lat="40.619916" lon="0.597868">
        <ele>1.7</ele>
      </trkpt>
      <trkpt lat="40.619882" lon="0.597808">
        <ele>1.6</ele>
      </trkpt>
      <trkpt lat="40.619828" lon="0.597736">
        <ele>1.5</ele>
      </trkpt>
      <trkpt lat="40.61974" lon="0.597613">
        <ele>1.5</ele>
      </trkpt>
      <trkpt lat="40.619668" lon="0.597512">
        <ele>1.6</ele>
      </trkpt>
      <trkpt lat="40.619418" lon="0.597163">
        <ele>1.6</ele>
      </trkpt>
      <trkpt lat="40.619168" lon="0.596815">
        <ele>1.6</ele>
      </trkpt>
      <trkpt lat="40.618918" lon="0.596467">
        <ele>1.5</ele>
      </trkpt>
      <trkpt lat="40.618785" lon="0.596285">
        <ele>1.5</ele>
      </trkpt>
      <trkpt lat="40.618828" lon="0.596232">
        <ele>1.4</ele>
      </trkpt>
      <trkpt lat="40.618919" lon="0.596121">
        <ele>1.1</ele>
      </trkpt>
      <trkpt lat="40.618996" lon="0.596089">
        <ele>0.8</ele>
      </trkpt>
      <trkpt lat="40.619048" lon="0.596075">
        <ele>0.9</ele>
      </trkpt>
      <trkpt lat="40.619045" lon="0.596056">
        <ele>0.9</ele>
      </trkpt>
      <trkpt lat="40.619044" lon="0.596036">
        <ele>0.9</ele>
      </trkpt>
      <trkpt lat="40.61905" lon="0.595994">
        <ele>1.0</ele>
      </trkpt>
      <trkpt lat="40.619066" lon="0.595956">
        <ele>1.0</ele>
      </trkpt>
      <trkpt lat="40.619091" lon="0.595927">
        <ele>1.0</ele>
      </trkpt>
      <trkpt lat="40.619122" lon="0.595911">
        <ele>1.0</ele>
      </trkpt>
      <trkpt lat="40.619154" lon="0.595909">
        <ele>1.0</ele>
      </trkpt>
      <trkpt lat="40.619167" lon="0.595912">
        <ele>1.0</ele>
      </trkpt>
      <trkpt lat="40.61918" lon="0.595918">
        <ele>1.0</ele>
      </trkpt>
      <trkpt lat="40.619189" lon="0.595882">
        <ele>1.1</ele>
      </trkpt>
      <trkpt lat="40.619292" lon="0.595493">
        <ele>1.3</ele>
      </trkpt>
      <trkpt lat="40.619328" lon="0.595349">
        <ele>1.4</ele>
      </trkpt>
      <trkpt lat="40.619416" lon="0.595083">
        <ele>1.7</ele>
      </trkpt>
      <trkpt lat="40.619516" lon="0.594735">
        <ele>2.0</ele>
      </trkpt>
      <trkpt lat="40.619616" lon="0.594387">
        <ele>2.8</ele>
      </trkpt>
      <trkpt lat="40.619783" lon="0.593847">
        <ele>5.8</ele>
      </trkpt>
      <trkpt lat="40.619645" lon="0.593753">
        <ele>6.0</ele>
      </trkpt>
      <trkpt lat="40.619738" lon="0.593532">
        <ele>6.8</ele>
      </trkpt>
      <trkpt lat="40.619901" lon="0.593129">
        <ele>8.1</ele>
        <name>Plaça d&apos;Espanya &quot;El Cóc&quot;, Sant Carles de la Ràpita, Montsià</name>
        <extensions>
          <oa:Extension>
            <oa:mapZoom>17</oa:mapZoom>
          </oa:Extension>
        </extensions>
      </trkpt>
      <trkpt lat="40.619916" lon="0.593092">
        <ele>8.2</ele>
      </trkpt>
      <trkpt lat="40.619967" lon="0.592997">
        <ele>8.2</ele>
      </trkpt>
      <trkpt lat="40.619977" lon="0.592923">
        <ele>8.5</ele>
      </trkpt>
      <trkpt lat="40.620023" lon="0.592864">
        <ele>9.2</ele>
      </trkpt>
      <trkpt lat="40.62006" lon="0.592805">
        <ele>9.5</ele>
      </trkpt>
      <trkpt lat="40.620099" lon="0.592733">
        <ele>9.5</ele>
      </trkpt>
      <trkpt lat="40.620103" lon="0.59265">
        <ele>9.7</ele>
      </trkpt>
      <trkpt lat="40.620124" lon="0.592549">
        <ele>10.3</ele>
      </trkpt>
      <trkpt lat="40.620258" lon="0.592045">
        <ele>11.3</ele>
      </trkpt>
      <trkpt lat="40.620313" lon="0.591831">
        <ele>11.6</ele>
        <name>N-340a, Sant Carles de la Ràpita, Montsià</name>
        <extensions>
          <oa:Extension>
            <oa:mapZoom>17</oa:mapZoom>
          </oa:Extension>
        </extensions>
      </trkpt>
      <trkpt lat="40.620345" lon="0.591704">
        <ele>11.9</ele>
      </trkpt>
      <trkpt lat="40.620379" lon="0.591577">
        <ele>12.2</ele>
      </trkpt>
      <trkpt lat="40.62045" lon="0.591516">
        <ele>11.9</ele>
      </trkpt>
      <trkpt lat="40.620492" lon="0.591481">
        <ele>11.7</ele>
      </trkpt>
      <trkpt lat="40.620528" lon="0.591392">
        <ele>11.7</ele>
      </trkpt>
      <trkpt lat="40.62075" lon="0.591294">
        <ele>11.4</ele>
      </trkpt>
      <trkpt lat="40.620973" lon="0.591196">
        <ele>11.6</ele>
      </trkpt>
      <trkpt lat="40.621356" lon="0.591036">
        <ele>11.9</ele>
      </trkpt>
      <trkpt lat="40.621739" lon="0.590877">
        <ele>12.3</ele>
      </trkpt>
      <trkpt lat="40.621754" lon="0.590871">
        <ele>12.3</ele>
        <name>Carrer del Marques de Vallerra, Sant Carles de la Ràpita, Montsià</name>
        <extensions>
          <oa:Extension>
            <oa:mapZoom>17</oa:mapZoom>
          </oa:Extension>
        </extensions>
      </trkpt>
      <trkpt lat="40.621806" lon="0.59085">
        <ele>12.3</ele>
      </trkpt>
      <trkpt lat="40.621839" lon="0.590835">
        <ele>12.3</ele>
      </trkpt>
      <trkpt lat="40.621851" lon="0.590864">
        <ele>12.2</ele>
      </trkpt>
      <trkpt lat="40.621864" lon="0.590864">
        <ele>12.2</ele>
      </trkpt>
      <trkpt lat="40.621891" lon="0.590861">
        <ele>12.3</ele>
      </trkpt>
      <trkpt lat="40.621965" lon="0.590836">
        <ele>12.5</ele>
      </trkpt>
      <trkpt lat="40.621992" lon="0.59083">
        <ele>12.6</ele>
      </trkpt>
      <trkpt lat="40.621998" lon="0.590808">
        <ele>12.7</ele>
      </trkpt>
      <trkpt lat="40.621994" lon="0.590773">
        <ele>12.7</ele>
      </trkpt>
      <trkpt lat="40.62199" lon="0.590759">
        <ele>12.7</ele>
      </trkpt>
      <trkpt lat="40.62198" lon="0.590746">
        <ele>12.7</ele>
      </trkpt>
      <trkpt lat="40.621964" lon="0.590739">
        <ele>12.7</ele>
      </trkpt>
      <trkpt lat="40.621979" lon="0.590629">
        <ele>12.9</ele>
      </trkpt>
      <trkpt lat="40.622016" lon="0.590544">
        <ele>13.1</ele>
      </trkpt>
      <trkpt lat="40.622016" lon="0.590542">
        <ele>13.1</ele>
        <name>la Ràpita - C. de Sant Joaquim, 27 (terminal d’autobusos), Sant Carles de la Ràpita, Montsià</name>
        <extensions>
          <oa:Extension>
            <oa:mapZoom>17</oa:mapZoom>
          </oa:Extension>
        </extensions>
      </trkpt>
    </trkseg>
  </trk>
</gpx>