<?xml version="1.0" encoding="UTF-8" standalone="yes"?>
<gpx version="1.1" creator="outdooractive - http://www.outdooractive.com" xmlns="http://www.topografix.com/GPX/1/1" xmlns:oa="http://www.outdooractive.com/GPX/Extensions/1" xmlns:xsi="http://www.w3.org/2001/XMLSchema-instance" xsi:schemaLocation="http://www.topografix.com/GPX/1/1 http://www.topografix.com/GPX/1/1/gpx.xsd http://www.outdooractive.com/GPX/Extensions/1 https://www.outdooractive.com/schema/gpx_extensions.xsd">
  <metadata>
    <name>GR92 E27 Cambrils–L&apos;Hospitalet de l&apos;Infant</name>
    <author>
      <name>Jari Tossavainen - Community</name>
    </author>
    <link href="https://www.outdooractive.com/r/353456543"/>
    <time>2026-09-21T11:45:10.965Z</time>
    <extensions>
      <oa:oaCategory>longDistanceHikingTrail</oa:oaCategory>
    </extensions>
  </metadata>
  <trk>
    <name>GR92 E27 Cambrils–L&apos;Hospitalet de l&apos;Infant</name>
    <type>longDistanceHikingTrail</type>
    <trkseg>
      <trkpt lat="41.081378" lon="1.045239">
        <ele>37.1</ele>
        <name>Cambrils, Cambrils, Baix Camp</name>
        <extensions>
          <oa:Extension>
            <oa:mapZoom>15</oa:mapZoom>
          </oa:Extension>
        </extensions>
      </trkpt>
      <trkpt lat="41.081438" lon="1.045457">
        <ele>37.1</ele>
      </trkpt>
      <trkpt lat="41.081502" lon="1.045688">
        <ele>37.2</ele>
      </trkpt>
      <trkpt lat="41.081587" lon="1.045993">
        <ele>36.4</ele>
      </trkpt>
      <trkpt lat="41.081596" lon="1.046025">
        <ele>36.3</ele>
      </trkpt>
      <trkpt lat="41.081671" lon="1.046279">
        <ele>36.8</ele>
      </trkpt>
      <trkpt lat="41.081639" lon="1.046329">
        <ele>36.7</ele>
      </trkpt>
      <trkpt lat="41.0816" lon="1.046376">
        <ele>36.4</ele>
      </trkpt>
      <trkpt lat="41.081566" lon="1.046404">
        <ele>36.2</ele>
      </trkpt>
      <trkpt lat="41.081333" lon="1.046517">
        <ele>35.2</ele>
      </trkpt>
      <trkpt lat="41.08121" lon="1.046574">
        <ele>34.8</ele>
      </trkpt>
      <trkpt lat="41.081134" lon="1.046624">
        <ele>34.5</ele>
      </trkpt>
      <trkpt lat="41.080955" lon="1.046767">
        <ele>34.1</ele>
      </trkpt>
      <trkpt lat="41.080562" lon="1.046997">
        <ele>33.5</ele>
      </trkpt>
      <trkpt lat="41.08017" lon="1.047227">
        <ele>32.7</ele>
      </trkpt>
      <trkpt lat="41.080038" lon="1.047286">
        <ele>32.5</ele>
      </trkpt>
      <trkpt lat="41.080012" lon="1.047321">
        <ele>32.3</ele>
      </trkpt>
      <trkpt lat="41.07998" lon="1.047345">
        <ele>32.2</ele>
      </trkpt>
      <trkpt lat="41.079944" lon="1.047356">
        <ele>32.2</ele>
      </trkpt>
      <trkpt lat="41.079908" lon="1.047353">
        <ele>32.3</ele>
      </trkpt>
      <trkpt lat="41.079806" lon="1.047429">
        <ele>32.2</ele>
      </trkpt>
      <trkpt lat="41.079479" lon="1.047628">
        <ele>31.4</ele>
      </trkpt>
      <trkpt lat="41.079346" lon="1.047731">
        <ele>31.3</ele>
      </trkpt>
      <trkpt lat="41.079109" lon="1.047987">
        <ele>30.7</ele>
      </trkpt>
      <trkpt lat="41.079052" lon="1.048064">
        <ele>30.6</ele>
      </trkpt>
      <trkpt lat="41.079008" lon="1.048125">
        <ele>30.5</ele>
      </trkpt>
      <trkpt lat="41.078834" lon="1.048363">
        <ele>30.1</ele>
      </trkpt>
      <trkpt lat="41.078659" lon="1.048601">
        <ele>29.6</ele>
      </trkpt>
      <trkpt lat="41.078593" lon="1.048684">
        <ele>29.5</ele>
      </trkpt>
      <trkpt lat="41.078326" lon="1.049045">
        <ele>29.0</ele>
      </trkpt>
      <trkpt lat="41.07806" lon="1.049407">
        <ele>28.3</ele>
      </trkpt>
      <trkpt lat="41.077793" lon="1.049769">
        <ele>27.6</ele>
      </trkpt>
      <trkpt lat="41.077526" lon="1.05013">
        <ele>27.1</ele>
      </trkpt>
      <trkpt lat="41.077262" lon="1.050487">
        <ele>26.3</ele>
      </trkpt>
      <trkpt lat="41.077048" lon="1.050776">
        <ele>25.9</ele>
        <name>Cambrils, Baix Camp</name>
        <extensions>
          <oa:Extension>
            <oa:mapZoom>15</oa:mapZoom>
          </oa:Extension>
        </extensions>
      </trkpt>
      <trkpt lat="41.076998" lon="1.050844">
        <ele>25.8</ele>
      </trkpt>
      <trkpt lat="41.076733" lon="1.0512">
        <ele>24.9</ele>
      </trkpt>
      <trkpt lat="41.076616" lon="1.051345">
        <ele>24.9</ele>
      </trkpt>
      <trkpt lat="41.076503" lon="1.051467">
        <ele>24.7</ele>
      </trkpt>
      <trkpt lat="41.076498" lon="1.051488">
        <ele>24.7</ele>
      </trkpt>
      <trkpt lat="41.076491" lon="1.051507">
        <ele>24.7</ele>
      </trkpt>
      <trkpt lat="41.076509" lon="1.051664">
        <ele>23.6</ele>
      </trkpt>
      <trkpt lat="41.076626" lon="1.051939">
        <ele>23.2</ele>
      </trkpt>
      <trkpt lat="41.076636" lon="1.052024">
        <ele>24.4</ele>
      </trkpt>
      <trkpt lat="41.076629" lon="1.052036">
        <ele>24.3</ele>
      </trkpt>
      <trkpt lat="41.076623" lon="1.05205">
        <ele>24.2</ele>
      </trkpt>
      <trkpt lat="41.076619" lon="1.052064">
        <ele>24.1</ele>
      </trkpt>
      <trkpt lat="41.076616" lon="1.05208">
        <ele>24.1</ele>
      </trkpt>
      <trkpt lat="41.076615" lon="1.052095">
        <ele>24.1</ele>
      </trkpt>
      <trkpt lat="41.076512" lon="1.052246">
        <ele>23.9</ele>
      </trkpt>
      <trkpt lat="41.076264" lon="1.052583">
        <ele>23.2</ele>
      </trkpt>
      <trkpt lat="41.076015" lon="1.05292">
        <ele>22.7</ele>
      </trkpt>
      <trkpt lat="41.075767" lon="1.053257">
        <ele>22.0</ele>
      </trkpt>
      <trkpt lat="41.075517" lon="1.053649">
        <ele>21.5</ele>
      </trkpt>
      <trkpt lat="41.075469" lon="1.053711">
        <ele>21.4</ele>
      </trkpt>
      <trkpt lat="41.075229" lon="1.053986">
        <ele>20.8</ele>
      </trkpt>
      <trkpt lat="41.075178" lon="1.054044">
        <ele>20.6</ele>
      </trkpt>
      <trkpt lat="41.07485" lon="1.054312">
        <ele>20.5</ele>
      </trkpt>
      <trkpt lat="41.074802" lon="1.054335">
        <ele>20.7</ele>
      </trkpt>
      <trkpt lat="41.074762" lon="1.054352">
        <ele>20.9</ele>
      </trkpt>
      <trkpt lat="41.07473" lon="1.054357">
        <ele>21.0</ele>
      </trkpt>
      <trkpt lat="41.074733" lon="1.054383">
        <ele>20.9</ele>
      </trkpt>
      <trkpt lat="41.074732" lon="1.054434">
        <ele>20.7</ele>
      </trkpt>
      <trkpt lat="41.074723" lon="1.054489">
        <ele>20.6</ele>
      </trkpt>
      <trkpt lat="41.074712" lon="1.054522">
        <ele>20.6</ele>
      </trkpt>
      <trkpt lat="41.074693" lon="1.054555">
        <ele>20.6</ele>
      </trkpt>
      <trkpt lat="41.074664" lon="1.054583">
        <ele>20.5</ele>
      </trkpt>
      <trkpt lat="41.074622" lon="1.054606">
        <ele>20.2</ele>
      </trkpt>
      <trkpt lat="41.074582" lon="1.054613">
        <ele>20.2</ele>
      </trkpt>
      <trkpt lat="41.074551" lon="1.054604">
        <ele>20.2</ele>
      </trkpt>
      <trkpt lat="41.074524" lon="1.054588">
        <ele>20.2</ele>
      </trkpt>
      <trkpt lat="41.074501" lon="1.054572">
        <ele>20.2</ele>
      </trkpt>
      <trkpt lat="41.074427" lon="1.054614">
        <ele>19.9</ele>
      </trkpt>
      <trkpt lat="41.074387" lon="1.054639">
        <ele>19.8</ele>
      </trkpt>
      <trkpt lat="41.07437" lon="1.054591">
        <ele>19.5</ele>
      </trkpt>
      <trkpt lat="41.074186" lon="1.054712">
        <ele>18.9</ele>
      </trkpt>
      <trkpt lat="41.073797" lon="1.054938">
        <ele>17.3</ele>
      </trkpt>
      <trkpt lat="41.073409" lon="1.055164">
        <ele>17.1</ele>
      </trkpt>
      <trkpt lat="41.073021" lon="1.055413">
        <ele>16.2</ele>
      </trkpt>
      <trkpt lat="41.072752" lon="1.055613">
        <ele>15.0</ele>
      </trkpt>
      <trkpt lat="41.072739" lon="1.055616">
        <ele>14.9</ele>
      </trkpt>
      <trkpt lat="41.072731" lon="1.055617">
        <ele>14.8</ele>
      </trkpt>
      <trkpt lat="41.072704" lon="1.055597">
        <ele>14.5</ele>
      </trkpt>
      <trkpt lat="41.072682" lon="1.055618">
        <ele>14.6</ele>
      </trkpt>
      <trkpt lat="41.072623" lon="1.055663">
        <ele>14.7</ele>
      </trkpt>
      <trkpt lat="41.0726" lon="1.055681">
        <ele>14.4</ele>
      </trkpt>
      <trkpt lat="41.072619" lon="1.055729">
        <ele>15.2</ele>
      </trkpt>
      <trkpt lat="41.072331" lon="1.055888">
        <ele>14.6</ele>
      </trkpt>
      <trkpt lat="41.072044" lon="1.056046">
        <ele>14.8</ele>
      </trkpt>
      <trkpt lat="41.071705" lon="1.056083">
        <ele>13.8</ele>
      </trkpt>
      <trkpt lat="41.071415" lon="1.05606">
        <ele>13.4</ele>
      </trkpt>
      <trkpt lat="41.071355" lon="1.056062">
        <ele>13.8</ele>
      </trkpt>
      <trkpt lat="41.071294" lon="1.05607">
        <ele>13.3</ele>
      </trkpt>
      <trkpt lat="41.070972" lon="1.05609">
        <ele>12.3</ele>
      </trkpt>
      <trkpt lat="41.070649" lon="1.056111">
        <ele>11.9</ele>
      </trkpt>
      <trkpt lat="41.070327" lon="1.056132">
        <ele>11.3</ele>
      </trkpt>
      <trkpt lat="41.070076" lon="1.056149">
        <ele>10.7</ele>
      </trkpt>
      <trkpt lat="41.069825" lon="1.056167">
        <ele>10.5</ele>
      </trkpt>
      <trkpt lat="41.069469" lon="1.056189">
        <ele>8.7</ele>
      </trkpt>
      <trkpt lat="41.06918" lon="1.056213">
        <ele>8.6</ele>
      </trkpt>
      <trkpt lat="41.069043" lon="1.056223">
        <ele>8.9</ele>
      </trkpt>
      <trkpt lat="41.068736" lon="1.056238">
        <ele>8.5</ele>
      </trkpt>
      <trkpt lat="41.068512" lon="1.056251">
        <ele>8.8</ele>
      </trkpt>
      <trkpt lat="41.068245" lon="1.056214">
        <ele>8.8</ele>
      </trkpt>
      <trkpt lat="41.067977" lon="1.056178">
        <ele>8.2</ele>
      </trkpt>
      <trkpt lat="41.067745" lon="1.056152">
        <ele>8.0</ele>
      </trkpt>
      <trkpt lat="41.067602" lon="1.056159">
        <ele>8.0</ele>
      </trkpt>
      <trkpt lat="41.067449" lon="1.056193">
        <ele>7.6</ele>
      </trkpt>
      <trkpt lat="41.067306" lon="1.056182">
        <ele>7.4</ele>
      </trkpt>
      <trkpt lat="41.067098" lon="1.056111">
        <ele>7.4</ele>
      </trkpt>
      <trkpt lat="41.06706" lon="1.056103">
        <ele>7.4</ele>
      </trkpt>
      <trkpt lat="41.067007" lon="1.056091">
        <ele>7.4</ele>
      </trkpt>
      <trkpt lat="41.066942" lon="1.056076">
        <ele>7.3</ele>
      </trkpt>
      <trkpt lat="41.066643" lon="1.056029">
        <ele>6.4</ele>
      </trkpt>
      <trkpt lat="41.066344" lon="1.055982">
        <ele>5.6</ele>
      </trkpt>
      <trkpt lat="41.066035" lon="1.055935">
        <ele>5.0</ele>
      </trkpt>
      <trkpt lat="41.065726" lon="1.055888">
        <ele>4.5</ele>
      </trkpt>
      <trkpt lat="41.065556" lon="1.055861">
        <ele>4.3</ele>
      </trkpt>
      <trkpt lat="41.06533" lon="1.055824">
        <ele>4.2</ele>
      </trkpt>
      <trkpt lat="41.065103" lon="1.055788">
        <ele>3.9</ele>
      </trkpt>
      <trkpt lat="41.064752" lon="1.055735">
        <ele>3.7</ele>
      </trkpt>
      <trkpt lat="41.064402" lon="1.055683">
        <ele>4.0</ele>
      </trkpt>
      <trkpt lat="41.064292" lon="1.055661">
        <ele>4.1</ele>
      </trkpt>
      <trkpt lat="41.064238" lon="1.05565">
        <ele>4.2</ele>
      </trkpt>
      <trkpt lat="41.064245" lon="1.055589">
        <ele>4.0</ele>
      </trkpt>
      <trkpt lat="41.064256" lon="1.055509">
        <ele>1.9</ele>
      </trkpt>
      <trkpt lat="41.064288" lon="1.055197">
        <ele>2.6</ele>
      </trkpt>
      <trkpt lat="41.064291" lon="1.055178">
        <ele>3.1</ele>
      </trkpt>
      <trkpt lat="41.064289" lon="1.054934">
        <ele>3.4</ele>
      </trkpt>
      <trkpt lat="41.064264" lon="1.054616">
        <ele>1.9</ele>
      </trkpt>
      <trkpt lat="41.06425" lon="1.054477">
        <ele>2.0</ele>
      </trkpt>
      <trkpt lat="41.064233" lon="1.054244">
        <ele>2.1</ele>
      </trkpt>
      <trkpt lat="41.064235" lon="1.054164">
        <ele>2.3</ele>
      </trkpt>
      <trkpt lat="41.064246" lon="1.054084">
        <ele>2.3</ele>
      </trkpt>
      <trkpt lat="41.064264" lon="1.054024">
        <ele>2.3</ele>
      </trkpt>
      <trkpt lat="41.064287" lon="1.053984">
        <ele>2.3</ele>
      </trkpt>
      <trkpt lat="41.06432" lon="1.053942">
        <ele>2.3</ele>
      </trkpt>
      <trkpt lat="41.064385" lon="1.053882">
        <ele>2.3</ele>
      </trkpt>
      <trkpt lat="41.064431" lon="1.053841">
        <ele>2.3</ele>
      </trkpt>
      <trkpt lat="41.064448" lon="1.053789">
        <ele>2.2</ele>
      </trkpt>
      <trkpt lat="41.064584" lon="1.053343">
        <ele>1.9</ele>
      </trkpt>
      <trkpt lat="41.064756" lon="1.052935">
        <ele>2.1</ele>
      </trkpt>
      <trkpt lat="41.06477" lon="1.052459">
        <ele>2.2</ele>
      </trkpt>
      <trkpt lat="41.064777" lon="1.052241">
        <ele>2.3</ele>
        <name>Passeig Marítim, Cambrils, Baix Camp</name>
        <extensions>
          <oa:Extension>
            <oa:mapZoom>15</oa:mapZoom>
          </oa:Extension>
        </extensions>
      </trkpt>
      <trkpt lat="41.064784" lon="1.051984">
        <ele>2.5</ele>
      </trkpt>
      <trkpt lat="41.064787" lon="1.0517">
        <ele>2.9</ele>
      </trkpt>
      <trkpt lat="41.064792" lon="1.051332">
        <ele>3.8</ele>
      </trkpt>
      <trkpt lat="41.0648" lon="1.051001">
        <ele>3.8</ele>
      </trkpt>
      <trkpt lat="41.064696" lon="1.050475">
        <ele>3.5</ele>
      </trkpt>
      <trkpt lat="41.064627" lon="1.050186">
        <ele>3.3</ele>
      </trkpt>
      <trkpt lat="41.064557" lon="1.049898">
        <ele>3.0</ele>
      </trkpt>
      <trkpt lat="41.064437" lon="1.049459">
        <ele>2.7</ele>
      </trkpt>
      <trkpt lat="41.064316" lon="1.0491">
        <ele>2.2</ele>
      </trkpt>
      <trkpt lat="41.064254" lon="1.048968">
        <ele>2.2</ele>
      </trkpt>
      <trkpt lat="41.064102" lon="1.048601">
        <ele>2.5</ele>
      </trkpt>
      <trkpt lat="41.063988" lon="1.048281">
        <ele>2.6</ele>
      </trkpt>
      <trkpt lat="41.063855" lon="1.047904">
        <ele>2.6</ele>
      </trkpt>
      <trkpt lat="41.063783" lon="1.047707">
        <ele>2.6</ele>
      </trkpt>
      <trkpt lat="41.063747" lon="1.047609">
        <ele>2.6</ele>
      </trkpt>
      <trkpt lat="41.063645" lon="1.047301">
        <ele>2.6</ele>
      </trkpt>
      <trkpt lat="41.06349" lon="1.04687">
        <ele>2.6</ele>
      </trkpt>
      <trkpt lat="41.063395" lon="1.046696">
        <ele>2.3</ele>
      </trkpt>
      <trkpt lat="41.063359" lon="1.046619">
        <ele>2.2</ele>
      </trkpt>
      <trkpt lat="41.063353" lon="1.046483">
        <ele>2.3</ele>
      </trkpt>
      <trkpt lat="41.063376" lon="1.046344">
        <ele>2.4</ele>
      </trkpt>
      <trkpt lat="41.06338" lon="1.046187">
        <ele>2.4</ele>
      </trkpt>
      <trkpt lat="41.063372" lon="1.04611">
        <ele>2.4</ele>
      </trkpt>
      <trkpt lat="41.063355" lon="1.046013">
        <ele>2.4</ele>
      </trkpt>
      <trkpt lat="41.063299" lon="1.04589">
        <ele>2.4</ele>
      </trkpt>
      <trkpt lat="41.06315" lon="1.045628">
        <ele>2.5</ele>
      </trkpt>
      <trkpt lat="41.063002" lon="1.045365">
        <ele>2.6</ele>
      </trkpt>
      <trkpt lat="41.062841" lon="1.045086">
        <ele>2.7</ele>
      </trkpt>
      <trkpt lat="41.062629" lon="1.044741">
        <ele>2.7</ele>
      </trkpt>
      <trkpt lat="41.062532" lon="1.044663">
        <ele>2.8</ele>
      </trkpt>
      <trkpt lat="41.062432" lon="1.044639">
        <ele>2.8</ele>
      </trkpt>
      <trkpt lat="41.062325" lon="1.044605">
        <ele>3.0</ele>
      </trkpt>
      <trkpt lat="41.062231" lon="1.044519">
        <ele>3.1</ele>
      </trkpt>
      <trkpt lat="41.061974" lon="1.044165">
        <ele>3.0</ele>
      </trkpt>
      <trkpt lat="41.061766" lon="1.043905">
        <ele>2.8</ele>
      </trkpt>
      <trkpt lat="41.061559" lon="1.043644">
        <ele>2.6</ele>
      </trkpt>
      <trkpt lat="41.061457" lon="1.043526">
        <ele>2.7</ele>
      </trkpt>
      <trkpt lat="41.06158" lon="1.043115">
        <ele>2.8</ele>
      </trkpt>
      <trkpt lat="41.061638" lon="1.042872">
        <ele>2.8</ele>
      </trkpt>
      <trkpt lat="41.061657" lon="1.042793">
        <ele>2.9</ele>
      </trkpt>
      <trkpt lat="41.061635" lon="1.042678">
        <ele>2.9</ele>
      </trkpt>
      <trkpt lat="41.06166" lon="1.042535">
        <ele>2.9</ele>
      </trkpt>
      <trkpt lat="41.061672" lon="1.042078">
        <ele>3.0</ele>
      </trkpt>
      <trkpt lat="41.061648" lon="1.041851">
        <ele>3.1</ele>
      </trkpt>
      <trkpt lat="41.061593" lon="1.041509">
        <ele>3.1</ele>
      </trkpt>
      <trkpt lat="41.061569" lon="1.041378">
        <ele>3.2</ele>
      </trkpt>
      <trkpt lat="41.061536" lon="1.041255">
        <ele>3.2</ele>
      </trkpt>
      <trkpt lat="41.061388" lon="1.04085">
        <ele>3.4</ele>
      </trkpt>
      <trkpt lat="41.061267" lon="1.040605">
        <ele>3.3</ele>
      </trkpt>
      <trkpt lat="41.061092" lon="1.040356">
        <ele>3.4</ele>
      </trkpt>
      <trkpt lat="41.060918" lon="1.040106">
        <ele>3.5</ele>
      </trkpt>
      <trkpt lat="41.060847" lon="1.040007">
        <ele>3.5</ele>
      </trkpt>
      <trkpt lat="41.06059" lon="1.039727">
        <ele>3.4</ele>
      </trkpt>
      <trkpt lat="41.060402" lon="1.039545">
        <ele>3.4</ele>
      </trkpt>
      <trkpt lat="41.060094" lon="1.039343">
        <ele>3.1</ele>
      </trkpt>
      <trkpt lat="41.059984" lon="1.039271">
        <ele>3.1</ele>
      </trkpt>
      <trkpt lat="41.05982" lon="1.039202">
        <ele>3.1</ele>
      </trkpt>
      <trkpt lat="41.059783" lon="1.03916">
        <ele>3.1</ele>
      </trkpt>
      <trkpt lat="41.059639" lon="1.038826">
        <ele>2.9</ele>
      </trkpt>
      <trkpt lat="41.0595" lon="1.038488">
        <ele>2.8</ele>
      </trkpt>
      <trkpt lat="41.059435" lon="1.038429">
        <ele>2.7</ele>
      </trkpt>
      <trkpt lat="41.059356" lon="1.03842">
        <ele>2.4</ele>
      </trkpt>
      <trkpt lat="41.059289" lon="1.038376">
        <ele>2.5</ele>
      </trkpt>
      <trkpt lat="41.059236" lon="1.038293">
        <ele>1.8</ele>
      </trkpt>
      <trkpt lat="41.05915" lon="1.037971">
        <ele>2.7</ele>
      </trkpt>
      <trkpt lat="41.059012" lon="1.037526">
        <ele>2.5</ele>
      </trkpt>
      <trkpt lat="41.058875" lon="1.037081">
        <ele>2.6</ele>
      </trkpt>
      <trkpt lat="41.05875" lon="1.036623">
        <ele>2.5</ele>
      </trkpt>
      <trkpt lat="41.058626" lon="1.036165">
        <ele>2.4</ele>
      </trkpt>
      <trkpt lat="41.058501" lon="1.035708">
        <ele>2.5</ele>
      </trkpt>
      <trkpt lat="41.058624" lon="1.035469">
        <ele>2.6</ele>
      </trkpt>
      <trkpt lat="41.05852" lon="1.035038">
        <ele>2.4</ele>
      </trkpt>
      <trkpt lat="41.058489" lon="1.034915">
        <ele>2.3</ele>
      </trkpt>
      <trkpt lat="41.058302" lon="1.034398">
        <ele>2.2</ele>
      </trkpt>
      <trkpt lat="41.058278" lon="1.034316">
        <ele>2.2</ele>
      </trkpt>
      <trkpt lat="41.058108" lon="1.033965">
        <ele>2.2</ele>
      </trkpt>
      <trkpt lat="41.057994" lon="1.033897">
        <ele>2.0</ele>
      </trkpt>
      <trkpt lat="41.057968" lon="1.033831">
        <ele>2.0</ele>
      </trkpt>
      <trkpt lat="41.057933" lon="1.033746">
        <ele>2.1</ele>
      </trkpt>
      <trkpt lat="41.057824" lon="1.033456">
        <ele>2.1</ele>
      </trkpt>
      <trkpt lat="41.057714" lon="1.033166">
        <ele>2.0</ele>
      </trkpt>
      <trkpt lat="41.057692" lon="1.033109">
        <ele>2.0</ele>
      </trkpt>
      <trkpt lat="41.057618" lon="1.03292">
        <ele>2.0</ele>
      </trkpt>
      <trkpt lat="41.057565" lon="1.032737">
        <ele>2.1</ele>
      </trkpt>
      <trkpt lat="41.057458" lon="1.03245">
        <ele>2.1</ele>
      </trkpt>
      <trkpt lat="41.057435" lon="1.032223">
        <ele>2.1</ele>
      </trkpt>
      <trkpt lat="41.057418" lon="1.031727">
        <ele>2.2</ele>
      </trkpt>
      <trkpt lat="41.057404" lon="1.031634">
        <ele>2.2</ele>
      </trkpt>
      <trkpt lat="41.057313" lon="1.031283">
        <ele>2.1</ele>
      </trkpt>
      <trkpt lat="41.057293" lon="1.031219">
        <ele>2.3</ele>
      </trkpt>
      <trkpt lat="41.057229" lon="1.031015">
        <ele>2.3</ele>
      </trkpt>
      <trkpt lat="41.057096" lon="1.030658">
        <ele>2.2</ele>
      </trkpt>
      <trkpt lat="41.057" lon="1.030468">
        <ele>2.2</ele>
      </trkpt>
      <trkpt lat="41.056948" lon="1.030394">
        <ele>2.2</ele>
      </trkpt>
      <trkpt lat="41.056659" lon="1.030004">
        <ele>2.3</ele>
      </trkpt>
      <trkpt lat="41.056569" lon="1.029879">
        <ele>2.4</ele>
      </trkpt>
      <trkpt lat="41.056512" lon="1.029767">
        <ele>2.5</ele>
      </trkpt>
      <trkpt lat="41.056447" lon="1.029638">
        <ele>2.6</ele>
      </trkpt>
      <trkpt lat="41.056355" lon="1.029428">
        <ele>2.7</ele>
      </trkpt>
      <trkpt lat="41.056196" lon="1.029136">
        <ele>3.0</ele>
      </trkpt>
      <trkpt lat="41.05614" lon="1.029037">
        <ele>3.0</ele>
      </trkpt>
      <trkpt lat="41.055858" lon="1.028604">
        <ele>3.0</ele>
      </trkpt>
      <trkpt lat="41.055619" lon="1.028287">
        <ele>2.6</ele>
      </trkpt>
      <trkpt lat="41.055603" lon="1.028263">
        <ele>2.6</ele>
      </trkpt>
      <trkpt lat="41.055564" lon="1.028205">
        <ele>2.5</ele>
      </trkpt>
      <trkpt lat="41.055504" lon="1.028137">
        <ele>2.4</ele>
      </trkpt>
      <trkpt lat="41.055448" lon="1.028073">
        <ele>2.5</ele>
      </trkpt>
      <trkpt lat="41.055335" lon="1.027944">
        <ele>2.6</ele>
      </trkpt>
      <trkpt lat="41.055137" lon="1.027461">
        <ele>2.5</ele>
      </trkpt>
      <trkpt lat="41.054939" lon="1.026977">
        <ele>2.5</ele>
      </trkpt>
      <trkpt lat="41.054822" lon="1.02672">
        <ele>2.6</ele>
      </trkpt>
      <trkpt lat="41.054704" lon="1.026464">
        <ele>2.5</ele>
      </trkpt>
      <trkpt lat="41.054494" lon="1.026006">
        <ele>2.4</ele>
      </trkpt>
      <trkpt lat="41.054444" lon="1.025909">
        <ele>2.3</ele>
      </trkpt>
      <trkpt lat="41.054284" lon="1.025633">
        <ele>2.5</ele>
      </trkpt>
      <trkpt lat="41.054103" lon="1.025441">
        <ele>2.6</ele>
      </trkpt>
      <trkpt lat="41.054034" lon="1.025269">
        <ele>2.6</ele>
      </trkpt>
      <trkpt lat="41.053948" lon="1.02511">
        <ele>2.7</ele>
      </trkpt>
      <trkpt lat="41.053715" lon="1.024807">
        <ele>2.7</ele>
      </trkpt>
      <trkpt lat="41.053651" lon="1.024765">
        <ele>2.6</ele>
      </trkpt>
      <trkpt lat="41.053575" lon="1.024687">
        <ele>2.6</ele>
      </trkpt>
      <trkpt lat="41.053491" lon="1.02459">
        <ele>2.6</ele>
      </trkpt>
      <trkpt lat="41.053215" lon="1.02422">
        <ele>2.6</ele>
      </trkpt>
      <trkpt lat="41.052954" lon="1.023862">
        <ele>2.6</ele>
      </trkpt>
      <trkpt lat="41.052743" lon="1.023543">
        <ele>2.6</ele>
      </trkpt>
      <trkpt lat="41.052609" lon="1.023378">
        <ele>2.3</ele>
      </trkpt>
      <trkpt lat="41.052547" lon="1.023269">
        <ele>2.3</ele>
      </trkpt>
      <trkpt lat="41.052538" lon="1.023132">
        <ele>2.5</ele>
      </trkpt>
      <trkpt lat="41.052472" lon="1.023146">
        <ele>2.6</ele>
      </trkpt>
      <trkpt lat="41.052431" lon="1.023083">
        <ele>2.0</ele>
      </trkpt>
      <trkpt lat="41.05229" lon="1.022922">
        <ele>1.0</ele>
      </trkpt>
      <trkpt lat="41.052135" lon="1.022767">
        <ele>1.0</ele>
        <name>Riera de Riudecanyes, Mont-roig del Camp, Baix Camp</name>
        <extensions>
          <oa:Extension>
            <oa:mapZoom>15</oa:mapZoom>
          </oa:Extension>
        </extensions>
      </trkpt>
      <trkpt lat="41.051988" lon="1.022619">
        <ele>1.1</ele>
      </trkpt>
      <trkpt lat="41.051951" lon="1.022587">
        <ele>1.3</ele>
      </trkpt>
      <trkpt lat="41.051929" lon="1.022451">
        <ele>1.2</ele>
      </trkpt>
      <trkpt lat="41.051927" lon="1.022318">
        <ele>1.3</ele>
      </trkpt>
      <trkpt lat="41.052033" lon="1.022274">
        <ele>1.3</ele>
      </trkpt>
      <trkpt lat="41.05209" lon="1.022248">
        <ele>1.3</ele>
      </trkpt>
      <trkpt lat="41.052164" lon="1.022288">
        <ele>1.4</ele>
      </trkpt>
      <trkpt lat="41.052258" lon="1.022283">
        <ele>1.6</ele>
      </trkpt>
      <trkpt lat="41.052384" lon="1.022227">
        <ele>1.6</ele>
      </trkpt>
      <trkpt lat="41.052661" lon="1.021926">
        <ele>3.0</ele>
      </trkpt>
      <trkpt lat="41.052895" lon="1.021618">
        <ele>2.7</ele>
      </trkpt>
      <trkpt lat="41.053186" lon="1.021273">
        <ele>2.6</ele>
      </trkpt>
      <trkpt lat="41.053477" lon="1.020927">
        <ele>2.9</ele>
      </trkpt>
      <trkpt lat="41.053667" lon="1.020711">
        <ele>2.7</ele>
      </trkpt>
      <trkpt lat="41.053857" lon="1.020495">
        <ele>3.0</ele>
      </trkpt>
      <trkpt lat="41.054005" lon="1.020272">
        <ele>3.5</ele>
      </trkpt>
      <trkpt lat="41.054107" lon="1.019994">
        <ele>5.5</ele>
      </trkpt>
      <trkpt lat="41.054115" lon="1.019853">
        <ele>5.9</ele>
      </trkpt>
      <trkpt lat="41.05428" lon="1.019703">
        <ele>6.2</ele>
      </trkpt>
      <trkpt lat="41.054452" lon="1.019461">
        <ele>6.3</ele>
      </trkpt>
      <trkpt lat="41.054705" lon="1.018986">
        <ele>7.0</ele>
      </trkpt>
      <trkpt lat="41.05485" lon="1.018748">
        <ele>7.4</ele>
      </trkpt>
      <trkpt lat="41.054994" lon="1.018509">
        <ele>7.9</ele>
      </trkpt>
      <trkpt lat="41.055222" lon="1.018203">
        <ele>8.6</ele>
      </trkpt>
      <trkpt lat="41.05545" lon="1.017896">
        <ele>8.8</ele>
      </trkpt>
      <trkpt lat="41.055611" lon="1.017593">
        <ele>9.4</ele>
      </trkpt>
      <trkpt lat="41.055715" lon="1.017304">
        <ele>9.9</ele>
      </trkpt>
      <trkpt lat="41.055751" lon="1.017223">
        <ele>9.7</ele>
      </trkpt>
      <trkpt lat="41.055663" lon="1.017159">
        <ele>10.2</ele>
      </trkpt>
      <trkpt lat="41.055586" lon="1.017063">
        <ele>10.8</ele>
      </trkpt>
      <trkpt lat="41.055429" lon="1.016634">
        <ele>11.7</ele>
      </trkpt>
      <trkpt lat="41.055271" lon="1.016204">
        <ele>12.2</ele>
      </trkpt>
      <trkpt lat="41.055162" lon="1.016038">
        <ele>12.5</ele>
      </trkpt>
      <trkpt lat="41.054883" lon="1.01584">
        <ele>12.0</ele>
      </trkpt>
      <trkpt lat="41.054591" lon="1.016196">
        <ele>10.9</ele>
      </trkpt>
      <trkpt lat="41.0543" lon="1.016552">
        <ele>10.1</ele>
      </trkpt>
      <trkpt lat="41.054008" lon="1.016909">
        <ele>9.1</ele>
      </trkpt>
      <trkpt lat="41.053758" lon="1.01723">
        <ele>7.6</ele>
      </trkpt>
      <trkpt lat="41.053507" lon="1.017153">
        <ele>6.7</ele>
      </trkpt>
      <trkpt lat="41.053321" lon="1.016756">
        <ele>6.8</ele>
      </trkpt>
      <trkpt lat="41.053135" lon="1.016359">
        <ele>6.5</ele>
      </trkpt>
      <trkpt lat="41.052911" lon="1.015908">
        <ele>6.5</ele>
      </trkpt>
      <trkpt lat="41.052688" lon="1.015458">
        <ele>6.7</ele>
      </trkpt>
      <trkpt lat="41.052574" lon="1.015436">
        <ele>6.3</ele>
      </trkpt>
      <trkpt lat="41.052431" lon="1.015562">
        <ele>4.7</ele>
      </trkpt>
      <trkpt lat="41.052246" lon="1.015204">
        <ele>4.4</ele>
      </trkpt>
      <trkpt lat="41.052151" lon="1.015058">
        <ele>5.0</ele>
      </trkpt>
      <trkpt lat="41.052042" lon="1.015034">
        <ele>4.7</ele>
      </trkpt>
      <trkpt lat="41.052015" lon="1.01512">
        <ele>4.6</ele>
      </trkpt>
      <trkpt lat="41.051962" lon="1.015235">
        <ele>4.1</ele>
      </trkpt>
      <trkpt lat="41.051912" lon="1.015315">
        <ele>3.7</ele>
      </trkpt>
      <trkpt lat="41.051811" lon="1.015459">
        <ele>3.5</ele>
      </trkpt>
      <trkpt lat="41.051797" lon="1.015479">
        <ele>3.4</ele>
      </trkpt>
      <trkpt lat="41.05165" lon="1.015688">
        <ele>3.1</ele>
      </trkpt>
      <trkpt lat="41.05157" lon="1.015801">
        <ele>3.0</ele>
      </trkpt>
      <trkpt lat="41.051503" lon="1.015879">
        <ele>2.9</ele>
      </trkpt>
      <trkpt lat="41.051397" lon="1.015968">
        <ele>3.0</ele>
      </trkpt>
      <trkpt lat="41.051361" lon="1.015983">
        <ele>3.1</ele>
      </trkpt>
      <trkpt lat="41.051209" lon="1.015627">
        <ele>3.1</ele>
      </trkpt>
      <trkpt lat="41.051126" lon="1.015433">
        <ele>3.1</ele>
      </trkpt>
      <trkpt lat="41.05105" lon="1.015257">
        <ele>3.1</ele>
      </trkpt>
      <trkpt lat="41.051037" lon="1.015236">
        <ele>3.1</ele>
      </trkpt>
      <trkpt lat="41.050933" lon="1.015066">
        <ele>3.2</ele>
      </trkpt>
      <trkpt lat="41.050824" lon="1.014889">
        <ele>3.2</ele>
      </trkpt>
      <trkpt lat="41.05072" lon="1.01472">
        <ele>3.3</ele>
      </trkpt>
      <trkpt lat="41.050627" lon="1.014499">
        <ele>3.0</ele>
      </trkpt>
      <trkpt lat="41.05054" lon="1.014295">
        <ele>2.8</ele>
      </trkpt>
      <trkpt lat="41.050446" lon="1.014073">
        <ele>3.1</ele>
      </trkpt>
      <trkpt lat="41.050358" lon="1.013864">
        <ele>2.9</ele>
      </trkpt>
      <trkpt lat="41.050272" lon="1.013661">
        <ele>2.8</ele>
      </trkpt>
      <trkpt lat="41.0502" lon="1.013492">
        <ele>3.0</ele>
      </trkpt>
      <trkpt lat="41.050168" lon="1.013432">
        <ele>3.0</ele>
      </trkpt>
      <trkpt lat="41.050061" lon="1.013234">
        <ele>3.0</ele>
      </trkpt>
      <trkpt lat="41.049954" lon="1.013034">
        <ele>2.9</ele>
      </trkpt>
      <trkpt lat="41.049844" lon="1.012831">
        <ele>3.0</ele>
      </trkpt>
      <trkpt lat="41.049782" lon="1.012889">
        <ele>2.9</ele>
      </trkpt>
      <trkpt lat="41.049743" lon="1.012815">
        <ele>2.9</ele>
      </trkpt>
      <trkpt lat="41.049609" lon="1.012577">
        <ele>1.6</ele>
      </trkpt>
      <trkpt lat="41.049407" lon="1.012155">
        <ele>2.3</ele>
      </trkpt>
      <trkpt lat="41.049236" lon="1.011959">
        <ele>2.0</ele>
      </trkpt>
      <trkpt lat="41.049021" lon="1.011706">
        <ele>1.8</ele>
      </trkpt>
      <trkpt lat="41.048871" lon="1.011461">
        <ele>1.9</ele>
      </trkpt>
      <trkpt lat="41.048721" lon="1.011217">
        <ele>2.1</ele>
      </trkpt>
      <trkpt lat="41.048495" lon="1.010831">
        <ele>3.0</ele>
      </trkpt>
      <trkpt lat="41.04837" lon="1.010614">
        <ele>2.3</ele>
      </trkpt>
      <trkpt lat="41.048152" lon="1.010238">
        <ele>1.4</ele>
      </trkpt>
      <trkpt lat="41.047911" lon="1.009906">
        <ele>2.4</ele>
      </trkpt>
      <trkpt lat="41.047798" lon="1.009701">
        <ele>2.5</ele>
      </trkpt>
      <trkpt lat="41.047729" lon="1.009685">
        <ele>1.4</ele>
      </trkpt>
      <trkpt lat="41.047544" lon="1.009406">
        <ele>1.1</ele>
      </trkpt>
      <trkpt lat="41.047306" lon="1.008965">
        <ele>1.1</ele>
      </trkpt>
      <trkpt lat="41.047145" lon="1.008733">
        <ele>1.3</ele>
      </trkpt>
      <trkpt lat="41.046983" lon="1.008501">
        <ele>1.3</ele>
      </trkpt>
      <trkpt lat="41.04688" lon="1.00836">
        <ele>1.5</ele>
        <name>GR 92, Mont-roig del Camp, Baix Camp</name>
        <extensions>
          <oa:Extension>
            <oa:mapZoom>15</oa:mapZoom>
          </oa:Extension>
        </extensions>
      </trkpt>
      <trkpt lat="41.046821" lon="1.008278">
        <ele>1.5</ele>
      </trkpt>
      <trkpt lat="41.046658" lon="1.008055">
        <ele>1.5</ele>
      </trkpt>
      <trkpt lat="41.046445" lon="1.007822">
        <ele>1.3</ele>
      </trkpt>
      <trkpt lat="41.046225" lon="1.007514">
        <ele>1.3</ele>
      </trkpt>
      <trkpt lat="41.046051" lon="1.007306">
        <ele>1.1</ele>
      </trkpt>
      <trkpt lat="41.045876" lon="1.007099">
        <ele>0.8</ele>
      </trkpt>
      <trkpt lat="41.04575" lon="1.006894">
        <ele>1.0</ele>
      </trkpt>
      <trkpt lat="41.04555" lon="1.006625">
        <ele>0.9</ele>
      </trkpt>
      <trkpt lat="41.045289" lon="1.006159">
        <ele>0.4</ele>
      </trkpt>
      <trkpt lat="41.045219" lon="1.006062">
        <ele>0.3</ele>
      </trkpt>
      <trkpt lat="41.044962" lon="1.005645">
        <ele>0.4</ele>
      </trkpt>
      <trkpt lat="41.044705" lon="1.005228">
        <ele>0.7</ele>
      </trkpt>
      <trkpt lat="41.044487" lon="1.004934">
        <ele>0.9</ele>
      </trkpt>
      <trkpt lat="41.044268" lon="1.004641">
        <ele>1.1</ele>
      </trkpt>
      <trkpt lat="41.043961" lon="1.004214">
        <ele>2.0</ele>
      </trkpt>
      <trkpt lat="41.043778" lon="1.003943">
        <ele>1.9</ele>
      </trkpt>
      <trkpt lat="41.043677" lon="1.003696">
        <ele>0.9</ele>
      </trkpt>
      <trkpt lat="41.04361" lon="1.003531">
        <ele>1.8</ele>
      </trkpt>
      <trkpt lat="41.043448" lon="1.00326">
        <ele>1.8</ele>
      </trkpt>
      <trkpt lat="41.043419" lon="1.003066">
        <ele>1.6</ele>
      </trkpt>
      <trkpt lat="41.04345" lon="1.002639">
        <ele>2.0</ele>
      </trkpt>
      <trkpt lat="41.043468" lon="1.002234">
        <ele>2.1</ele>
      </trkpt>
      <trkpt lat="41.043485" lon="1.00183">
        <ele>2.0</ele>
      </trkpt>
      <trkpt lat="41.043502" lon="1.001425">
        <ele>1.8</ele>
      </trkpt>
      <trkpt lat="41.043518" lon="1.00104">
        <ele>1.8</ele>
      </trkpt>
      <trkpt lat="41.043534" lon="1.000655">
        <ele>2.2</ele>
      </trkpt>
      <trkpt lat="41.043507" lon="1.000447">
        <ele>1.5</ele>
      </trkpt>
      <trkpt lat="41.043514" lon="0.999996">
        <ele>2.1</ele>
      </trkpt>
      <trkpt lat="41.043387" lon="0.999699">
        <ele>2.1</ele>
      </trkpt>
      <trkpt lat="41.043305" lon="0.999515">
        <ele>1.7</ele>
      </trkpt>
      <trkpt lat="41.04323" lon="0.999202">
        <ele>2.7</ele>
      </trkpt>
      <trkpt lat="41.043156" lon="0.998889">
        <ele>3.1</ele>
      </trkpt>
      <trkpt lat="41.04309" lon="0.998615">
        <ele>2.7</ele>
      </trkpt>
      <trkpt lat="41.043053" lon="0.998258">
        <ele>2.9</ele>
      </trkpt>
      <trkpt lat="41.043017" lon="0.997901">
        <ele>2.2</ele>
      </trkpt>
      <trkpt lat="41.043008" lon="0.997631">
        <ele>1.9</ele>
      </trkpt>
      <trkpt lat="41.043123" lon="0.99755">
        <ele>1.9</ele>
      </trkpt>
      <trkpt lat="41.043066" lon="0.997196">
        <ele>2.0</ele>
      </trkpt>
      <trkpt lat="41.043009" lon="0.996842">
        <ele>2.2</ele>
      </trkpt>
      <trkpt lat="41.04293" lon="0.996409">
        <ele>2.3</ele>
      </trkpt>
      <trkpt lat="41.04287" lon="0.996187">
        <ele>1.2</ele>
      </trkpt>
      <trkpt lat="41.042857" lon="0.99611">
        <ele>1.2</ele>
      </trkpt>
      <trkpt lat="41.042773" lon="0.995586">
        <ele>0.8</ele>
      </trkpt>
      <trkpt lat="41.042724" lon="0.995228">
        <ele>0.7</ele>
      </trkpt>
      <trkpt lat="41.042676" lon="0.994869">
        <ele>1.8</ele>
      </trkpt>
      <trkpt lat="41.042756" lon="0.994474">
        <ele>1.3</ele>
      </trkpt>
      <trkpt lat="41.042837" lon="0.994078">
        <ele>1.4</ele>
      </trkpt>
      <trkpt lat="41.042904" lon="0.993681">
        <ele>1.9</ele>
      </trkpt>
      <trkpt lat="41.042992" lon="0.993125">
        <ele>1.8</ele>
      </trkpt>
      <trkpt lat="41.043085" lon="0.992717">
        <ele>2.1</ele>
      </trkpt>
      <trkpt lat="41.043154" lon="0.992364">
        <ele>2.1</ele>
      </trkpt>
      <trkpt lat="41.043004" lon="0.991999">
        <ele>2.4</ele>
      </trkpt>
      <trkpt lat="41.042855" lon="0.991635">
        <ele>2.3</ele>
      </trkpt>
      <trkpt lat="41.042752" lon="0.991351">
        <ele>2.3</ele>
      </trkpt>
      <trkpt lat="41.042649" lon="0.991066">
        <ele>2.2</ele>
      </trkpt>
      <trkpt lat="41.042426" lon="0.990648">
        <ele>2.6</ele>
      </trkpt>
      <trkpt lat="41.042333" lon="0.990662">
        <ele>2.1</ele>
      </trkpt>
      <trkpt lat="41.042223" lon="0.990363">
        <ele>2.4</ele>
      </trkpt>
      <trkpt lat="41.042114" lon="0.990065">
        <ele>2.4</ele>
      </trkpt>
      <trkpt lat="41.041985" lon="0.989674">
        <ele>2.5</ele>
      </trkpt>
      <trkpt lat="41.041887" lon="0.989349">
        <ele>2.1</ele>
      </trkpt>
      <trkpt lat="41.041789" lon="0.989023">
        <ele>2.3</ele>
      </trkpt>
      <trkpt lat="41.041693" lon="0.988686">
        <ele>2.6</ele>
      </trkpt>
      <trkpt lat="41.041597" lon="0.988349">
        <ele>2.7</ele>
      </trkpt>
      <trkpt lat="41.04144" lon="0.987965">
        <ele>2.8</ele>
      </trkpt>
      <trkpt lat="41.041304" lon="0.987598">
        <ele>2.3</ele>
      </trkpt>
      <trkpt lat="41.041256" lon="0.98729">
        <ele>2.2</ele>
      </trkpt>
      <trkpt lat="41.041095" lon="0.986874">
        <ele>2.2</ele>
      </trkpt>
      <trkpt lat="41.040933" lon="0.986457">
        <ele>2.3</ele>
      </trkpt>
      <trkpt lat="41.040781" lon="0.986302">
        <ele>2.3</ele>
      </trkpt>
      <trkpt lat="41.040574" lon="0.985872">
        <ele>2.4</ele>
      </trkpt>
      <trkpt lat="41.040355" lon="0.985799">
        <ele>1.6</ele>
      </trkpt>
      <trkpt lat="41.040224" lon="0.985518">
        <ele>2.1</ele>
      </trkpt>
      <trkpt lat="41.040093" lon="0.985236">
        <ele>1.9</ele>
      </trkpt>
      <trkpt lat="41.039888" lon="0.984789">
        <ele>1.7</ele>
      </trkpt>
      <trkpt lat="41.039683" lon="0.984341">
        <ele>2.3</ele>
      </trkpt>
      <trkpt lat="41.039511" lon="0.984051">
        <ele>2.1</ele>
      </trkpt>
      <trkpt lat="41.03934" lon="0.983761">
        <ele>1.9</ele>
      </trkpt>
      <trkpt lat="41.039136" lon="0.983362">
        <ele>2.2</ele>
      </trkpt>
      <trkpt lat="41.038932" lon="0.982963">
        <ele>2.3</ele>
      </trkpt>
      <trkpt lat="41.038728" lon="0.982564">
        <ele>2.6</ele>
      </trkpt>
      <trkpt lat="41.038539" lon="0.982219">
        <ele>2.5</ele>
      </trkpt>
      <trkpt lat="41.03835" lon="0.981874">
        <ele>2.6</ele>
      </trkpt>
      <trkpt lat="41.038067" lon="0.981469">
        <ele>2.5</ele>
      </trkpt>
      <trkpt lat="41.037784" lon="0.981065">
        <ele>2.3</ele>
      </trkpt>
      <trkpt lat="41.037577" lon="0.980783">
        <ele>2.0</ele>
      </trkpt>
      <trkpt lat="41.037369" lon="0.9805">
        <ele>2.0</ele>
      </trkpt>
      <trkpt lat="41.037249" lon="0.980338">
        <ele>1.8</ele>
      </trkpt>
      <trkpt lat="41.037069" lon="0.98001">
        <ele>1.9</ele>
      </trkpt>
      <trkpt lat="41.036888" lon="0.979681">
        <ele>2.0</ele>
      </trkpt>
      <trkpt lat="41.03665" lon="0.979248">
        <ele>2.4</ele>
      </trkpt>
      <trkpt lat="41.036356" lon="0.978846">
        <ele>2.4</ele>
      </trkpt>
      <trkpt lat="41.036062" lon="0.978443">
        <ele>2.4</ele>
      </trkpt>
      <trkpt lat="41.035808" lon="0.978147">
        <ele>2.3</ele>
      </trkpt>
      <trkpt lat="41.035554" lon="0.977851">
        <ele>2.1</ele>
      </trkpt>
      <trkpt lat="41.035282" lon="0.977485">
        <ele>2.2</ele>
      </trkpt>
      <trkpt lat="41.03501" lon="0.977118">
        <ele>1.9</ele>
      </trkpt>
      <trkpt lat="41.034738" lon="0.976751">
        <ele>1.9</ele>
      </trkpt>
      <trkpt lat="41.034466" lon="0.976384">
        <ele>1.7</ele>
      </trkpt>
      <trkpt lat="41.034237" lon="0.976088">
        <ele>1.3</ele>
      </trkpt>
      <trkpt lat="41.034007" lon="0.975792">
        <ele>1.2</ele>
      </trkpt>
      <trkpt lat="41.033777" lon="0.975495">
        <ele>1.0</ele>
      </trkpt>
      <trkpt lat="41.033523" lon="0.975145">
        <ele>1.1</ele>
      </trkpt>
      <trkpt lat="41.033269" lon="0.974794">
        <ele>1.1</ele>
      </trkpt>
      <trkpt lat="41.032988" lon="0.974439">
        <ele>1.1</ele>
      </trkpt>
      <trkpt lat="41.032708" lon="0.974084">
        <ele>0.9</ele>
      </trkpt>
      <trkpt lat="41.0324" lon="0.973694">
        <ele>0.7</ele>
      </trkpt>
      <trkpt lat="41.032092" lon="0.973305">
        <ele>0.7</ele>
      </trkpt>
      <trkpt lat="41.031842" lon="0.973028">
        <ele>0.8</ele>
      </trkpt>
      <trkpt lat="41.031592" lon="0.972752">
        <ele>0.8</ele>
      </trkpt>
      <trkpt lat="41.031249" lon="0.972438">
        <ele>0.6</ele>
      </trkpt>
      <trkpt lat="41.030905" lon="0.972124">
        <ele>0.1</ele>
      </trkpt>
      <trkpt lat="41.030591" lon="0.971756">
        <ele>0.1</ele>
      </trkpt>
      <trkpt lat="41.030276" lon="0.971387">
        <ele>0.2</ele>
      </trkpt>
      <trkpt lat="41.029961" lon="0.971019">
        <ele>0.3</ele>
      </trkpt>
      <trkpt lat="41.029856" lon="0.97065">
        <ele>1.4</ele>
      </trkpt>
      <trkpt lat="41.029725" lon="0.970107">
        <ele>1.3</ele>
      </trkpt>
      <trkpt lat="41.029672" lon="0.969756">
        <ele>0.7</ele>
      </trkpt>
      <trkpt lat="41.029619" lon="0.969429">
        <ele>0.4</ele>
      </trkpt>
      <trkpt lat="41.029566" lon="0.969102">
        <ele>1.2</ele>
      </trkpt>
      <trkpt lat="41.029416" lon="0.96875">
        <ele>1.3</ele>
      </trkpt>
      <trkpt lat="41.029266" lon="0.968398">
        <ele>1.6</ele>
      </trkpt>
      <trkpt lat="41.029132" lon="0.968042">
        <ele>2.3</ele>
      </trkpt>
      <trkpt lat="41.028999" lon="0.967686">
        <ele>2.4</ele>
      </trkpt>
      <trkpt lat="41.028808" lon="0.967334">
        <ele>2.3</ele>
      </trkpt>
      <trkpt lat="41.028617" lon="0.966982">
        <ele>2.0</ele>
      </trkpt>
      <trkpt lat="41.028407" lon="0.966629">
        <ele>1.9</ele>
      </trkpt>
      <trkpt lat="41.028198" lon="0.966276">
        <ele>2.2</ele>
      </trkpt>
      <trkpt lat="41.028031" lon="0.965942">
        <ele>2.7</ele>
      </trkpt>
      <trkpt lat="41.027865" lon="0.965608">
        <ele>2.6</ele>
      </trkpt>
      <trkpt lat="41.027702" lon="0.965285">
        <ele>2.4</ele>
      </trkpt>
      <trkpt lat="41.027538" lon="0.964963">
        <ele>2.3</ele>
      </trkpt>
      <trkpt lat="41.027273" lon="0.964549">
        <ele>2.4</ele>
      </trkpt>
      <trkpt lat="41.027074" lon="0.9645">
        <ele>2.7</ele>
      </trkpt>
      <trkpt lat="41.026937" lon="0.964285">
        <ele>2.6</ele>
      </trkpt>
      <trkpt lat="41.026696" lon="0.963906">
        <ele>2.8</ele>
      </trkpt>
      <trkpt lat="41.026455" lon="0.963528">
        <ele>2.8</ele>
      </trkpt>
      <trkpt lat="41.026254" lon="0.963168">
        <ele>2.8</ele>
      </trkpt>
      <trkpt lat="41.026054" lon="0.962807">
        <ele>2.4</ele>
      </trkpt>
      <trkpt lat="41.025853" lon="0.962447">
        <ele>2.4</ele>
      </trkpt>
      <trkpt lat="41.025833" lon="0.96241">
        <ele>2.5</ele>
      </trkpt>
      <trkpt lat="41.025634" lon="0.962164">
        <ele>2.4</ele>
      </trkpt>
      <trkpt lat="41.025436" lon="0.961919">
        <ele>2.4</ele>
      </trkpt>
      <trkpt lat="41.02527" lon="0.961745">
        <ele>2.1</ele>
      </trkpt>
      <trkpt lat="41.024985" lon="0.961448">
        <ele>2.6</ele>
      </trkpt>
      <trkpt lat="41.024769" lon="0.961146">
        <ele>2.5</ele>
      </trkpt>
      <trkpt lat="41.024552" lon="0.960844">
        <ele>2.6</ele>
      </trkpt>
      <trkpt lat="41.024336" lon="0.960542">
        <ele>2.6</ele>
      </trkpt>
      <trkpt lat="41.024002" lon="0.960147">
        <ele>2.5</ele>
      </trkpt>
      <trkpt lat="41.023668" lon="0.959752">
        <ele>2.5</ele>
      </trkpt>
      <trkpt lat="41.023334" lon="0.959357">
        <ele>2.1</ele>
      </trkpt>
      <trkpt lat="41.023" lon="0.958962">
        <ele>2.5</ele>
      </trkpt>
      <trkpt lat="41.022764" lon="0.95871">
        <ele>2.7</ele>
      </trkpt>
      <trkpt lat="41.022529" lon="0.958457">
        <ele>2.6</ele>
      </trkpt>
      <trkpt lat="41.022293" lon="0.958204">
        <ele>2.4</ele>
      </trkpt>
      <trkpt lat="41.022246" lon="0.958154">
        <ele>2.4</ele>
      </trkpt>
      <trkpt lat="41.021944" lon="0.957841">
        <ele>2.3</ele>
      </trkpt>
      <trkpt lat="41.021642" lon="0.957529">
        <ele>2.1</ele>
      </trkpt>
      <trkpt lat="41.021374" lon="0.957194">
        <ele>2.2</ele>
      </trkpt>
      <trkpt lat="41.021105" lon="0.956859">
        <ele>2.3</ele>
      </trkpt>
      <trkpt lat="41.020836" lon="0.956524">
        <ele>2.3</ele>
      </trkpt>
      <trkpt lat="41.020674" lon="0.956323">
        <ele>2.3</ele>
      </trkpt>
      <trkpt lat="41.020397" lon="0.956">
        <ele>2.0</ele>
      </trkpt>
      <trkpt lat="41.020089" lon="0.955644">
        <ele>2.2</ele>
      </trkpt>
      <trkpt lat="41.019782" lon="0.955288">
        <ele>2.2</ele>
      </trkpt>
      <trkpt lat="41.019722" lon="0.955218">
        <ele>2.5</ele>
      </trkpt>
      <trkpt lat="41.019324" lon="0.954978">
        <ele>2.8</ele>
      </trkpt>
      <trkpt lat="41.018925" lon="0.954737">
        <ele>1.0</ele>
      </trkpt>
      <trkpt lat="41.018788" lon="0.954534">
        <ele>0.8</ele>
      </trkpt>
      <trkpt lat="41.018769" lon="0.954356">
        <ele>1.4</ele>
      </trkpt>
      <trkpt lat="41.018754" lon="0.954263">
        <ele>2.1</ele>
      </trkpt>
      <trkpt lat="41.018733" lon="0.954221">
        <ele>2.5</ele>
      </trkpt>
      <trkpt lat="41.018631" lon="0.954166">
        <ele>3.5</ele>
      </trkpt>
      <trkpt lat="41.018585" lon="0.954129">
        <ele>4.2</ele>
      </trkpt>
      <trkpt lat="41.018575" lon="0.95412">
        <ele>4.2</ele>
      </trkpt>
      <trkpt lat="41.0186" lon="0.954057">
        <ele>4.6</ele>
      </trkpt>
      <trkpt lat="41.018759" lon="0.953563">
        <ele>8.6</ele>
      </trkpt>
      <trkpt lat="41.018919" lon="0.953069">
        <ele>11.5</ele>
      </trkpt>
      <trkpt lat="41.018907" lon="0.952967">
        <ele>11.6</ele>
      </trkpt>
      <trkpt lat="41.018652" lon="0.952647">
        <ele>11.9</ele>
      </trkpt>
      <trkpt lat="41.018397" lon="0.952328">
        <ele>12.2</ele>
      </trkpt>
      <trkpt lat="41.018142" lon="0.952008">
        <ele>12.4</ele>
      </trkpt>
      <trkpt lat="41.017887" lon="0.951688">
        <ele>12.7</ele>
      </trkpt>
      <trkpt lat="41.017638" lon="0.951413">
        <ele>13.0</ele>
      </trkpt>
      <trkpt lat="41.017513" lon="0.951314">
        <ele>13.1</ele>
      </trkpt>
      <trkpt lat="41.017353" lon="0.951251">
        <ele>13.4</ele>
      </trkpt>
      <trkpt lat="41.017061" lon="0.951205">
        <ele>13.6</ele>
      </trkpt>
      <trkpt lat="41.016932" lon="0.951165">
        <ele>13.7</ele>
      </trkpt>
      <trkpt lat="41.016845" lon="0.951076">
        <ele>13.9</ele>
      </trkpt>
      <trkpt lat="41.016775" lon="0.950932">
        <ele>14.0</ele>
      </trkpt>
      <trkpt lat="41.016688" lon="0.950664">
        <ele>14.2</ele>
      </trkpt>
      <trkpt lat="41.016635" lon="0.950556">
        <ele>14.2</ele>
      </trkpt>
      <trkpt lat="41.0165" lon="0.950407">
        <ele>14.5</ele>
      </trkpt>
      <trkpt lat="41.016388" lon="0.950321">
        <ele>14.2</ele>
      </trkpt>
      <trkpt lat="41.016376" lon="0.950312">
        <ele>14.2</ele>
      </trkpt>
      <trkpt lat="41.016332" lon="0.950279">
        <ele>14.5</ele>
      </trkpt>
      <trkpt lat="41.016225" lon="0.950271">
        <ele>9.9</ele>
      </trkpt>
      <trkpt lat="41.016068" lon="0.950367">
        <ele>14.5</ele>
      </trkpt>
      <trkpt lat="41.015977" lon="0.950505">
        <ele>14.5</ele>
      </trkpt>
      <trkpt lat="41.015923" lon="0.950508">
        <ele>14.5</ele>
      </trkpt>
      <trkpt lat="41.015795" lon="0.950429">
        <ele>14.4</ele>
      </trkpt>
      <trkpt lat="41.015713" lon="0.950352">
        <ele>14.5</ele>
      </trkpt>
      <trkpt lat="41.015623" lon="0.950139">
        <ele>14.1</ele>
      </trkpt>
      <trkpt lat="41.015504" lon="0.949869">
        <ele>14.1</ele>
      </trkpt>
      <trkpt lat="41.015461" lon="0.949825">
        <ele>14.1</ele>
      </trkpt>
      <trkpt lat="41.015401" lon="0.949763">
        <ele>14.1</ele>
      </trkpt>
      <trkpt lat="41.015381" lon="0.949754">
        <ele>14.1</ele>
      </trkpt>
      <trkpt lat="41.015362" lon="0.949745">
        <ele>14.1</ele>
      </trkpt>
      <trkpt lat="41.015317" lon="0.949725">
        <ele>14.0</ele>
      </trkpt>
      <trkpt lat="41.015145" lon="0.94976">
        <ele>14.0</ele>
      </trkpt>
      <trkpt lat="41.014939" lon="0.949839">
        <ele>13.9</ele>
      </trkpt>
      <trkpt lat="41.014784" lon="0.94988">
        <ele>13.8</ele>
      </trkpt>
      <trkpt lat="41.014697" lon="0.949859">
        <ele>14.0</ele>
      </trkpt>
      <trkpt lat="41.014614" lon="0.949772">
        <ele>14.6</ele>
      </trkpt>
      <trkpt lat="41.014567" lon="0.949666">
        <ele>14.9</ele>
      </trkpt>
      <trkpt lat="41.014564" lon="0.949532">
        <ele>15.0</ele>
      </trkpt>
      <trkpt lat="41.014558" lon="0.949265">
        <ele>15.6</ele>
      </trkpt>
      <trkpt lat="41.014547" lon="0.949044">
        <ele>15.8</ele>
      </trkpt>
      <trkpt lat="41.014501" lon="0.94887">
        <ele>15.9</ele>
      </trkpt>
      <trkpt lat="41.014452" lon="0.948802">
        <ele>15.9</ele>
      </trkpt>
      <trkpt lat="41.014433" lon="0.948773">
        <ele>16.0</ele>
      </trkpt>
      <trkpt lat="41.014387" lon="0.948754">
        <ele>16.0</ele>
      </trkpt>
      <trkpt lat="41.014365" lon="0.948753">
        <ele>16.0</ele>
      </trkpt>
      <trkpt lat="41.014287" lon="0.948759">
        <ele>16.2</ele>
      </trkpt>
      <trkpt lat="41.014217" lon="0.94879">
        <ele>16.1</ele>
      </trkpt>
      <trkpt lat="41.014016" lon="0.949081">
        <ele>16.3</ele>
      </trkpt>
      <trkpt lat="41.013836" lon="0.949282">
        <ele>16.3</ele>
      </trkpt>
      <trkpt lat="41.013695" lon="0.949327">
        <ele>16.0</ele>
      </trkpt>
      <trkpt lat="41.013559" lon="0.949294">
        <ele>16.0</ele>
      </trkpt>
      <trkpt lat="41.013403" lon="0.949144">
        <ele>16.1</ele>
      </trkpt>
      <trkpt lat="41.013208" lon="0.948856">
        <ele>16.5</ele>
      </trkpt>
      <trkpt lat="41.013074" lon="0.948497">
        <ele>16.8</ele>
      </trkpt>
      <trkpt lat="41.013044" lon="0.94827">
        <ele>17.0</ele>
      </trkpt>
      <trkpt lat="41.013092" lon="0.947932">
        <ele>17.1</ele>
      </trkpt>
      <trkpt lat="41.013272" lon="0.94742">
        <ele>17.8</ele>
      </trkpt>
      <trkpt lat="41.013297" lon="0.947289">
        <ele>18.1</ele>
      </trkpt>
      <trkpt lat="41.013265" lon="0.947177">
        <ele>18.3</ele>
      </trkpt>
      <trkpt lat="41.013258" lon="0.947113">
        <ele>18.4</ele>
      </trkpt>
      <trkpt lat="41.013268" lon="0.947065">
        <ele>18.4</ele>
      </trkpt>
      <trkpt lat="41.013228" lon="0.946998">
        <ele>18.5</ele>
      </trkpt>
      <trkpt lat="41.0132" lon="0.946931">
        <ele>18.4</ele>
      </trkpt>
      <trkpt lat="41.013164" lon="0.946873">
        <ele>18.4</ele>
      </trkpt>
      <trkpt lat="41.013116" lon="0.946816">
        <ele>18.4</ele>
      </trkpt>
      <trkpt lat="41.012989" lon="0.946668">
        <ele>18.4</ele>
      </trkpt>
      <trkpt lat="41.012922" lon="0.946668">
        <ele>18.3</ele>
      </trkpt>
      <trkpt lat="41.012899" lon="0.946679">
        <ele>18.3</ele>
      </trkpt>
      <trkpt lat="41.012878" lon="0.946689">
        <ele>18.3</ele>
      </trkpt>
      <trkpt lat="41.012863" lon="0.946712">
        <ele>18.2</ele>
      </trkpt>
      <trkpt lat="41.012855" lon="0.946724">
        <ele>18.2</ele>
      </trkpt>
      <trkpt lat="41.012846" lon="0.946742">
        <ele>18.2</ele>
      </trkpt>
      <trkpt lat="41.012835" lon="0.946851">
        <ele>18.0</ele>
      </trkpt>
      <trkpt lat="41.012805" lon="0.946943">
        <ele>17.8</ele>
      </trkpt>
      <trkpt lat="41.012774" lon="0.946992">
        <ele>17.7</ele>
      </trkpt>
      <trkpt lat="41.012633" lon="0.947146">
        <ele>17.4</ele>
      </trkpt>
      <trkpt lat="41.012492" lon="0.94721">
        <ele>17.1</ele>
      </trkpt>
      <trkpt lat="41.012442" lon="0.947226">
        <ele>17.0</ele>
      </trkpt>
      <trkpt lat="41.01241" lon="0.947209">
        <ele>16.9</ele>
      </trkpt>
      <trkpt lat="41.012382" lon="0.947182">
        <ele>16.9</ele>
      </trkpt>
      <trkpt lat="41.012359" lon="0.947149">
        <ele>16.8</ele>
      </trkpt>
      <trkpt lat="41.012341" lon="0.947108">
        <ele>16.9</ele>
      </trkpt>
      <trkpt lat="41.012331" lon="0.947062">
        <ele>16.9</ele>
      </trkpt>
      <trkpt lat="41.012329" lon="0.947015">
        <ele>17.0</ele>
      </trkpt>
      <trkpt lat="41.012334" lon="0.946969">
        <ele>17.0</ele>
      </trkpt>
      <trkpt lat="41.012395" lon="0.946662">
        <ele>17.5</ele>
      </trkpt>
      <trkpt lat="41.01246" lon="0.94642">
        <ele>17.8</ele>
      </trkpt>
      <trkpt lat="41.01245" lon="0.946383">
        <ele>17.8</ele>
      </trkpt>
      <trkpt lat="41.012434" lon="0.946349">
        <ele>17.8</ele>
      </trkpt>
      <trkpt lat="41.012412" lon="0.946322">
        <ele>17.9</ele>
      </trkpt>
      <trkpt lat="41.01239" lon="0.946305">
        <ele>17.8</ele>
      </trkpt>
      <trkpt lat="41.012365" lon="0.946294">
        <ele>17.8</ele>
      </trkpt>
      <trkpt lat="41.012339" lon="0.94629">
        <ele>17.8</ele>
      </trkpt>
      <trkpt lat="41.012279" lon="0.946287">
        <ele>17.8</ele>
      </trkpt>
      <trkpt lat="41.012195" lon="0.946332">
        <ele>17.6</ele>
      </trkpt>
      <trkpt lat="41.012102" lon="0.946414">
        <ele>17.4</ele>
      </trkpt>
      <trkpt lat="41.012007" lon="0.946531">
        <ele>17.2</ele>
      </trkpt>
      <trkpt lat="41.011933" lon="0.946645">
        <ele>17.1</ele>
      </trkpt>
      <trkpt lat="41.011858" lon="0.946731">
        <ele>16.9</ele>
      </trkpt>
      <trkpt lat="41.011737" lon="0.946859">
        <ele>16.4</ele>
      </trkpt>
      <trkpt lat="41.011655" lon="0.946902">
        <ele>16.3</ele>
      </trkpt>
      <trkpt lat="41.011608" lon="0.946892">
        <ele>16.3</ele>
      </trkpt>
      <trkpt lat="41.011554" lon="0.946869">
        <ele>16.4</ele>
      </trkpt>
      <trkpt lat="41.011499" lon="0.946836">
        <ele>16.4</ele>
      </trkpt>
      <trkpt lat="41.011406" lon="0.946777">
        <ele>16.3</ele>
      </trkpt>
      <trkpt lat="41.011265" lon="0.946658">
        <ele>15.9</ele>
      </trkpt>
      <trkpt lat="41.011075" lon="0.946435">
        <ele>15.9</ele>
      </trkpt>
      <trkpt lat="41.010994" lon="0.94634">
        <ele>15.8</ele>
      </trkpt>
      <trkpt lat="41.01096" lon="0.946286">
        <ele>15.8</ele>
      </trkpt>
      <trkpt lat="41.010939" lon="0.946248">
        <ele>15.9</ele>
      </trkpt>
      <trkpt lat="41.010904" lon="0.946183">
        <ele>15.8</ele>
      </trkpt>
      <trkpt lat="41.010852" lon="0.946089">
        <ele>15.7</ele>
      </trkpt>
      <trkpt lat="41.010684" lon="0.945825">
        <ele>15.6</ele>
      </trkpt>
      <trkpt lat="41.010517" lon="0.945562">
        <ele>15.9</ele>
      </trkpt>
      <trkpt lat="41.010479" lon="0.945392">
        <ele>16.1</ele>
      </trkpt>
      <trkpt lat="41.010497" lon="0.945245">
        <ele>16.3</ele>
      </trkpt>
      <trkpt lat="41.010498" lon="0.945209">
        <ele>16.3</ele>
        <name>Passeig Marítim, Mont-roig del Camp, Baix Camp</name>
        <extensions>
          <oa:Extension>
            <oa:mapZoom>15</oa:mapZoom>
          </oa:Extension>
        </extensions>
      </trkpt>
      <trkpt lat="41.010499" lon="0.94508">
        <ele>16.3</ele>
      </trkpt>
      <trkpt lat="41.010464" lon="0.94492">
        <ele>16.1</ele>
      </trkpt>
      <trkpt lat="41.010371" lon="0.944836">
        <ele>16.2</ele>
      </trkpt>
      <trkpt lat="41.010291" lon="0.944799">
        <ele>16.2</ele>
      </trkpt>
      <trkpt lat="41.01024" lon="0.944726">
        <ele>16.4</ele>
      </trkpt>
      <trkpt lat="41.010204" lon="0.944634">
        <ele>16.5</ele>
      </trkpt>
      <trkpt lat="41.01022" lon="0.94448">
        <ele>16.9</ele>
      </trkpt>
      <trkpt lat="41.010225" lon="0.944321">
        <ele>17.1</ele>
      </trkpt>
      <trkpt lat="41.010203" lon="0.944243">
        <ele>16.9</ele>
      </trkpt>
      <trkpt lat="41.01015" lon="0.944172">
        <ele>16.7</ele>
      </trkpt>
      <trkpt lat="41.01007" lon="0.944152">
        <ele>16.7</ele>
      </trkpt>
      <trkpt lat="41.009986" lon="0.944152">
        <ele>16.6</ele>
      </trkpt>
      <trkpt lat="41.009775" lon="0.944198">
        <ele>16.8</ele>
      </trkpt>
      <trkpt lat="41.009592" lon="0.944272">
        <ele>16.6</ele>
      </trkpt>
      <trkpt lat="41.00951" lon="0.944306">
        <ele>16.0</ele>
      </trkpt>
      <trkpt lat="41.009419" lon="0.944299">
        <ele>15.6</ele>
      </trkpt>
      <trkpt lat="41.009235" lon="0.944031">
        <ele>15.7</ele>
      </trkpt>
      <trkpt lat="41.009051" lon="0.943762">
        <ele>15.9</ele>
      </trkpt>
      <trkpt lat="41.009018" lon="0.943592">
        <ele>16.4</ele>
      </trkpt>
      <trkpt lat="41.009031" lon="0.943467">
        <ele>16.5</ele>
      </trkpt>
      <trkpt lat="41.009083" lon="0.943356">
        <ele>16.3</ele>
      </trkpt>
      <trkpt lat="41.009346" lon="0.943048">
        <ele>17.0</ele>
      </trkpt>
      <trkpt lat="41.009609" lon="0.942741">
        <ele>17.7</ele>
      </trkpt>
      <trkpt lat="41.009481" lon="0.942621">
        <ele>17.3</ele>
      </trkpt>
      <trkpt lat="41.009294" lon="0.94244">
        <ele>17.2</ele>
      </trkpt>
      <trkpt lat="41.008952" lon="0.942113">
        <ele>17.0</ele>
      </trkpt>
      <trkpt lat="41.008678" lon="0.942524">
        <ele>17.0</ele>
      </trkpt>
      <trkpt lat="41.008591" lon="0.942574">
        <ele>16.4</ele>
      </trkpt>
      <trkpt lat="41.008515" lon="0.94256">
        <ele>16.8</ele>
      </trkpt>
      <trkpt lat="41.008404" lon="0.942483">
        <ele>16.6</ele>
      </trkpt>
      <trkpt lat="41.008278" lon="0.942348">
        <ele>16.4</ele>
      </trkpt>
      <trkpt lat="41.00823" lon="0.941768">
        <ele>17.2</ele>
      </trkpt>
      <trkpt lat="41.008276" lon="0.941453">
        <ele>17.4</ele>
      </trkpt>
      <trkpt lat="41.008022" lon="0.941212">
        <ele>16.8</ele>
      </trkpt>
      <trkpt lat="41.007768" lon="0.940971">
        <ele>17.9</ele>
      </trkpt>
      <trkpt lat="41.007632" lon="0.941443">
        <ele>17.4</ele>
      </trkpt>
      <trkpt lat="41.007552" lon="0.941541">
        <ele>17.4</ele>
      </trkpt>
      <trkpt lat="41.007402" lon="0.941614">
        <ele>16.9</ele>
      </trkpt>
      <trkpt lat="41.007207" lon="0.941612">
        <ele>16.3</ele>
      </trkpt>
      <trkpt lat="41.007068" lon="0.94163">
        <ele>16.0</ele>
      </trkpt>
      <trkpt lat="41.006983" lon="0.941581">
        <ele>16.0</ele>
      </trkpt>
      <trkpt lat="41.006912" lon="0.941479">
        <ele>16.2</ele>
      </trkpt>
      <trkpt lat="41.006856" lon="0.941118">
        <ele>16.0</ele>
      </trkpt>
      <trkpt lat="41.0068" lon="0.940757">
        <ele>16.6</ele>
      </trkpt>
      <trkpt lat="41.006803" lon="0.940627">
        <ele>16.7</ele>
      </trkpt>
      <trkpt lat="41.006829" lon="0.940524">
        <ele>16.5</ele>
      </trkpt>
      <trkpt lat="41.007077" lon="0.940287">
        <ele>17.0</ele>
      </trkpt>
      <trkpt lat="41.007015" lon="0.940221">
        <ele>17.2</ele>
      </trkpt>
      <trkpt lat="41.006746" lon="0.939942">
        <ele>17.3</ele>
      </trkpt>
      <trkpt lat="41.006655" lon="0.939875">
        <ele>17.4</ele>
      </trkpt>
      <trkpt lat="41.00642" lon="0.940126">
        <ele>17.1</ele>
      </trkpt>
      <trkpt lat="41.006312" lon="0.940215">
        <ele>17.0</ele>
      </trkpt>
      <trkpt lat="41.006236" lon="0.940193">
        <ele>16.9</ele>
      </trkpt>
      <trkpt lat="41.006192" lon="0.940171">
        <ele>17.0</ele>
      </trkpt>
      <trkpt lat="41.006008" lon="0.939894">
        <ele>16.6</ele>
      </trkpt>
      <trkpt lat="41.005936" lon="0.939829">
        <ele>16.5</ele>
      </trkpt>
      <trkpt lat="41.005843" lon="0.939808">
        <ele>16.7</ele>
      </trkpt>
      <trkpt lat="41.005758" lon="0.939802">
        <ele>16.1</ele>
      </trkpt>
      <trkpt lat="41.005383" lon="0.939727">
        <ele>14.9</ele>
      </trkpt>
      <trkpt lat="41.005289" lon="0.939683">
        <ele>14.9</ele>
      </trkpt>
      <trkpt lat="41.005238" lon="0.939615">
        <ele>14.9</ele>
      </trkpt>
      <trkpt lat="41.005195" lon="0.939554">
        <ele>15.1</ele>
      </trkpt>
      <trkpt lat="41.005187" lon="0.939468">
        <ele>15.2</ele>
      </trkpt>
      <trkpt lat="41.0052" lon="0.939388">
        <ele>15.4</ele>
      </trkpt>
      <trkpt lat="41.005328" lon="0.939086">
        <ele>16.2</ele>
      </trkpt>
      <trkpt lat="41.005493" lon="0.938731">
        <ele>17.3</ele>
      </trkpt>
      <trkpt lat="41.005303" lon="0.938542">
        <ele>17.2</ele>
      </trkpt>
      <trkpt lat="41.005113" lon="0.938353">
        <ele>17.6</ele>
      </trkpt>
      <trkpt lat="41.004982" lon="0.938859">
        <ele>16.0</ele>
      </trkpt>
      <trkpt lat="41.00493" lon="0.938952">
        <ele>15.8</ele>
      </trkpt>
      <trkpt lat="41.004894" lon="0.939002">
        <ele>15.9</ele>
      </trkpt>
      <trkpt lat="41.004823" lon="0.939029">
        <ele>15.7</ele>
      </trkpt>
      <trkpt lat="41.004781" lon="0.939042">
        <ele>15.8</ele>
      </trkpt>
      <trkpt lat="41.004729" lon="0.939034">
        <ele>15.5</ele>
      </trkpt>
      <trkpt lat="41.004675" lon="0.939015">
        <ele>15.0</ele>
      </trkpt>
      <trkpt lat="41.004591" lon="0.938973">
        <ele>13.8</ele>
      </trkpt>
      <trkpt lat="41.004534" lon="0.938934">
        <ele>15.1</ele>
      </trkpt>
      <trkpt lat="41.004474" lon="0.938843">
        <ele>16.1</ele>
      </trkpt>
      <trkpt lat="41.004396" lon="0.938705">
        <ele>15.8</ele>
      </trkpt>
      <trkpt lat="41.004337" lon="0.938577">
        <ele>16.3</ele>
      </trkpt>
      <trkpt lat="41.004265" lon="0.93835">
        <ele>17.0</ele>
      </trkpt>
      <trkpt lat="41.00422" lon="0.938245">
        <ele>16.4</ele>
      </trkpt>
      <trkpt lat="41.004141" lon="0.938153">
        <ele>17.0</ele>
      </trkpt>
      <trkpt lat="41.003982" lon="0.938012">
        <ele>16.4</ele>
      </trkpt>
      <trkpt lat="41.003833" lon="0.937965">
        <ele>15.6</ele>
      </trkpt>
      <trkpt lat="41.003766" lon="0.937964">
        <ele>15.6</ele>
      </trkpt>
      <trkpt lat="41.003682" lon="0.937963">
        <ele>16.2</ele>
      </trkpt>
      <trkpt lat="41.003653" lon="0.938138">
        <ele>6.8</ele>
      </trkpt>
      <trkpt lat="41.003647" lon="0.938211">
        <ele>3.8</ele>
      </trkpt>
      <trkpt lat="41.00346" lon="0.938353">
        <ele>2.4</ele>
      </trkpt>
      <trkpt lat="41.003169" lon="0.938155">
        <ele>2.3</ele>
      </trkpt>
      <trkpt lat="41.002877" lon="0.937958">
        <ele>2.0</ele>
      </trkpt>
      <trkpt lat="41.002585" lon="0.93776">
        <ele>2.6</ele>
      </trkpt>
      <trkpt lat="41.002304" lon="0.937556">
        <ele>2.4</ele>
      </trkpt>
      <trkpt lat="41.002023" lon="0.937353">
        <ele>2.4</ele>
      </trkpt>
      <trkpt lat="41.00172" lon="0.937117">
        <ele>3.1</ele>
      </trkpt>
      <trkpt lat="41.001416" lon="0.936882">
        <ele>3.8</ele>
      </trkpt>
      <trkpt lat="41.001113" lon="0.936646">
        <ele>3.1</ele>
      </trkpt>
      <trkpt lat="41.000722" lon="0.936357">
        <ele>2.5</ele>
      </trkpt>
      <trkpt lat="41.000331" lon="0.936069">
        <ele>2.3</ele>
      </trkpt>
      <trkpt lat="41.000091" lon="0.93591">
        <ele>2.2</ele>
      </trkpt>
      <trkpt lat="40.999743" lon="0.935687">
        <ele>2.3</ele>
      </trkpt>
      <trkpt lat="40.999394" lon="0.935465">
        <ele>2.2</ele>
      </trkpt>
      <trkpt lat="40.999016" lon="0.935244">
        <ele>2.4</ele>
      </trkpt>
      <trkpt lat="40.998697" lon="0.935068">
        <ele>2.6</ele>
      </trkpt>
      <trkpt lat="40.998701" lon="0.934994">
        <ele>2.8</ele>
      </trkpt>
      <trkpt lat="40.998525" lon="0.934856">
        <ele>2.9</ele>
      </trkpt>
      <trkpt lat="40.998337" lon="0.9347">
        <ele>2.6</ele>
      </trkpt>
      <trkpt lat="40.998098" lon="0.934574">
        <ele>2.6</ele>
      </trkpt>
      <trkpt lat="40.99782" lon="0.934424">
        <ele>2.5</ele>
      </trkpt>
      <trkpt lat="40.997617" lon="0.934306">
        <ele>2.7</ele>
      </trkpt>
      <trkpt lat="40.997398" lon="0.934197">
        <ele>2.6</ele>
      </trkpt>
      <trkpt lat="40.997193" lon="0.934082">
        <ele>2.7</ele>
      </trkpt>
      <trkpt lat="40.996879" lon="0.93391">
        <ele>2.7</ele>
      </trkpt>
      <trkpt lat="40.996565" lon="0.933737">
        <ele>2.7</ele>
      </trkpt>
      <trkpt lat="40.996367" lon="0.933628">
        <ele>3.2</ele>
      </trkpt>
      <trkpt lat="40.996141" lon="0.933497">
        <ele>3.2</ele>
      </trkpt>
      <trkpt lat="40.995914" lon="0.933366">
        <ele>3.1</ele>
      </trkpt>
      <trkpt lat="40.995575" lon="0.933189">
        <ele>2.9</ele>
      </trkpt>
      <trkpt lat="40.995236" lon="0.933012">
        <ele>2.5</ele>
      </trkpt>
      <trkpt lat="40.99518" lon="0.932993">
        <ele>2.6</ele>
      </trkpt>
      <trkpt lat="40.994958" lon="0.932918">
        <ele>2.6</ele>
      </trkpt>
      <trkpt lat="40.994735" lon="0.932842">
        <ele>2.6</ele>
      </trkpt>
      <trkpt lat="40.994394" lon="0.932738">
        <ele>2.4</ele>
      </trkpt>
      <trkpt lat="40.994052" lon="0.932633">
        <ele>2.3</ele>
      </trkpt>
      <trkpt lat="40.993918" lon="0.932593">
        <ele>2.3</ele>
        <name>Passeig Marítim, Mont-roig del Camp, Baix Camp</name>
        <extensions>
          <oa:Extension>
            <oa:mapZoom>17</oa:mapZoom>
          </oa:Extension>
        </extensions>
      </trkpt>
      <trkpt lat="40.993749" lon="0.932542">
        <ele>2.3</ele>
      </trkpt>
      <trkpt lat="40.993446" lon="0.93245">
        <ele>2.1</ele>
      </trkpt>
      <trkpt lat="40.993335" lon="0.932417">
        <ele>2.2</ele>
      </trkpt>
      <trkpt lat="40.99318" lon="0.932321">
        <ele>2.3</ele>
      </trkpt>
      <trkpt lat="40.993083" lon="0.932131">
        <ele>2.5</ele>
      </trkpt>
      <trkpt lat="40.993008" lon="0.931911">
        <ele>2.8</ele>
      </trkpt>
      <trkpt lat="40.993013" lon="0.931822">
        <ele>3.0</ele>
      </trkpt>
      <trkpt lat="40.99301" lon="0.93175">
        <ele>3.1</ele>
      </trkpt>
      <trkpt lat="40.993013" lon="0.931664">
        <ele>3.1</ele>
      </trkpt>
      <trkpt lat="40.992919" lon="0.9316">
        <ele>4.8</ele>
      </trkpt>
      <trkpt lat="40.992842" lon="0.931534">
        <ele>5.3</ele>
      </trkpt>
      <trkpt lat="40.992791" lon="0.931524">
        <ele>5.2</ele>
      </trkpt>
      <trkpt lat="40.992751" lon="0.931513">
        <ele>5.3</ele>
      </trkpt>
      <trkpt lat="40.992677" lon="0.931484">
        <ele>4.6</ele>
      </trkpt>
      <trkpt lat="40.992622" lon="0.931429">
        <ele>4.5</ele>
      </trkpt>
      <trkpt lat="40.992576" lon="0.931331">
        <ele>4.3</ele>
      </trkpt>
      <trkpt lat="40.992511" lon="0.93108">
        <ele>4.0</ele>
      </trkpt>
      <trkpt lat="40.99248" lon="0.930973">
        <ele>3.9</ele>
      </trkpt>
      <trkpt lat="40.992447" lon="0.930886">
        <ele>3.8</ele>
      </trkpt>
      <trkpt lat="40.992293" lon="0.930687">
        <ele>3.5</ele>
      </trkpt>
      <trkpt lat="40.992155" lon="0.930593">
        <ele>3.2</ele>
      </trkpt>
      <trkpt lat="40.992057" lon="0.930549">
        <ele>3.1</ele>
      </trkpt>
      <trkpt lat="40.99193" lon="0.930523">
        <ele>2.9</ele>
      </trkpt>
      <trkpt lat="40.991852" lon="0.930472">
        <ele>2.7</ele>
      </trkpt>
      <trkpt lat="40.991764" lon="0.930394">
        <ele>2.6</ele>
      </trkpt>
      <trkpt lat="40.991718" lon="0.930328">
        <ele>2.5</ele>
      </trkpt>
      <trkpt lat="40.991699" lon="0.930301">
        <ele>2.5</ele>
      </trkpt>
      <trkpt lat="40.991629" lon="0.93019">
        <ele>2.5</ele>
      </trkpt>
      <trkpt lat="40.991536" lon="0.930238">
        <ele>2.5</ele>
      </trkpt>
      <trkpt lat="40.991393" lon="0.930211">
        <ele>2.4</ele>
      </trkpt>
      <trkpt lat="40.991203" lon="0.92984">
        <ele>2.7</ele>
      </trkpt>
      <trkpt lat="40.991014" lon="0.92947">
        <ele>2.8</ele>
      </trkpt>
      <trkpt lat="40.990919" lon="0.92927">
        <ele>3.1</ele>
      </trkpt>
      <trkpt lat="40.990796" lon="0.92901">
        <ele>3.3</ele>
      </trkpt>
      <trkpt lat="40.990718" lon="0.929061">
        <ele>3.1</ele>
      </trkpt>
      <trkpt lat="40.990522" lon="0.92919">
        <ele>2.9</ele>
      </trkpt>
      <trkpt lat="40.990342" lon="0.928728">
        <ele>3.2</ele>
      </trkpt>
      <trkpt lat="40.990161" lon="0.928266">
        <ele>3.5</ele>
      </trkpt>
      <trkpt lat="40.989981" lon="0.927805">
        <ele>3.7</ele>
      </trkpt>
      <trkpt lat="40.989836" lon="0.927438">
        <ele>4.0</ele>
      </trkpt>
      <trkpt lat="40.989691" lon="0.927071">
        <ele>4.1</ele>
      </trkpt>
      <trkpt lat="40.989593" lon="0.926814">
        <ele>4.1</ele>
      </trkpt>
      <trkpt lat="40.989534" lon="0.92666">
        <ele>4.1</ele>
      </trkpt>
      <trkpt lat="40.989428" lon="0.926394">
        <ele>4.2</ele>
      </trkpt>
      <trkpt lat="40.989322" lon="0.926129">
        <ele>4.2</ele>
      </trkpt>
      <trkpt lat="40.989146" lon="0.925688">
        <ele>4.1</ele>
      </trkpt>
      <trkpt lat="40.98897" lon="0.925247">
        <ele>4.2</ele>
      </trkpt>
      <trkpt lat="40.988924" lon="0.925277">
        <ele>4.0</ele>
      </trkpt>
      <trkpt lat="40.988779" lon="0.924908">
        <ele>4.0</ele>
      </trkpt>
      <trkpt lat="40.988823" lon="0.924877">
        <ele>4.2</ele>
        <name>Passeig Maritim, Vandellòs i l&apos;Hospitalet de l&apos;Infant, Baix Camp</name>
        <extensions>
          <oa:Extension>
            <oa:mapZoom>16</oa:mapZoom>
          </oa:Extension>
        </extensions>
      </trkpt>
      <trkpt lat="40.98881" lon="0.924843">
        <ele>4.2</ele>
      </trkpt>
      <trkpt lat="40.98865" lon="0.924439">
        <ele>4.3</ele>
      </trkpt>
      <trkpt lat="40.988544" lon="0.924203">
        <ele>4.3</ele>
      </trkpt>
      <trkpt lat="40.98844" lon="0.923948">
        <ele>4.2</ele>
      </trkpt>
      <trkpt lat="40.988393" lon="0.923794">
        <ele>4.3</ele>
      </trkpt>
      <trkpt lat="40.988395" lon="0.923687">
        <ele>4.4</ele>
      </trkpt>
      <trkpt lat="40.988404" lon="0.923658">
        <ele>4.3</ele>
      </trkpt>
      <trkpt lat="40.988418" lon="0.923611">
        <ele>4.3</ele>
      </trkpt>
      <trkpt lat="40.988487" lon="0.923527">
        <ele>4.7</ele>
      </trkpt>
      <trkpt lat="40.988672" lon="0.92339">
        <ele>5.4</ele>
      </trkpt>
      <trkpt lat="40.988694" lon="0.923377">
        <ele>5.5</ele>
      </trkpt>
      <trkpt lat="40.988724" lon="0.92336">
        <ele>5.7</ele>
      </trkpt>
      <trkpt lat="40.988755" lon="0.923342">
        <ele>5.8</ele>
      </trkpt>
      <trkpt lat="40.988785" lon="0.923325">
        <ele>5.9</ele>
      </trkpt>
      <trkpt lat="40.988815" lon="0.923307">
        <ele>5.9</ele>
      </trkpt>
      <trkpt lat="40.988837" lon="0.923301">
        <ele>5.9</ele>
      </trkpt>
      <trkpt lat="40.988858" lon="0.923294">
        <ele>6.0</ele>
      </trkpt>
      <trkpt lat="40.989192" lon="0.923191">
        <ele>6.6</ele>
      </trkpt>
      <trkpt lat="40.989526" lon="0.923088">
        <ele>7.3</ele>
      </trkpt>
      <trkpt lat="40.98988" lon="0.922985">
        <ele>7.9</ele>
      </trkpt>
      <trkpt lat="40.990234" lon="0.922883">
        <ele>8.4</ele>
      </trkpt>
      <trkpt lat="40.990588" lon="0.922781">
        <ele>9.1</ele>
      </trkpt>
      <trkpt lat="40.990754" lon="0.922715">
        <ele>9.2</ele>
      </trkpt>
      <trkpt lat="40.991013" lon="0.922632">
        <ele>9.5</ele>
      </trkpt>
      <trkpt lat="40.991143" lon="0.92259">
        <ele>10.0</ele>
        <name>Església de Sant Pere, Vandellòs i l&apos;Hospitalet de l&apos;Infant</name>
        <extensions>
          <oa:Extension>
            <oa:mapZoom>17</oa:mapZoom>
          </oa:Extension>
        </extensions>
      </trkpt>
      <trkpt lat="40.991271" lon="0.922548">
        <ele>10.5</ele>
      </trkpt>
      <trkpt lat="40.991374" lon="0.922718">
        <ele>11.2</ele>
      </trkpt>
      <trkpt lat="40.991461" lon="0.922689">
        <ele>11.6</ele>
      </trkpt>
      <trkpt lat="40.991655" lon="0.922629">
        <ele>11.8</ele>
      </trkpt>
      <trkpt lat="40.991743" lon="0.9226">
        <ele>11.9</ele>
      </trkpt>
      <trkpt lat="40.991762" lon="0.922594">
        <ele>11.9</ele>
      </trkpt>
      <trkpt lat="40.991805" lon="0.92258">
        <ele>12.0</ele>
      </trkpt>
      <trkpt lat="40.992008" lon="0.922513">
        <ele>12.3</ele>
      </trkpt>
      <trkpt lat="40.992094" lon="0.922485">
        <ele>12.4</ele>
      </trkpt>
      <trkpt lat="40.992191" lon="0.922453">
        <ele>12.5</ele>
      </trkpt>
      <trkpt lat="40.992305" lon="0.922417">
        <ele>12.8</ele>
      </trkpt>
      <trkpt lat="40.992611" lon="0.922319">
        <ele>13.4</ele>
      </trkpt>
      <trkpt lat="40.992916" lon="0.92222">
        <ele>14.1</ele>
      </trkpt>
      <trkpt lat="40.993169" lon="0.922144">
        <ele>14.6</ele>
      </trkpt>
      <trkpt lat="40.993422" lon="0.922068">
        <ele>14.9</ele>
      </trkpt>
      <trkpt lat="40.993377" lon="0.921961">
        <ele>14.8</ele>
      </trkpt>
      <trkpt lat="40.993743" lon="0.921859">
        <ele>15.2</ele>
      </trkpt>
      <trkpt lat="40.993756" lon="0.921899">
        <ele>15.2</ele>
      </trkpt>
      <trkpt lat="40.993785" lon="0.921994">
        <ele>15.3</ele>
      </trkpt>
      <trkpt lat="40.993893" lon="0.921901">
        <ele>15.5</ele>
      </trkpt>
      <trkpt lat="40.994041" lon="0.921784">
        <ele>15.6</ele>
      </trkpt>
      <trkpt lat="40.994113" lon="0.921728">
        <ele>15.6</ele>
      </trkpt>
      <trkpt lat="40.994184" lon="0.921657">
        <ele>15.8</ele>
      </trkpt>
      <trkpt lat="40.994468" lon="0.921375">
        <ele>16.1</ele>
      </trkpt>
      <trkpt lat="40.99451" lon="0.921337">
        <ele>16.1</ele>
      </trkpt>
      <trkpt lat="40.994559" lon="0.921293">
        <ele>16.1</ele>
      </trkpt>
      <trkpt lat="40.994857" lon="0.921026">
        <ele>16.6</ele>
      </trkpt>
      <trkpt lat="40.995" lon="0.920903">
        <ele>16.7</ele>
      </trkpt>
      <trkpt lat="40.994984" lon="0.92081">
        <ele>16.6</ele>
      </trkpt>
      <trkpt lat="40.994787" lon="0.920398">
        <ele>15.9</ele>
      </trkpt>
      <trkpt lat="40.994736" lon="0.92029">
        <ele>15.6</ele>
      </trkpt>
      <trkpt lat="40.994711" lon="0.920237">
        <ele>15.4</ele>
      </trkpt>
      <trkpt lat="40.994718" lon="0.920221">
        <ele>15.3</ele>
      </trkpt>
      <trkpt lat="40.994722" lon="0.920204">
        <ele>15.3</ele>
      </trkpt>
      <trkpt lat="40.994723" lon="0.920185">
        <ele>15.2</ele>
      </trkpt>
      <trkpt lat="40.994852" lon="0.920118">
        <ele>15.1</ele>
      </trkpt>
      <trkpt lat="40.994883" lon="0.920103">
        <ele>15.0</ele>
      </trkpt>
      <trkpt lat="40.995208" lon="0.919941">
        <ele>13.6</ele>
      </trkpt>
      <trkpt lat="40.995497" lon="0.919798">
        <ele>13.0</ele>
        <name>C-44, Vandellòs i l&apos;Hospitalet de l&apos;Infant</name>
        <extensions>
          <oa:Extension>
            <oa:mapZoom>17</oa:mapZoom>
          </oa:Extension>
        </extensions>
      </trkpt>
    </trkseg>
  </trk>
</gpx>