<?xml version="1.0" encoding="UTF-8"?>
<gpx version="1.1" creator="GR92-split" xmlns="http://www.topografix.com/GPX/1/1">
  <trk><name>Etappi 26b - Vila-seca to Cambrils</name><trkseg>
    <trkpt lat="41.116177" lon="1.157295"><ele>37.0</ele></trkpt>
    <trkpt lat="41.116355" lon="1.157092"><ele>37.0</ele></trkpt>
    <trkpt lat="41.116375" lon="1.157033"><ele>37.0</ele></trkpt>
    <trkpt lat="41.116390" lon="1.156970"><ele>36.9</ele></trkpt>
    <trkpt lat="41.116310" lon="1.156857"><ele>36.9</ele></trkpt>
    <trkpt lat="41.116288" lon="1.156821"><ele>36.9</ele></trkpt>
    <trkpt lat="41.116215" lon="1.156703"><ele>36.8</ele></trkpt>
    <trkpt lat="41.115983" lon="1.156328"><ele>36.7</ele></trkpt>
    <trkpt lat="41.115751" lon="1.155954"><ele>36.5</ele></trkpt>
    <trkpt lat="41.115487" lon="1.155527"><ele>36.3</ele></trkpt>
    <trkpt lat="41.115279" lon="1.155191"><ele>36.1</ele></trkpt>
    <trkpt lat="41.115067" lon="1.154848"><ele>36.1</ele></trkpt>
    <trkpt lat="41.114855" lon="1.154505"><ele>36.0</ele></trkpt>
    <trkpt lat="41.114626" lon="1.154751"><ele>35.5</ele></trkpt>
    <trkpt lat="41.114398" lon="1.154996"><ele>35.0</ele></trkpt>
    <trkpt lat="41.114147" lon="1.155277"><ele>34.3</ele></trkpt>
    <trkpt lat="41.114060" lon="1.155369"><ele>34.2</ele></trkpt>
    <trkpt lat="41.113984" lon="1.155449"><ele>34.0</ele></trkpt>
    <trkpt lat="41.113968" lon="1.155467"><ele>34.0</ele></trkpt>
    <trkpt lat="41.113782" lon="1.155519"><ele>34.0</ele></trkpt>
    <trkpt lat="41.113765" lon="1.155505"><ele>34.1</ele></trkpt>
    <trkpt lat="41.113738" lon="1.155471"><ele>34.1</ele></trkpt>
    <trkpt lat="41.113714" lon="1.155419"><ele>34.1</ele></trkpt>
    <trkpt lat="41.113689" lon="1.155325"><ele>34.1</ele></trkpt>
    <trkpt lat="41.113665" lon="1.155181"><ele>34.3</ele></trkpt>
    <trkpt lat="41.113648" lon="1.154594"><ele>35.2</ele></trkpt>
    <trkpt lat="41.113632" lon="1.154007"><ele>36.2</ele></trkpt>
    <trkpt lat="41.113615" lon="1.153420"><ele>37.2</ele></trkpt>
    <trkpt lat="41.113599" lon="1.152833"><ele>37.7</ele></trkpt>
    <trkpt lat="41.113591" lon="1.152552"><ele>37.9</ele></trkpt>
    <trkpt lat="41.113586" lon="1.152365"><ele>37.9</ele></trkpt>
    <trkpt lat="41.113571" lon="1.151808"><ele>38.4</ele></trkpt>
    <trkpt lat="41.113557" lon="1.151251"><ele>39.2</ele></trkpt>
    <trkpt lat="41.113542" lon="1.150694"><ele>40.4</ele></trkpt>
    <trkpt lat="41.113542" lon="1.150689"><ele>40.4</ele></trkpt>
    <trkpt lat="41.113530" lon="1.150271"><ele>41.2</ele></trkpt>
    <trkpt lat="41.113538" lon="1.150202"><ele>41.4</ele></trkpt>
    <trkpt lat="41.113560" lon="1.150139"><ele>41.6</ele></trkpt>
    <trkpt lat="41.113591" lon="1.150095"><ele>41.7</ele></trkpt>
    <trkpt lat="41.113828" lon="1.149828"><ele>41.6</ele></trkpt>
    <trkpt lat="41.113725" lon="1.149705"><ele>42.5</ele></trkpt>
    <trkpt lat="41.113486" lon="1.149423"><ele>42.8</ele></trkpt>
    <trkpt lat="41.113420" lon="1.149346"><ele>42.9</ele></trkpt>
    <trkpt lat="41.113503" lon="1.149237"><ele>42.9</ele></trkpt>
    <trkpt lat="41.113390" lon="1.149066"><ele>43.2</ele></trkpt>
    <trkpt lat="41.113143" lon="1.149370"><ele>43.0</ele></trkpt>
    <trkpt lat="41.112896" lon="1.149673"><ele>42.8</ele></trkpt>
    <trkpt lat="41.112649" lon="1.149977"><ele>42.2</ele></trkpt>
    <trkpt lat="41.112430" lon="1.149650"><ele>42.4</ele></trkpt>
    <trkpt lat="41.112211" lon="1.149324"><ele>42.5</ele></trkpt>
    <trkpt lat="41.112042" lon="1.149050"><ele>42.3</ele></trkpt>
    <trkpt lat="41.111868" lon="1.148767"><ele>42.2</ele></trkpt>
    <trkpt lat="41.111693" lon="1.148484"><ele>42.0</ele></trkpt>
    <trkpt lat="41.111533" lon="1.148224"><ele>41.9</ele></trkpt>
    <trkpt lat="41.111439" lon="1.148323"><ele>41.7</ele></trkpt>
    <trkpt lat="41.111196" lon="1.148579"><ele>41.3</ele></trkpt>
    <trkpt lat="41.111023" lon="1.148760"><ele>41.1</ele></trkpt>
    <trkpt lat="41.111023" lon="1.148761"><ele>41.1</ele></trkpt>
    <trkpt lat="41.110953" lon="1.148835"><ele>41.0</ele></trkpt>
    <trkpt lat="41.110689" lon="1.148498"><ele>40.8</ele></trkpt>
    <trkpt lat="41.110466" lon="1.148212"><ele>40.3</ele></trkpt>
    <trkpt lat="41.110154" lon="1.147826"><ele>40.0</ele></trkpt>
    <trkpt lat="41.109928" lon="1.147546"><ele>40.3</ele></trkpt>
    <trkpt lat="41.109695" lon="1.147874"><ele>40.2</ele></trkpt>
    <trkpt lat="41.109463" lon="1.148201"><ele>39.7</ele></trkpt>
    <trkpt lat="41.109231" lon="1.148529"><ele>39.1</ele></trkpt>
    <trkpt lat="41.108999" lon="1.148856"><ele>38.6</ele></trkpt>
    <trkpt lat="41.108953" lon="1.148974"><ele>38.3</ele></trkpt>
    <trkpt lat="41.108834" lon="1.148800"><ele>38.3</ele></trkpt>
    <trkpt lat="41.108716" lon="1.148632"><ele>38.3</ele></trkpt>
    <trkpt lat="41.108587" lon="1.148811"><ele>37.7</ele></trkpt>
    <trkpt lat="41.108474" lon="1.149071"><ele>37.0</ele></trkpt>
    <trkpt lat="41.108362" lon="1.149332"><ele>36.7</ele></trkpt>
    <trkpt lat="41.108312" lon="1.149449"><ele>36.7</ele></trkpt>
    <trkpt lat="41.108164" lon="1.149581"><ele>36.4</ele></trkpt>
    <trkpt lat="41.108023" lon="1.149582"><ele>36.3</ele></trkpt>
    <trkpt lat="41.107874" lon="1.149456"><ele>36.2</ele></trkpt>
    <trkpt lat="41.107564" lon="1.149176"><ele>36.1</ele></trkpt>
    <trkpt lat="41.107406" lon="1.149084"><ele>36.0</ele></trkpt>
    <trkpt lat="41.107285" lon="1.149090"><ele>35.7</ele></trkpt>
    <trkpt lat="41.107205" lon="1.149122"><ele>35.5</ele></trkpt>
    <trkpt lat="41.107251" lon="1.149257"><ele>35.9</ele></trkpt>
    <trkpt lat="41.106999" lon="1.149381"><ele>35.3</ele></trkpt>
    <trkpt lat="41.106747" lon="1.149506"><ele>34.5</ele></trkpt>
    <trkpt lat="41.106661" lon="1.149548"><ele>34.6</ele></trkpt>
    <trkpt lat="41.106592" lon="1.149582"><ele>34.5</ele></trkpt>
    <trkpt lat="41.106261" lon="1.149746"><ele>34.2</ele></trkpt>
    <trkpt lat="41.105930" lon="1.149909"><ele>34.0</ele></trkpt>
    <trkpt lat="41.105600" lon="1.150072"><ele>33.4</ele></trkpt>
    <trkpt lat="41.105343" lon="1.150198"><ele>33.6</ele></trkpt>
    <trkpt lat="41.105087" lon="1.150325"><ele>33.4</ele></trkpt>
    <trkpt lat="41.105021" lon="1.150497"><ele>33.2</ele></trkpt>
    <trkpt lat="41.104966" lon="1.150525"><ele>33.0</ele></trkpt>
    <trkpt lat="41.104911" lon="1.150554"><ele>33.2</ele></trkpt>
    <trkpt lat="41.104765" lon="1.150495"><ele>33.5</ele></trkpt>
    <trkpt lat="41.104727" lon="1.150513"><ele>33.5</ele></trkpt>
    <trkpt lat="41.104358" lon="1.150689"><ele>33.5</ele></trkpt>
    <trkpt lat="41.104205" lon="1.150703"><ele>33.3</ele></trkpt>
    <trkpt lat="41.103880" lon="1.150852"><ele>33.2</ele></trkpt>
    <trkpt lat="41.103791" lon="1.150960"><ele>33.4</ele></trkpt>
    <trkpt lat="41.103696" lon="1.151097"><ele>33.1</ele></trkpt>
    <trkpt lat="41.103623" lon="1.151210"><ele>33.0</ele></trkpt>
    <trkpt lat="41.103593" lon="1.151254"><ele>33.0</ele></trkpt>
    <trkpt lat="41.103492" lon="1.151364"><ele>33.0</ele></trkpt>
    <trkpt lat="41.103451" lon="1.151392"><ele>32.9</ele></trkpt>
    <trkpt lat="41.103420" lon="1.151440"><ele>32.8</ele></trkpt>
    <trkpt lat="41.103366" lon="1.151407"><ele>32.8</ele></trkpt>
    <trkpt lat="41.103331" lon="1.151388"><ele>32.9</ele></trkpt>
    <trkpt lat="41.103176" lon="1.151297"><ele>32.9</ele></trkpt>
    <trkpt lat="41.103110" lon="1.151271"><ele>32.8</ele></trkpt>
    <trkpt lat="41.103080" lon="1.151266"><ele>32.7</ele></trkpt>
    <trkpt lat="41.103027" lon="1.151257"><ele>32.6</ele></trkpt>
    <trkpt lat="41.102943" lon="1.151271"><ele>32.5</ele></trkpt>
    <trkpt lat="41.102556" lon="1.151422"><ele>32.7</ele></trkpt>
    <trkpt lat="41.102169" lon="1.151572"><ele>33.2</ele></trkpt>
    <trkpt lat="41.101781" lon="1.151689"><ele>31.7</ele></trkpt>
    <trkpt lat="41.101558" lon="1.151752"><ele>30.3</ele></trkpt>
    <trkpt lat="41.101369" lon="1.151788"><ele>29.1</ele></trkpt>
    <trkpt lat="41.101243" lon="1.151809"><ele>28.3</ele></trkpt>
    <trkpt lat="41.101050" lon="1.151822"><ele>27.1</ele></trkpt>
    <trkpt lat="41.100726" lon="1.151830"><ele>33.9</ele></trkpt>
    <trkpt lat="41.100617" lon="1.151860"><ele>33.9</ele></trkpt>
    <trkpt lat="41.100557" lon="1.151896"><ele>33.9</ele></trkpt>
    <trkpt lat="41.100528" lon="1.151924"><ele>33.9</ele></trkpt>
    <trkpt lat="41.100515" lon="1.151948"><ele>33.9</ele></trkpt>
    <trkpt lat="41.100494" lon="1.152015"><ele>33.8</ele></trkpt>
    <trkpt lat="41.100478" lon="1.152079"><ele>33.8</ele></trkpt>
    <trkpt lat="41.100330" lon="1.152071"><ele>34.0</ele></trkpt>
    <trkpt lat="41.100237" lon="1.152093"><ele>34.1</ele></trkpt>
    <trkpt lat="41.100191" lon="1.152097"><ele>34.1</ele></trkpt>
    <trkpt lat="41.100150" lon="1.152086"><ele>34.1</ele></trkpt>
    <trkpt lat="41.100102" lon="1.152060"><ele>34.1</ele></trkpt>
    <trkpt lat="41.100066" lon="1.152031"><ele>34.0</ele></trkpt>
    <trkpt lat="41.100011" lon="1.151982"><ele>34.0</ele></trkpt>
    <trkpt lat="41.099984" lon="1.151951"><ele>34.0</ele></trkpt>
    <trkpt lat="41.099948" lon="1.151908"><ele>34.0</ele></trkpt>
    <trkpt lat="41.099898" lon="1.151863"><ele>34.1</ele></trkpt>
    <trkpt lat="41.099847" lon="1.151832"><ele>34.0</ele></trkpt>
    <trkpt lat="41.099822" lon="1.151828"><ele>34.0</ele></trkpt>
    <trkpt lat="41.099839" lon="1.151779"><ele>33.9</ele></trkpt>
    <trkpt lat="41.099843" lon="1.151735"><ele>34.0</ele></trkpt>
    <trkpt lat="41.099841" lon="1.151643"><ele>33.9</ele></trkpt>
    <trkpt lat="41.099835" lon="1.151605"><ele>33.8</ele></trkpt>
    <trkpt lat="41.099800" lon="1.151504"><ele>33.7</ele></trkpt>
    <trkpt lat="41.099735" lon="1.151544"><ele>34.0</ele></trkpt>
    <trkpt lat="41.099309" lon="1.151584"><ele>34.3</ele></trkpt>
    <trkpt lat="41.098883" lon="1.151624"><ele>34.8</ele></trkpt>
    <trkpt lat="41.098457" lon="1.151663"><ele>34.6</ele></trkpt>
    <trkpt lat="41.098250" lon="1.151683"><ele>30.4</ele></trkpt>
    <trkpt lat="41.097855" lon="1.151720"><ele>34.6</ele></trkpt>
    <trkpt lat="41.097470" lon="1.151752"><ele>34.6</ele></trkpt>
    <trkpt lat="41.097086" lon="1.151785"><ele>34.3</ele></trkpt>
    <trkpt lat="41.096701" lon="1.151817"><ele>34.2</ele></trkpt>
    <trkpt lat="41.096316" lon="1.151850"><ele>34.0</ele></trkpt>
    <trkpt lat="41.095931" lon="1.151882"><ele>33.8</ele></trkpt>
    <trkpt lat="41.095547" lon="1.151915"><ele>33.6</ele></trkpt>
    <trkpt lat="41.095318" lon="1.151874"><ele>33.7</ele></trkpt>
    <trkpt lat="41.095181" lon="1.151586"><ele>33.5</ele></trkpt>
    <trkpt lat="41.095132" lon="1.151591"><ele>33.3</ele></trkpt>
    <trkpt lat="41.095035" lon="1.151595"><ele>33.3</ele></trkpt>
    <trkpt lat="41.094965" lon="1.151597"><ele>33.5</ele></trkpt>
    <trkpt lat="41.094910" lon="1.151731"><ele>33.8</ele></trkpt>
    <trkpt lat="41.094813" lon="1.151821"><ele>33.7</ele></trkpt>
    <trkpt lat="41.094666" lon="1.151889"><ele>33.4</ele></trkpt>
    <trkpt lat="41.094279" lon="1.151890"><ele>33.3</ele></trkpt>
    <trkpt lat="41.093891" lon="1.151891"><ele>33.0</ele></trkpt>
    <trkpt lat="41.093503" lon="1.151892"><ele>32.7</ele></trkpt>
    <trkpt lat="41.093116" lon="1.151892"><ele>32.2</ele></trkpt>
    <trkpt lat="41.093048" lon="1.151851"><ele>32.0</ele></trkpt>
    <trkpt lat="41.092993" lon="1.151769"><ele>31.7</ele></trkpt>
    <trkpt lat="41.092925" lon="1.151774"><ele>31.3</ele></trkpt>
    <trkpt lat="41.092835" lon="1.151774"><ele>31.5</ele></trkpt>
    <trkpt lat="41.092722" lon="1.151895"><ele>31.6</ele></trkpt>
    <trkpt lat="41.092337" lon="1.151869"><ele>31.0</ele></trkpt>
    <trkpt lat="41.091952" lon="1.151843"><ele>30.2</ele></trkpt>
    <trkpt lat="41.091838" lon="1.151799"><ele>30.0</ele></trkpt>
    <trkpt lat="41.091705" lon="1.151769"><ele>29.9</ele></trkpt>
    <trkpt lat="41.091634" lon="1.151761"><ele>29.7</ele></trkpt>
    <trkpt lat="41.091538" lon="1.151767"><ele>29.5</ele></trkpt>
    <trkpt lat="41.091358" lon="1.151783"><ele>29.0</ele></trkpt>
    <trkpt lat="41.091134" lon="1.151741"><ele>28.6</ele></trkpt>
    <trkpt lat="41.090910" lon="1.151698"><ele>28.1</ele></trkpt>
    <trkpt lat="41.090877" lon="1.151639"><ele>28.0</ele></trkpt>
    <trkpt lat="41.090841" lon="1.151558"><ele>27.6</ele></trkpt>
    <trkpt lat="41.090821" lon="1.151536"><ele>27.3</ele></trkpt>
    <trkpt lat="41.090724" lon="1.151515"><ele>27.1</ele></trkpt>
    <trkpt lat="41.090702" lon="1.151510"><ele>27.1</ele></trkpt>
    <trkpt lat="41.090628" lon="1.151494"><ele>27.2</ele></trkpt>
    <trkpt lat="41.090604" lon="1.151500"><ele>27.2</ele></trkpt>
    <trkpt lat="41.090553" lon="1.151557"><ele>27.3</ele></trkpt>
    <trkpt lat="41.090522" lon="1.151588"><ele>27.3</ele></trkpt>
    <trkpt lat="41.090484" lon="1.151602"><ele>27.3</ele></trkpt>
    <trkpt lat="41.090089" lon="1.151508"><ele>26.6</ele></trkpt>
    <trkpt lat="41.089787" lon="1.151417"><ele>26.0</ele></trkpt>
    <trkpt lat="41.089485" lon="1.151326"><ele>25.4</ele></trkpt>
    <trkpt lat="41.089447" lon="1.151294"><ele>25.3</ele></trkpt>
    <trkpt lat="41.089422" lon="1.151233"><ele>25.1</ele></trkpt>
    <trkpt lat="41.089408" lon="1.151175"><ele>24.8</ele></trkpt>
    <trkpt lat="41.089397" lon="1.151157"><ele>24.7</ele></trkpt>
    <trkpt lat="41.089381" lon="1.151148"><ele>24.6</ele></trkpt>
    <trkpt lat="41.089309" lon="1.151126"><ele>24.4</ele></trkpt>
    <trkpt lat="41.089267" lon="1.151113"><ele>24.3</ele></trkpt>
    <trkpt lat="41.089185" lon="1.151088"><ele>24.5</ele></trkpt>
    <trkpt lat="41.089157" lon="1.151103"><ele>24.6</ele></trkpt>
    <trkpt lat="41.089125" lon="1.151139"><ele>24.6</ele></trkpt>
    <trkpt lat="41.089095" lon="1.151158"><ele>24.6</ele></trkpt>
    <trkpt lat="41.089060" lon="1.151163"><ele>24.6</ele></trkpt>
    <trkpt lat="41.089039" lon="1.151157"><ele>24.6</ele></trkpt>
    <trkpt lat="41.088771" lon="1.151046"><ele>24.3</ele></trkpt>
    <trkpt lat="41.088503" lon="1.150936"><ele>24.0</ele></trkpt>
    <trkpt lat="41.088337" lon="1.150816"><ele>24.0</ele></trkpt>
    <trkpt lat="41.088264" lon="1.150783"><ele>24.1</ele></trkpt>
    <trkpt lat="41.088180" lon="1.150762"><ele>23.9</ele></trkpt>
    <trkpt lat="41.088064" lon="1.150756"><ele>23.8</ele></trkpt>
    <trkpt lat="41.088017" lon="1.150734"><ele>23.8</ele></trkpt>
    <trkpt lat="41.088017" lon="1.150735"><ele>23.8</ele></trkpt>
    <trkpt lat="41.087717" lon="1.150595"><ele>23.9</ele></trkpt>
    <trkpt lat="41.087369" lon="1.150435"><ele>24.4</ele></trkpt>
    <trkpt lat="41.087022" lon="1.150274"><ele>24.8</ele></trkpt>
    <trkpt lat="41.086958" lon="1.150230"><ele>24.8</ele></trkpt>
    <trkpt lat="41.086905" lon="1.150190"><ele>24.7</ele></trkpt>
    <trkpt lat="41.086640" lon="1.150036"><ele>22.9</ele></trkpt>
    <trkpt lat="41.086434" lon="1.149913"><ele>20.6</ele></trkpt>
    <trkpt lat="41.086228" lon="1.149791"><ele>18.9</ele></trkpt>
    <trkpt lat="41.086200" lon="1.149778"><ele>18.8</ele></trkpt>
    <trkpt lat="41.086053" lon="1.149714"><ele>18.6</ele></trkpt>
    <trkpt lat="41.086018" lon="1.149699"><ele>18.5</ele></trkpt>
    <trkpt lat="41.085927" lon="1.149658"><ele>18.5</ele></trkpt>
    <trkpt lat="41.085892" lon="1.149643"><ele>18.6</ele></trkpt>
    <trkpt lat="41.085753" lon="1.149581"><ele>19.1</ele></trkpt>
    <trkpt lat="41.085712" lon="1.149563"><ele>19.2</ele></trkpt>
    <trkpt lat="41.085446" lon="1.149490"><ele>20.7</ele></trkpt>
    <trkpt lat="41.085180" lon="1.149417"><ele>22.3</ele></trkpt>
    <trkpt lat="41.084964" lon="1.149360"><ele>23.5</ele></trkpt>
    <trkpt lat="41.084842" lon="1.149318"><ele>23.1</ele></trkpt>
    <trkpt lat="41.084435" lon="1.149137"><ele>21.6</ele></trkpt>
    <trkpt lat="41.084029" lon="1.148956"><ele>20.1</ele></trkpt>
    <trkpt lat="41.083957" lon="1.148913"><ele>19.7</ele></trkpt>
    <trkpt lat="41.083889" lon="1.148863"><ele>19.4</ele></trkpt>
    <trkpt lat="41.083844" lon="1.148827"><ele>19.2</ele></trkpt>
    <trkpt lat="41.083786" lon="1.148789"><ele>19.0</ele></trkpt>
    <trkpt lat="41.083752" lon="1.148771"><ele>18.9</ele></trkpt>
    <trkpt lat="41.083704" lon="1.148751"><ele>18.7</ele></trkpt>
    <trkpt lat="41.083644" lon="1.148738"><ele>18.5</ele></trkpt>
    <trkpt lat="41.083567" lon="1.148727"><ele>18.2</ele></trkpt>
    <trkpt lat="41.083509" lon="1.148714"><ele>17.9</ele></trkpt>
    <trkpt lat="41.083407" lon="1.148682"><ele>17.6</ele></trkpt>
    <trkpt lat="41.083008" lon="1.148506"><ele>16.0</ele></trkpt>
    <trkpt lat="41.082608" lon="1.148331"><ele>14.5</ele></trkpt>
    <trkpt lat="41.082570" lon="1.148305"><ele>14.3</ele></trkpt>
    <trkpt lat="41.082495" lon="1.148247"><ele>13.9</ele></trkpt>
    <trkpt lat="41.082444" lon="1.148202"><ele>13.8</ele></trkpt>
    <trkpt lat="41.082246" lon="1.147983"><ele>12.1</ele></trkpt>
    <trkpt lat="41.082208" lon="1.147954"><ele>11.9</ele></trkpt>
    <trkpt lat="41.082171" lon="1.147932"><ele>11.8</ele></trkpt>
    <trkpt lat="41.082097" lon="1.147908"><ele>11.7</ele></trkpt>
    <trkpt lat="41.082040" lon="1.147902"><ele>11.6</ele></trkpt>
    <trkpt lat="41.081960" lon="1.147912"><ele>11.6</ele></trkpt>
    <trkpt lat="41.081846" lon="1.147913"><ele>11.3</ele></trkpt>
    <trkpt lat="41.081718" lon="1.147899"><ele>11.0</ele></trkpt>
    <trkpt lat="41.081630" lon="1.147876"><ele>10.7</ele></trkpt>
    <trkpt lat="41.081589" lon="1.147862"><ele>10.5</ele></trkpt>
    <trkpt lat="41.081541" lon="1.147846"><ele>10.4</ele></trkpt>
    <trkpt lat="41.081171" lon="1.147684"><ele>9.0</ele></trkpt>
    <trkpt lat="41.080802" lon="1.147523"><ele>7.8</ele></trkpt>
    <trkpt lat="41.080432" lon="1.147362"><ele>6.7</ele></trkpt>
    <trkpt lat="41.080062" lon="1.147201"><ele>5.8</ele></trkpt>
    <trkpt lat="41.079892" lon="1.147107"><ele>5.4</ele></trkpt>
    <trkpt lat="41.079857" lon="1.147079"><ele>5.3</ele></trkpt>
    <trkpt lat="41.079825" lon="1.147051"><ele>5.2</ele></trkpt>
    <trkpt lat="41.079796" lon="1.147011"><ele>5.1</ele></trkpt>
    <trkpt lat="41.079773" lon="1.146968"><ele>5.0</ele></trkpt>
    <trkpt lat="41.079762" lon="1.146923"><ele>4.9</ele></trkpt>
    <trkpt lat="41.079755" lon="1.146855"><ele>4.7</ele></trkpt>
    <trkpt lat="41.079763" lon="1.146806"><ele>4.6</ele></trkpt>
    <trkpt lat="41.079779" lon="1.146738"><ele>4.5</ele></trkpt>
    <trkpt lat="41.079775" lon="1.146714"><ele>4.5</ele></trkpt>
    <trkpt lat="41.079769" lon="1.146696"><ele>4.4</ele></trkpt>
    <trkpt lat="41.079727" lon="1.146622"><ele>4.3</ele></trkpt>
    <trkpt lat="41.079654" lon="1.146510"><ele>4.1</ele></trkpt>
    <trkpt lat="41.079614" lon="1.146429"><ele>4.3</ele></trkpt>
    <trkpt lat="41.079592" lon="1.146410"><ele>4.4</ele></trkpt>
    <trkpt lat="41.079566" lon="1.146406"><ele>4.4</ele></trkpt>
    <trkpt lat="41.079502" lon="1.146432"><ele>4.3</ele></trkpt>
    <trkpt lat="41.079446" lon="1.146447"><ele>4.3</ele></trkpt>
    <trkpt lat="41.079386" lon="1.146460"><ele>4.2</ele></trkpt>
    <trkpt lat="41.079271" lon="1.146471"><ele>4.1</ele></trkpt>
    <trkpt lat="41.079155" lon="1.146479"><ele>4.0</ele></trkpt>
    <trkpt lat="41.079086" lon="1.146473"><ele>4.0</ele></trkpt>
    <trkpt lat="41.079021" lon="1.146462"><ele>4.0</ele></trkpt>
    <trkpt lat="41.078968" lon="1.146448"><ele>3.9</ele></trkpt>
    <trkpt lat="41.078914" lon="1.146426"><ele>3.9</ele></trkpt>
    <trkpt lat="41.078848" lon="1.146376"><ele>3.8</ele></trkpt>
    <trkpt lat="41.078772" lon="1.146307"><ele>3.7</ele></trkpt>
    <trkpt lat="41.078729" lon="1.146245"><ele>3.6</ele></trkpt>
    <trkpt lat="41.078702" lon="1.146188"><ele>3.5</ele></trkpt>
    <trkpt lat="41.078689" lon="1.146161"><ele>3.5</ele></trkpt>
    <trkpt lat="41.078673" lon="1.146129"><ele>3.5</ele></trkpt>
    <trkpt lat="41.078648" lon="1.146069"><ele>3.2</ele></trkpt>
    <trkpt lat="41.078645" lon="1.146020"><ele>3.0</ele></trkpt>
    <trkpt lat="41.078655" lon="1.145987"><ele>3.0</ele></trkpt>
    <trkpt lat="41.078655" lon="1.145976"><ele>3.0</ele></trkpt>
    <trkpt lat="41.078650" lon="1.145963"><ele>3.0</ele></trkpt>
    <trkpt lat="41.078623" lon="1.145922"><ele>3.0</ele></trkpt>
    <trkpt lat="41.078585" lon="1.145875"><ele>3.1</ele></trkpt>
    <trkpt lat="41.078578" lon="1.145873"><ele>3.2</ele></trkpt>
    <trkpt lat="41.078571" lon="1.145870"><ele>3.2</ele></trkpt>
    <trkpt lat="41.078558" lon="1.145876"><ele>3.2</ele></trkpt>
    <trkpt lat="41.078537" lon="1.145889"><ele>3.3</ele></trkpt>
    <trkpt lat="41.078517" lon="1.145902"><ele>3.3</ele></trkpt>
    <trkpt lat="41.078485" lon="1.145908"><ele>3.3</ele></trkpt>
    <trkpt lat="41.078456" lon="1.145902"><ele>3.3</ele></trkpt>
    <trkpt lat="41.078431" lon="1.145886"><ele>3.3</ele></trkpt>
    <trkpt lat="41.078225" lon="1.145567"><ele>3.3</ele></trkpt>
    <trkpt lat="41.077957" lon="1.145129"><ele>3.0</ele></trkpt>
    <trkpt lat="41.077688" lon="1.144691"><ele>2.5</ele></trkpt>
    <trkpt lat="41.077420" lon="1.144252"><ele>2.3</ele></trkpt>
    <trkpt lat="41.077408" lon="1.144264"><ele>2.2</ele></trkpt>
    <trkpt lat="41.077353" lon="1.144320"><ele>2.1</ele></trkpt>
    <trkpt lat="41.077290" lon="1.144214"><ele>2.1</ele></trkpt>
    <trkpt lat="41.077115" lon="1.143938"><ele>1.7</ele></trkpt>
    <trkpt lat="41.077105" lon="1.143902"><ele>1.7</ele></trkpt>
    <trkpt lat="41.077093" lon="1.143868"><ele>1.7</ele></trkpt>
    <trkpt lat="41.077078" lon="1.143836"><ele>1.8</ele></trkpt>
    <trkpt lat="41.077046" lon="1.143786"><ele>1.8</ele></trkpt>
    <trkpt lat="41.077008" lon="1.143744"><ele>1.8</ele></trkpt>
    <trkpt lat="41.076965" lon="1.143711"><ele>1.7</ele></trkpt>
    <trkpt lat="41.076918" lon="1.143689"><ele>1.6</ele></trkpt>
    <trkpt lat="41.076869" lon="1.143679"><ele>1.7</ele></trkpt>
    <trkpt lat="41.076819" lon="1.143680"><ele>1.7</ele></trkpt>
    <trkpt lat="41.076770" lon="1.143693"><ele>1.7</ele></trkpt>
    <trkpt lat="41.076724" lon="1.143716"><ele>1.7</ele></trkpt>
    <trkpt lat="41.076697" lon="1.143737"><ele>1.7</ele></trkpt>
    <trkpt lat="41.076672" lon="1.143761"><ele>1.7</ele></trkpt>
    <trkpt lat="41.076649" lon="1.143788"><ele>1.7</ele></trkpt>
    <trkpt lat="41.076629" lon="1.143819"><ele>1.7</ele></trkpt>
    <trkpt lat="41.076611" lon="1.143853"><ele>1.7</ele></trkpt>
    <trkpt lat="41.076596" lon="1.143889"><ele>1.6</ele></trkpt>
    <trkpt lat="41.076430" lon="1.144026"><ele>1.9</ele></trkpt>
    <trkpt lat="41.076348" lon="1.144095"><ele>1.8</ele></trkpt>
    <trkpt lat="41.076105" lon="1.144234"><ele>1.9</ele></trkpt>
    <trkpt lat="41.075867" lon="1.144354"><ele>1.9</ele></trkpt>
    <trkpt lat="41.075733" lon="1.144401"><ele>2.0</ele></trkpt>
    <trkpt lat="41.075666" lon="1.144425"><ele>2.0</ele></trkpt>
    <trkpt lat="41.075569" lon="1.144390"><ele>2.0</ele></trkpt>
    <trkpt lat="41.075427" lon="1.144323"><ele>2.0</ele></trkpt>
    <trkpt lat="41.075285" lon="1.144180"><ele>1.8</ele></trkpt>
    <trkpt lat="41.075218" lon="1.144073"><ele>1.8</ele></trkpt>
    <trkpt lat="41.075168" lon="1.143962"><ele>1.8</ele></trkpt>
    <trkpt lat="41.075140" lon="1.143841"><ele>1.8</ele></trkpt>
    <trkpt lat="41.075109" lon="1.143709"><ele>1.9</ele></trkpt>
    <trkpt lat="41.075211" lon="1.143450"><ele>1.8</ele></trkpt>
    <trkpt lat="41.075231" lon="1.143387"><ele>1.8</ele></trkpt>
    <trkpt lat="41.074903" lon="1.143187"><ele>1.9</ele></trkpt>
    <trkpt lat="41.074575" lon="1.142987"><ele>1.8</ele></trkpt>
    <trkpt lat="41.074247" lon="1.142787"><ele>1.8</ele></trkpt>
    <trkpt lat="41.073918" lon="1.142587"><ele>1.7</ele></trkpt>
    <trkpt lat="41.073846" lon="1.142543"><ele>1.5</ele></trkpt>
    <trkpt lat="41.073897" lon="1.142384"><ele>1.6</ele></trkpt>
    <trkpt lat="41.073993" lon="1.142085"><ele>1.6</ele></trkpt>
    <trkpt lat="41.074089" lon="1.141787"><ele>1.5</ele></trkpt>
    <trkpt lat="41.074103" lon="1.141744"><ele>1.5</ele></trkpt>
    <trkpt lat="41.074114" lon="1.141709"><ele>1.5</ele></trkpt>
    <trkpt lat="41.074076" lon="1.141686"><ele>1.5</ele></trkpt>
    <trkpt lat="41.073947" lon="1.141630"><ele>1.4</ele></trkpt>
    <trkpt lat="41.073841" lon="1.141578"><ele>1.4</ele></trkpt>
    <trkpt lat="41.073804" lon="1.141579"><ele>1.4</ele></trkpt>
    <trkpt lat="41.073789" lon="1.141580"><ele>1.4</ele></trkpt>
    <trkpt lat="41.073748" lon="1.141558"><ele>1.3</ele></trkpt>
    <trkpt lat="41.073622" lon="1.141492"><ele>1.3</ele></trkpt>
    <trkpt lat="41.073498" lon="1.141428"><ele>1.2</ele></trkpt>
    <trkpt lat="41.073434" lon="1.141394"><ele>1.2</ele></trkpt>
    <trkpt lat="41.073421" lon="1.141387"><ele>1.2</ele></trkpt>
    <trkpt lat="41.073405" lon="1.141379"><ele>1.2</ele></trkpt>
    <trkpt lat="41.073506" lon="1.140979"><ele>1.6</ele></trkpt>
    <trkpt lat="41.073607" lon="1.140579"><ele>1.2</ele></trkpt>
    <trkpt lat="41.073690" lon="1.140194"><ele>1.5</ele></trkpt>
    <trkpt lat="41.073773" lon="1.139809"><ele>1.2</ele></trkpt>
    <trkpt lat="41.073867" lon="1.139296"><ele>1.4</ele></trkpt>
    <trkpt lat="41.073894" lon="1.139126"><ele>1.4</ele></trkpt>
    <trkpt lat="41.073904" lon="1.139036"><ele>1.4</ele></trkpt>
    <trkpt lat="41.073955" lon="1.138550"><ele>1.0</ele></trkpt>
    <trkpt lat="41.074020" lon="1.138076"><ele>1.5</ele></trkpt>
    <trkpt lat="41.074086" lon="1.137603"><ele>1.2</ele></trkpt>
    <trkpt lat="41.074097" lon="1.137500"><ele>1.4</ele></trkpt>
    <trkpt lat="41.074141" lon="1.137092"><ele>1.5</ele></trkpt>
    <trkpt lat="41.074185" lon="1.136685"><ele>1.2</ele></trkpt>
    <trkpt lat="41.074227" lon="1.136192"><ele>1.5</ele></trkpt>
    <trkpt lat="41.074244" lon="1.135991"><ele>1.5</ele></trkpt>
    <trkpt lat="41.074287" lon="1.135499"><ele>1.5</ele></trkpt>
    <trkpt lat="41.074292" lon="1.135442"><ele>1.5</ele></trkpt>
    <trkpt lat="41.074329" lon="1.135006"><ele>1.0</ele></trkpt>
    <trkpt lat="41.074363" lon="1.134591"><ele>1.4</ele></trkpt>
    <trkpt lat="41.074397" lon="1.134176"><ele>1.5</ele></trkpt>
    <trkpt lat="41.074432" lon="1.133752"><ele>1.3</ele></trkpt>
    <trkpt lat="41.074467" lon="1.133327"><ele>1.1</ele></trkpt>
    <trkpt lat="41.074470" lon="1.133285"><ele>1.0</ele></trkpt>
    <trkpt lat="41.074488" lon="1.132847"><ele>1.4</ele></trkpt>
    <trkpt lat="41.074459" lon="1.132546"><ele>1.4</ele></trkpt>
    <trkpt lat="41.074431" lon="1.132246"><ele>1.6</ele></trkpt>
    <trkpt lat="41.074428" lon="1.132212"><ele>1.6</ele></trkpt>
    <trkpt lat="41.074529" lon="1.132188"><ele>1.6</ele></trkpt>
    <trkpt lat="41.074597" lon="1.132140"><ele>1.6</ele></trkpt>
    <trkpt lat="41.074595" lon="1.131928"><ele>1.7</ele></trkpt>
    <trkpt lat="41.074842" lon="1.131870"><ele>1.7</ele></trkpt>
    <trkpt lat="41.075089" lon="1.131812"><ele>1.7</ele></trkpt>
    <trkpt lat="41.075066" lon="1.131653"><ele>1.7</ele></trkpt>
    <trkpt lat="41.075063" lon="1.131624"><ele>1.7</ele></trkpt>
    <trkpt lat="41.075095" lon="1.131616"><ele>1.7</ele></trkpt>
    <trkpt lat="41.075127" lon="1.131608"><ele>1.7</ele></trkpt>
    <trkpt lat="41.075159" lon="1.131600"><ele>1.7</ele></trkpt>
    <trkpt lat="41.075191" lon="1.131593"><ele>1.7</ele></trkpt>
    <trkpt lat="41.075223" lon="1.131585"><ele>1.7</ele></trkpt>
    <trkpt lat="41.075254" lon="1.131577"><ele>1.7</ele></trkpt>
    <trkpt lat="41.075287" lon="1.131569"><ele>1.7</ele></trkpt>
    <trkpt lat="41.075318" lon="1.131561"><ele>1.7</ele></trkpt>
    <trkpt lat="41.075350" lon="1.131554"><ele>1.8</ele></trkpt>
    <trkpt lat="41.075368" lon="1.131548"><ele>1.8</ele></trkpt>
    <trkpt lat="41.075386" lon="1.131542"><ele>1.9</ele></trkpt>
    <trkpt lat="41.075415" lon="1.131495"><ele>1.8</ele></trkpt>
    <trkpt lat="41.075444" lon="1.131491"><ele>1.8</ele></trkpt>
    <trkpt lat="41.075473" lon="1.131488"><ele>1.7</ele></trkpt>
    <trkpt lat="41.075472" lon="1.131445"><ele>1.6</ele></trkpt>
    <trkpt lat="41.075453" lon="1.131142"><ele>1.7</ele></trkpt>
    <trkpt lat="41.075435" lon="1.130839"><ele>1.6</ele></trkpt>
    <trkpt lat="41.075421" lon="1.130540"><ele>1.8</ele></trkpt>
    <trkpt lat="41.075407" lon="1.130236"><ele>1.8</ele></trkpt>
    <trkpt lat="41.075392" lon="1.129931"><ele>1.8</ele></trkpt>
    <trkpt lat="41.075366" lon="1.129460"><ele>1.8</ele></trkpt>
    <trkpt lat="41.075359" lon="1.128975"><ele>1.8</ele></trkpt>
    <trkpt lat="41.075355" lon="1.128731"><ele>1.8</ele></trkpt>
    <trkpt lat="41.075353" lon="1.128554"><ele>1.8</ele></trkpt>
    <trkpt lat="41.075351" lon="1.128250"><ele>1.9</ele></trkpt>
    <trkpt lat="41.075348" lon="1.127947"><ele>1.9</ele></trkpt>
    <trkpt lat="41.075347" lon="1.127889"><ele>1.9</ele></trkpt>
    <trkpt lat="41.075320" lon="1.127398"><ele>2.0</ele></trkpt>
    <trkpt lat="41.075292" lon="1.126908"><ele>2.1</ele></trkpt>
    <trkpt lat="41.075241" lon="1.126379"><ele>2.1</ele></trkpt>
    <trkpt lat="41.075212" lon="1.125899"><ele>2.1</ele></trkpt>
    <trkpt lat="41.075183" lon="1.125420"><ele>2.1</ele></trkpt>
    <trkpt lat="41.075133" lon="1.124834"><ele>2.1</ele></trkpt>
    <trkpt lat="41.075082" lon="1.124249"><ele>2.1</ele></trkpt>
    <trkpt lat="41.075054" lon="1.123951"><ele>1.9</ele></trkpt>
    <trkpt lat="41.075027" lon="1.123652"><ele>2.0</ele></trkpt>
    <trkpt lat="41.074999" lon="1.123443"><ele>2.0</ele></trkpt>
    <trkpt lat="41.074943" lon="1.123050"><ele>2.0</ele></trkpt>
    <trkpt lat="41.074888" lon="1.122657"><ele>2.0</ele></trkpt>
    <trkpt lat="41.074870" lon="1.122529"><ele>2.0</ele></trkpt>
    <trkpt lat="41.074803" lon="1.122054"><ele>1.9</ele></trkpt>
    <trkpt lat="41.074741" lon="1.121622"><ele>1.9</ele></trkpt>
    <trkpt lat="41.074708" lon="1.121383"><ele>1.9</ele></trkpt>
    <trkpt lat="41.074694" lon="1.121275"><ele>1.8</ele></trkpt>
    <trkpt lat="41.074642" lon="1.120907"><ele>1.8</ele></trkpt>
    <trkpt lat="41.074590" lon="1.120540"><ele>1.8</ele></trkpt>
    <trkpt lat="41.074524" lon="1.120028"><ele>2.0</ele></trkpt>
    <trkpt lat="41.074480" lon="1.119686"><ele>1.8</ele></trkpt>
    <trkpt lat="41.074435" lon="1.119345"><ele>1.9</ele></trkpt>
    <trkpt lat="41.074409" lon="1.119153"><ele>2.0</ele></trkpt>
    <trkpt lat="41.074352" lon="1.118725"><ele>1.9</ele></trkpt>
    <trkpt lat="41.074275" lon="1.118364"><ele>1.9</ele></trkpt>
    <trkpt lat="41.074198" lon="1.118004"><ele>2.0</ele></trkpt>
    <trkpt lat="41.074031" lon="1.117554"><ele>1.6</ele></trkpt>
    <trkpt lat="41.074027" lon="1.117539"><ele>1.6</ele></trkpt>
    <trkpt lat="41.074019" lon="1.117516"><ele>1.5</ele></trkpt>
    <trkpt lat="41.074011" lon="1.117483"><ele>1.6</ele></trkpt>
    <trkpt lat="41.073977" lon="1.117500"><ele>1.6</ele></trkpt>
    <trkpt lat="41.073950" lon="1.117501"><ele>1.6</ele></trkpt>
    <trkpt lat="41.073919" lon="1.117490"><ele>1.6</ele></trkpt>
    <trkpt lat="41.073894" lon="1.117443"><ele>1.6</ele></trkpt>
    <trkpt lat="41.073890" lon="1.117399"><ele>1.6</ele></trkpt>
    <trkpt lat="41.073905" lon="1.117352"><ele>1.7</ele></trkpt>
    <trkpt lat="41.073935" lon="1.117322"><ele>1.7</ele></trkpt>
    <trkpt lat="41.073827" lon="1.117027"><ele>1.8</ele></trkpt>
    <trkpt lat="41.073718" lon="1.116733"><ele>1.7</ele></trkpt>
    <trkpt lat="41.073552" lon="1.116288"><ele>1.8</ele></trkpt>
    <trkpt lat="41.073477" lon="1.116089"><ele>1.8</ele></trkpt>
    <trkpt lat="41.073357" lon="1.115838"><ele>1.9</ele></trkpt>
    <trkpt lat="41.073345" lon="1.115812"><ele>1.9</ele></trkpt>
    <trkpt lat="41.073239" lon="1.115510"><ele>2.1</ele></trkpt>
    <trkpt lat="41.073139" lon="1.115228"><ele>2.0</ele></trkpt>
    <trkpt lat="41.073085" lon="1.115046"><ele>1.7</ele></trkpt>
    <trkpt lat="41.072975" lon="1.114620"><ele>1.7</ele></trkpt>
    <trkpt lat="41.072971" lon="1.114607"><ele>1.7</ele></trkpt>
    <trkpt lat="41.072921" lon="1.114457"><ele>1.8</ele></trkpt>
    <trkpt lat="41.072801" lon="1.114148"><ele>2.0</ele></trkpt>
    <trkpt lat="41.072681" lon="1.113840"><ele>2.1</ele></trkpt>
    <trkpt lat="41.072474" lon="1.113324"><ele>2.0</ele></trkpt>
    <trkpt lat="41.072415" lon="1.113145"><ele>2.1</ele></trkpt>
    <trkpt lat="41.072349" lon="1.112925"><ele>2.0</ele></trkpt>
    <trkpt lat="41.072326" lon="1.112726"><ele>2.2</ele></trkpt>
    <trkpt lat="41.072294" lon="1.112446"><ele>2.1</ele></trkpt>
    <trkpt lat="41.072266" lon="1.112118"><ele>2.2</ele></trkpt>
    <trkpt lat="41.072239" lon="1.111790"><ele>2.2</ele></trkpt>
    <trkpt lat="41.072208" lon="1.111370"><ele>2.1</ele></trkpt>
    <trkpt lat="41.072167" lon="1.111075"><ele>2.1</ele></trkpt>
    <trkpt lat="41.072142" lon="1.110972"><ele>2.2</ele></trkpt>
    <trkpt lat="41.072094" lon="1.110734"><ele>2.3</ele></trkpt>
    <trkpt lat="41.072021" lon="1.110387"><ele>2.2</ele></trkpt>
    <trkpt lat="41.072004" lon="1.110286"><ele>2.3</ele></trkpt>
    <trkpt lat="41.071978" lon="1.110129"><ele>2.2</ele></trkpt>
    <trkpt lat="41.071938" lon="1.109870"><ele>2.1</ele></trkpt>
    <trkpt lat="41.071934" lon="1.109811"><ele>2.1</ele></trkpt>
    <trkpt lat="41.071930" lon="1.109755"><ele>2.1</ele></trkpt>
    <trkpt lat="41.071907" lon="1.109668"><ele>1.9</ele></trkpt>
    <trkpt lat="41.071868" lon="1.109583"><ele>2.0</ele></trkpt>
    <trkpt lat="41.071819" lon="1.109496"><ele>1.8</ele></trkpt>
    <trkpt lat="41.071805" lon="1.109462"><ele>1.7</ele></trkpt>
    <trkpt lat="41.071799" lon="1.109423"><ele>1.7</ele></trkpt>
    <trkpt lat="41.071798" lon="1.109380"><ele>1.7</ele></trkpt>
    <trkpt lat="41.071819" lon="1.109056"><ele>1.5</ele></trkpt>
    <trkpt lat="41.071829" lon="1.108861"><ele>1.7</ele></trkpt>
    <trkpt lat="41.071829" lon="1.108786"><ele>1.8</ele></trkpt>
    <trkpt lat="41.071825" lon="1.108732"><ele>1.8</ele></trkpt>
    <trkpt lat="41.071818" lon="1.108671"><ele>1.8</ele></trkpt>
    <trkpt lat="41.071737" lon="1.108230"><ele>1.7</ele></trkpt>
    <trkpt lat="41.071657" lon="1.107789"><ele>1.9</ele></trkpt>
    <trkpt lat="41.071576" lon="1.107349"><ele>1.9</ele></trkpt>
    <trkpt lat="41.071556" lon="1.107195"><ele>1.8</ele></trkpt>
    <trkpt lat="41.071539" lon="1.107079"><ele>1.8</ele></trkpt>
    <trkpt lat="41.071521" lon="1.106936"><ele>1.7</ele></trkpt>
    <trkpt lat="41.071506" lon="1.106797"><ele>1.8</ele></trkpt>
    <trkpt lat="41.071480" lon="1.106339"><ele>1.8</ele></trkpt>
    <trkpt lat="41.071433" lon="1.106020"><ele>1.7</ele></trkpt>
    <trkpt lat="41.071415" lon="1.105952"><ele>1.8</ele></trkpt>
    <trkpt lat="41.071395" lon="1.105895"><ele>1.8</ele></trkpt>
    <trkpt lat="41.071367" lon="1.105767"><ele>1.7</ele></trkpt>
    <trkpt lat="41.071349" lon="1.105661"><ele>1.7</ele></trkpt>
    <trkpt lat="41.071343" lon="1.105562"><ele>1.8</ele></trkpt>
    <trkpt lat="41.071348" lon="1.105488"><ele>1.8</ele></trkpt>
    <trkpt lat="41.071359" lon="1.105333"><ele>1.9</ele></trkpt>
    <trkpt lat="41.071356" lon="1.105218"><ele>1.9</ele></trkpt>
    <trkpt lat="41.071349" lon="1.105097"><ele>1.7</ele></trkpt>
    <trkpt lat="41.071334" lon="1.105047"><ele>1.8</ele></trkpt>
    <trkpt lat="41.071240" lon="1.104860"><ele>2.1</ele></trkpt>
    <trkpt lat="41.071156" lon="1.104602"><ele>2.3</ele></trkpt>
    <trkpt lat="41.071130" lon="1.104463"><ele>2.3</ele></trkpt>
    <trkpt lat="41.071090" lon="1.104263"><ele>2.4</ele></trkpt>
    <trkpt lat="41.071045" lon="1.103902"><ele>2.2</ele></trkpt>
    <trkpt lat="41.070986" lon="1.103630"><ele>1.3</ele></trkpt>
    <trkpt lat="41.070905" lon="1.103337"><ele>2.1</ele></trkpt>
    <trkpt lat="41.070826" lon="1.103185"><ele>2.1</ele></trkpt>
    <trkpt lat="41.070657" lon="1.102860"><ele>2.1</ele></trkpt>
    <trkpt lat="41.070610" lon="1.102749"><ele>2.2</ele></trkpt>
    <trkpt lat="41.070492" lon="1.102179"><ele>2.1</ele></trkpt>
    <trkpt lat="41.070416" lon="1.101960"><ele>2.1</ele></trkpt>
    <trkpt lat="41.070294" lon="1.101739"><ele>2.0</ele></trkpt>
    <trkpt lat="41.070201" lon="1.101462"><ele>1.9</ele></trkpt>
    <trkpt lat="41.070117" lon="1.101207"><ele>1.9</ele></trkpt>
    <trkpt lat="41.070036" lon="1.100914"><ele>2.0</ele></trkpt>
    <trkpt lat="41.069940" lon="1.100627"><ele>2.1</ele></trkpt>
    <trkpt lat="41.069852" lon="1.100434"><ele>2.3</ele></trkpt>
    <trkpt lat="41.069749" lon="1.100245"><ele>2.2</ele></trkpt>
    <trkpt lat="41.069603" lon="1.099971"><ele>2.3</ele></trkpt>
    <trkpt lat="41.069457" lon="1.099697"><ele>2.3</ele></trkpt>
    <trkpt lat="41.069302" lon="1.099347"><ele>2.2</ele></trkpt>
    <trkpt lat="41.069147" lon="1.098997"><ele>2.2</ele></trkpt>
    <trkpt lat="41.069039" lon="1.098576"><ele>2.0</ele></trkpt>
    <trkpt lat="41.068931" lon="1.098155"><ele>1.9</ele></trkpt>
    <trkpt lat="41.068876" lon="1.097776"><ele>2.0</ele></trkpt>
    <trkpt lat="41.068671" lon="1.097348"><ele>2.0</ele></trkpt>
    <trkpt lat="41.068583" lon="1.097053"><ele>2.1</ele></trkpt>
    <trkpt lat="41.068496" lon="1.096758"><ele>1.9</ele></trkpt>
    <trkpt lat="41.068423" lon="1.096349"><ele>1.9</ele></trkpt>
    <trkpt lat="41.068349" lon="1.095940"><ele>1.9</ele></trkpt>
    <trkpt lat="41.068305" lon="1.095632"><ele>2.1</ele></trkpt>
    <trkpt lat="41.068261" lon="1.095323"><ele>2.3</ele></trkpt>
    <trkpt lat="41.068233" lon="1.095189"><ele>2.4</ele></trkpt>
    <trkpt lat="41.068218" lon="1.095074"><ele>2.6</ele></trkpt>
    <trkpt lat="41.068143" lon="1.094788"><ele>2.6</ele></trkpt>
    <trkpt lat="41.067984" lon="1.094389"><ele>2.6</ele></trkpt>
    <trkpt lat="41.067826" lon="1.093990"><ele>2.5</ele></trkpt>
    <trkpt lat="41.067668" lon="1.093591"><ele>2.4</ele></trkpt>
    <trkpt lat="41.067481" lon="1.093152"><ele>2.1</ele></trkpt>
    <trkpt lat="41.067294" lon="1.092714"><ele>2.0</ele></trkpt>
    <trkpt lat="41.067107" lon="1.092275"><ele>1.9</ele></trkpt>
    <trkpt lat="41.066983" lon="1.091937"><ele>2.0</ele></trkpt>
    <trkpt lat="41.066859" lon="1.091599"><ele>1.8</ele></trkpt>
    <trkpt lat="41.066851" lon="1.091578"><ele>1.9</ele></trkpt>
    <trkpt lat="41.066668" lon="1.091058"><ele>1.8</ele></trkpt>
    <trkpt lat="41.066620" lon="1.090752"><ele>2.0</ele></trkpt>
    <trkpt lat="41.066505" lon="1.090511"><ele>1.7</ele></trkpt>
    <trkpt lat="41.066333" lon="1.090223"><ele>1.7</ele></trkpt>
    <trkpt lat="41.066178" lon="1.089885"><ele>1.7</ele></trkpt>
    <trkpt lat="41.066024" lon="1.089547"><ele>1.6</ele></trkpt>
    <trkpt lat="41.066004" lon="1.089492"><ele>1.5</ele></trkpt>
    <trkpt lat="41.065926" lon="1.089272"><ele>1.4</ele></trkpt>
    <trkpt lat="41.065808" lon="1.088916"><ele>1.2</ele></trkpt>
    <trkpt lat="41.065691" lon="1.088559"><ele>1.6</ele></trkpt>
    <trkpt lat="41.065576" lon="1.088091"><ele>1.5</ele></trkpt>
    <trkpt lat="41.065461" lon="1.087624"><ele>1.8</ele></trkpt>
    <trkpt lat="41.065337" lon="1.087262"><ele>1.8</ele></trkpt>
    <trkpt lat="41.065144" lon="1.086846"><ele>1.8</ele></trkpt>
    <trkpt lat="41.064951" lon="1.086430"><ele>1.7</ele></trkpt>
    <trkpt lat="41.064791" lon="1.086130"><ele>1.7</ele></trkpt>
    <trkpt lat="41.064749" lon="1.085758"><ele>1.6</ele></trkpt>
    <trkpt lat="41.064631" lon="1.085342"><ele>1.9</ele></trkpt>
    <trkpt lat="41.064470" lon="1.084969"><ele>2.3</ele></trkpt>
    <trkpt lat="41.064309" lon="1.084596"><ele>2.4</ele></trkpt>
    <trkpt lat="41.064251" lon="1.084315"><ele>2.1</ele></trkpt>
    <trkpt lat="41.064186" lon="1.083996"><ele>2.0</ele></trkpt>
    <trkpt lat="41.064072" lon="1.083486"><ele>2.6</ele></trkpt>
    <trkpt lat="41.064051" lon="1.083396"><ele>2.6</ele></trkpt>
    <trkpt lat="41.064030" lon="1.083310"><ele>2.8</ele></trkpt>
    <trkpt lat="41.064033" lon="1.083165"><ele>2.9</ele></trkpt>
    <trkpt lat="41.064039" lon="1.083134"><ele>2.9</ele></trkpt>
    <trkpt lat="41.064043" lon="1.083094"><ele>3.0</ele></trkpt>
    <trkpt lat="41.064048" lon="1.083094"><ele>3.0</ele></trkpt>
    <trkpt lat="41.064053" lon="1.083094"><ele>3.0</ele></trkpt>
    <trkpt lat="41.064058" lon="1.083093"><ele>3.0</ele></trkpt>
    <trkpt lat="41.064063" lon="1.083091"><ele>3.1</ele></trkpt>
    <trkpt lat="41.064068" lon="1.083088"><ele>3.1</ele></trkpt>
    <trkpt lat="41.064072" lon="1.083084"><ele>3.1</ele></trkpt>
    <trkpt lat="41.064076" lon="1.083080"><ele>3.1</ele></trkpt>
    <trkpt lat="41.064079" lon="1.083075"><ele>3.1</ele></trkpt>
    <trkpt lat="41.064082" lon="1.083070"><ele>3.1</ele></trkpt>
    <trkpt lat="41.064085" lon="1.083064"><ele>3.1</ele></trkpt>
    <trkpt lat="41.064087" lon="1.083057"><ele>3.1</ele></trkpt>
    <trkpt lat="41.064088" lon="1.083051"><ele>3.1</ele></trkpt>
    <trkpt lat="41.064089" lon="1.083044"><ele>3.1</ele></trkpt>
    <trkpt lat="41.064089" lon="1.083037"><ele>3.1</ele></trkpt>
    <trkpt lat="41.064088" lon="1.083031"><ele>3.1</ele></trkpt>
    <trkpt lat="41.064087" lon="1.083024"><ele>3.1</ele></trkpt>
    <trkpt lat="41.064085" lon="1.083018"><ele>3.1</ele></trkpt>
    <trkpt lat="41.064083" lon="1.083012"><ele>3.1</ele></trkpt>
    <trkpt lat="41.064080" lon="1.083006"><ele>3.2</ele></trkpt>
    <trkpt lat="41.064076" lon="1.083002"><ele>3.2</ele></trkpt>
    <trkpt lat="41.064073" lon="1.082997"><ele>3.2</ele></trkpt>
    <trkpt lat="41.064068" lon="1.082993"><ele>3.2</ele></trkpt>
    <trkpt lat="41.064064" lon="1.082991"><ele>3.2</ele></trkpt>
    <trkpt lat="41.064059" lon="1.082988"><ele>3.2</ele></trkpt>
    <trkpt lat="41.064054" lon="1.082987"><ele>3.2</ele></trkpt>
    <trkpt lat="41.064058" lon="1.082945"><ele>3.3</ele></trkpt>
    <trkpt lat="41.064068" lon="1.082598"><ele>1.5</ele></trkpt>
    <trkpt lat="41.064078" lon="1.082251"><ele>1.3</ele></trkpt>
    <trkpt lat="41.064104" lon="1.081753"><ele>3.4</ele></trkpt>
    <trkpt lat="41.064108" lon="1.081680"><ele>3.1</ele></trkpt>
    <trkpt lat="41.064142" lon="1.081418"><ele>2.6</ele></trkpt>
    <trkpt lat="41.064208" lon="1.081104"><ele>3.0</ele></trkpt>
    <trkpt lat="41.064297" lon="1.080822"><ele>2.9</ele></trkpt>
    <trkpt lat="41.064506" lon="1.080335"><ele>2.6</ele></trkpt>
    <trkpt lat="41.064534" lon="1.080231"><ele>2.6</ele></trkpt>
    <trkpt lat="41.064551" lon="1.079787"><ele>3.0</ele></trkpt>
    <trkpt lat="41.064568" lon="1.079344"><ele>3.3</ele></trkpt>
    <trkpt lat="41.064585" lon="1.078900"><ele>2.4</ele></trkpt>
    <trkpt lat="41.064588" lon="1.078620"><ele>2.5</ele></trkpt>
    <trkpt lat="41.064592" lon="1.078383"><ele>2.6</ele></trkpt>
    <trkpt lat="41.064565" lon="1.078108"><ele>2.4</ele></trkpt>
    <trkpt lat="41.064559" lon="1.077959"><ele>2.4</ele></trkpt>
    <trkpt lat="41.064571" lon="1.077722"><ele>2.6</ele></trkpt>
    <trkpt lat="41.064620" lon="1.077200"><ele>2.8</ele></trkpt>
    <trkpt lat="41.064721" lon="1.076773"><ele>2.8</ele></trkpt>
    <trkpt lat="41.064826" lon="1.076452"><ele>2.7</ele></trkpt>
    <trkpt lat="41.064993" lon="1.076031"><ele>2.4</ele></trkpt>
    <trkpt lat="41.065130" lon="1.075791"><ele>2.3</ele></trkpt>
    <trkpt lat="41.065268" lon="1.075551"><ele>2.4</ele></trkpt>
    <trkpt lat="41.065430" lon="1.075295"><ele>2.3</ele></trkpt>
    <trkpt lat="41.065691" lon="1.074915"><ele>2.4</ele></trkpt>
    <trkpt lat="41.065932" lon="1.074478"><ele>2.3</ele></trkpt>
    <trkpt lat="41.066165" lon="1.074068"><ele>2.3</ele></trkpt>
    <trkpt lat="41.066323" lon="1.073784"><ele>2.2</ele></trkpt>
    <trkpt lat="41.066482" lon="1.073499"><ele>2.2</ele></trkpt>
    <trkpt lat="41.066554" lon="1.073382"><ele>2.2</ele></trkpt>
    <trkpt lat="41.066664" lon="1.073161"><ele>2.2</ele></trkpt>
    <trkpt lat="41.066699" lon="1.073052"><ele>2.2</ele></trkpt>
    <trkpt lat="41.066696" lon="1.073024"><ele>2.2</ele></trkpt>
    <trkpt lat="41.066659" lon="1.072946"><ele>2.2</ele></trkpt>
    <trkpt lat="41.066644" lon="1.072863"><ele>2.0</ele></trkpt>
    <trkpt lat="41.066652" lon="1.072793"><ele>2.1</ele></trkpt>
    <trkpt lat="41.066687" lon="1.072731"><ele>2.3</ele></trkpt>
    <trkpt lat="41.066726" lon="1.072695"><ele>2.3</ele></trkpt>
    <trkpt lat="41.066760" lon="1.072681"><ele>2.3</ele></trkpt>
    <trkpt lat="41.066825" lon="1.072659"><ele>2.3</ele></trkpt>
    <trkpt lat="41.066849" lon="1.072603"><ele>2.3</ele></trkpt>
    <trkpt lat="41.066860" lon="1.072063"><ele>2.3</ele></trkpt>
    <trkpt lat="41.066871" lon="1.071524"><ele>2.4</ele></trkpt>
    <trkpt lat="41.066870" lon="1.071044"><ele>2.5</ele></trkpt>
    <trkpt lat="41.066869" lon="1.070565"><ele>2.5</ele></trkpt>
    <trkpt lat="41.066853" lon="1.070027"><ele>2.6</ele></trkpt>
    <trkpt lat="41.066815" lon="1.069657"><ele>2.6</ele></trkpt>
    <trkpt lat="41.066748" lon="1.069289"><ele>2.6</ele></trkpt>
    <trkpt lat="41.066682" lon="1.068921"><ele>2.6</ele></trkpt>
    <trkpt lat="41.066607" lon="1.068528"><ele>2.6</ele></trkpt>
    <trkpt lat="41.066533" lon="1.068135"><ele>2.6</ele></trkpt>
    <trkpt lat="41.066459" lon="1.067743"><ele>2.6</ele></trkpt>
    <trkpt lat="41.066385" lon="1.067330"><ele>2.6</ele></trkpt>
    <trkpt lat="41.066332" lon="1.067031"><ele>2.7</ele></trkpt>
    <trkpt lat="41.066312" lon="1.066918"><ele>2.7</ele></trkpt>
    <trkpt lat="41.066231" lon="1.066469"><ele>2.6</ele></trkpt>
    <trkpt lat="41.066150" lon="1.066019"><ele>2.5</ele></trkpt>
    <trkpt lat="41.066103" lon="1.065712"><ele>2.5</ele></trkpt>
    <trkpt lat="41.066056" lon="1.065405"><ele>2.5</ele></trkpt>
    <trkpt lat="41.066030" lon="1.065282"><ele>2.3</ele></trkpt>
    <trkpt lat="41.065982" lon="1.065198"><ele>2.4</ele></trkpt>
    <trkpt lat="41.065929" lon="1.065066"><ele>2.3</ele></trkpt>
    <trkpt lat="41.065887" lon="1.064911"><ele>2.4</ele></trkpt>
    <trkpt lat="41.065859" lon="1.064743"><ele>2.7</ele></trkpt>
    <trkpt lat="41.065853" lon="1.064673"><ele>2.7</ele></trkpt>
    <trkpt lat="41.065846" lon="1.064619"><ele>2.7</ele></trkpt>
    <trkpt lat="41.065819" lon="1.064427"><ele>2.4</ele></trkpt>
    <trkpt lat="41.065809" lon="1.064367"><ele>2.4</ele></trkpt>
    <trkpt lat="41.065808" lon="1.064341"><ele>2.4</ele></trkpt>
    <trkpt lat="41.065725" lon="1.063864"><ele>1.8</ele></trkpt>
    <trkpt lat="41.065705" lon="1.063731"><ele>1.9</ele></trkpt>
    <trkpt lat="41.065628" lon="1.063272"><ele>1.9</ele></trkpt>
    <trkpt lat="41.065551" lon="1.062812"><ele>1.9</ele></trkpt>
    <trkpt lat="41.065473" lon="1.062352"><ele>1.9</ele></trkpt>
    <trkpt lat="41.065417" lon="1.061985"><ele>1.4</ele></trkpt>
    <trkpt lat="41.065360" lon="1.061617"><ele>2.3</ele></trkpt>
    <trkpt lat="41.065301" lon="1.061346"><ele>2.1</ele></trkpt>
    <trkpt lat="41.065220" lon="1.060813"><ele>2.2</ele></trkpt>
    <trkpt lat="41.065184" lon="1.060668"><ele>2.1</ele></trkpt>
    <trkpt lat="41.065083" lon="1.060345"><ele>2.2</ele></trkpt>
    <trkpt lat="41.064982" lon="1.060022"><ele>2.1</ele></trkpt>
    <trkpt lat="41.064849" lon="1.059575"><ele>2.1</ele></trkpt>
    <trkpt lat="41.064715" lon="1.059128"><ele>2.0</ele></trkpt>
    <trkpt lat="41.064559" lon="1.058657"><ele>2.4</ele></trkpt>
    <trkpt lat="41.064397" lon="1.058226"><ele>2.3</ele></trkpt>
    <trkpt lat="41.064338" lon="1.058181"><ele>2.3</ele></trkpt>
    <trkpt lat="41.064249" lon="1.058124"><ele>2.1</ele></trkpt>
    <trkpt lat="41.064175" lon="1.058040"><ele>2.1</ele></trkpt>
    <trkpt lat="41.064096" lon="1.057994"><ele>1.9</ele></trkpt>
    <trkpt lat="41.064103" lon="1.057869"><ele>1.8</ele></trkpt>
    <trkpt lat="41.064096" lon="1.057719"><ele>2.3</ele></trkpt>
    <trkpt lat="41.064085" lon="1.057645"><ele>2.1</ele></trkpt>
    <trkpt lat="41.064065" lon="1.057517"><ele>2.1</ele></trkpt>
    <trkpt lat="41.063948" lon="1.057048"><ele>2.1</ele></trkpt>
    <trkpt lat="41.063901" lon="1.056545"><ele>2.1</ele></trkpt>
    <trkpt lat="41.063918" lon="1.056012"><ele>2.1</ele></trkpt>
    <trkpt lat="41.063937" lon="1.055810"><ele>2.0</ele></trkpt>
    <trkpt lat="41.064011" lon="1.055669"><ele>2.2</ele></trkpt>
    <trkpt lat="41.064085" lon="1.055660"><ele>3.0</ele></trkpt>
    <trkpt lat="41.064238" lon="1.055650"><ele>4.2</ele></trkpt>
    <trkpt lat="41.064292" lon="1.055661"><ele>4.1</ele></trkpt>
    <trkpt lat="41.064402" lon="1.055683"><ele>4.0</ele></trkpt>
    <trkpt lat="41.064752" lon="1.055735"><ele>3.7</ele></trkpt>
    <trkpt lat="41.065103" lon="1.055788"><ele>3.9</ele></trkpt>
    <trkpt lat="41.065330" lon="1.055824"><ele>4.2</ele></trkpt>
    <trkpt lat="41.065556" lon="1.055861"><ele>4.3</ele></trkpt>
    <trkpt lat="41.065726" lon="1.055888"><ele>4.5</ele></trkpt>
    <trkpt lat="41.066035" lon="1.055935"><ele>5.0</ele></trkpt>
    <trkpt lat="41.066344" lon="1.055982"><ele>5.6</ele></trkpt>
    <trkpt lat="41.066643" lon="1.056029"><ele>6.4</ele></trkpt>
    <trkpt lat="41.066942" lon="1.056076"><ele>7.3</ele></trkpt>
    <trkpt lat="41.067007" lon="1.056091"><ele>7.4</ele></trkpt>
    <trkpt lat="41.067060" lon="1.056103"><ele>7.4</ele></trkpt>
    <trkpt lat="41.067098" lon="1.056111"><ele>7.4</ele></trkpt>
    <trkpt lat="41.067306" lon="1.056182"><ele>7.4</ele></trkpt>
    <trkpt lat="41.067449" lon="1.056193"><ele>7.6</ele></trkpt>
    <trkpt lat="41.067602" lon="1.056159"><ele>8.0</ele></trkpt>
    <trkpt lat="41.067745" lon="1.056152"><ele>8.0</ele></trkpt>
    <trkpt lat="41.067977" lon="1.056178"><ele>8.2</ele></trkpt>
    <trkpt lat="41.068245" lon="1.056214"><ele>8.8</ele></trkpt>
    <trkpt lat="41.068512" lon="1.056251"><ele>8.8</ele></trkpt>
    <trkpt lat="41.068736" lon="1.056238"><ele>8.5</ele></trkpt>
    <trkpt lat="41.069043" lon="1.056223"><ele>8.9</ele></trkpt>
    <trkpt lat="41.069180" lon="1.056213"><ele>8.6</ele></trkpt>
    <trkpt lat="41.069469" lon="1.056189"><ele>8.7</ele></trkpt>
    <trkpt lat="41.069521" lon="1.056186"><ele>8.9</ele></trkpt>
    <trkpt lat="41.069825" lon="1.056167"><ele>10.5</ele></trkpt>
    <trkpt lat="41.070076" lon="1.056149"><ele>10.7</ele></trkpt>
    <trkpt lat="41.070327" lon="1.056132"><ele>11.3</ele></trkpt>
    <trkpt lat="41.070649" lon="1.056111"><ele>11.9</ele></trkpt>
    <trkpt lat="41.070972" lon="1.056090"><ele>12.3</ele></trkpt>
    <trkpt lat="41.071294" lon="1.056070"><ele>13.3</ele></trkpt>
    <trkpt lat="41.071355" lon="1.056062"><ele>13.8</ele></trkpt>
    <trkpt lat="41.071415" lon="1.056060"><ele>13.4</ele></trkpt>
    <trkpt lat="41.071705" lon="1.056083"><ele>13.8</ele></trkpt>
    <trkpt lat="41.072044" lon="1.056046"><ele>14.8</ele></trkpt>
    <trkpt lat="41.072331" lon="1.055888"><ele>14.6</ele></trkpt>
    <trkpt lat="41.072619" lon="1.055729"><ele>15.2</ele></trkpt>
    <trkpt lat="41.072600" lon="1.055681"><ele>14.4</ele></trkpt>
    <trkpt lat="41.072623" lon="1.055663"><ele>14.7</ele></trkpt>
    <trkpt lat="41.072682" lon="1.055618"><ele>14.6</ele></trkpt>
    <trkpt lat="41.072704" lon="1.055597"><ele>14.5</ele></trkpt>
    <trkpt lat="41.072731" lon="1.055617"><ele>14.8</ele></trkpt>
    <trkpt lat="41.072739" lon="1.055616"><ele>14.9</ele></trkpt>
    <trkpt lat="41.072752" lon="1.055613"><ele>15.0</ele></trkpt>
    <trkpt lat="41.073021" lon="1.055413"><ele>16.2</ele></trkpt>
    <trkpt lat="41.073409" lon="1.055164"><ele>17.1</ele></trkpt>
    <trkpt lat="41.073797" lon="1.054938"><ele>17.3</ele></trkpt>
    <trkpt lat="41.074186" lon="1.054712"><ele>18.9</ele></trkpt>
    <trkpt lat="41.074370" lon="1.054591"><ele>19.5</ele></trkpt>
    <trkpt lat="41.074387" lon="1.054639"><ele>19.8</ele></trkpt>
    <trkpt lat="41.074427" lon="1.054614"><ele>19.9</ele></trkpt>
    <trkpt lat="41.074501" lon="1.054572"><ele>20.2</ele></trkpt>
    <trkpt lat="41.074524" lon="1.054588"><ele>20.2</ele></trkpt>
    <trkpt lat="41.074551" lon="1.054604"><ele>20.2</ele></trkpt>
    <trkpt lat="41.074582" lon="1.054613"><ele>20.2</ele></trkpt>
    <trkpt lat="41.074622" lon="1.054606"><ele>20.2</ele></trkpt>
    <trkpt lat="41.074664" lon="1.054583"><ele>20.5</ele></trkpt>
    <trkpt lat="41.074693" lon="1.054555"><ele>20.6</ele></trkpt>
    <trkpt lat="41.074712" lon="1.054522"><ele>20.6</ele></trkpt>
    <trkpt lat="41.074723" lon="1.054489"><ele>20.6</ele></trkpt>
    <trkpt lat="41.074732" lon="1.054434"><ele>20.7</ele></trkpt>
    <trkpt lat="41.074733" lon="1.054383"><ele>20.9</ele></trkpt>
    <trkpt lat="41.074730" lon="1.054357"><ele>21.0</ele></trkpt>
    <trkpt lat="41.074762" lon="1.054352"><ele>20.9</ele></trkpt>
    <trkpt lat="41.074802" lon="1.054335"><ele>20.7</ele></trkpt>
    <trkpt lat="41.074850" lon="1.054312"><ele>20.5</ele></trkpt>
    <trkpt lat="41.075178" lon="1.054044"><ele>20.6</ele></trkpt>
    <trkpt lat="41.075229" lon="1.053986"><ele>20.8</ele></trkpt>
    <trkpt lat="41.075469" lon="1.053711"><ele>21.4</ele></trkpt>
    <trkpt lat="41.075517" lon="1.053649"><ele>21.5</ele></trkpt>
    <trkpt lat="41.075767" lon="1.053257"><ele>22.0</ele></trkpt>
    <trkpt lat="41.076015" lon="1.052920"><ele>22.7</ele></trkpt>
    <trkpt lat="41.076264" lon="1.052583"><ele>23.2</ele></trkpt>
    <trkpt lat="41.076512" lon="1.052246"><ele>23.9</ele></trkpt>
    <trkpt lat="41.076615" lon="1.052095"><ele>24.1</ele></trkpt>
    <trkpt lat="41.076616" lon="1.052080"><ele>24.1</ele></trkpt>
    <trkpt lat="41.076619" lon="1.052064"><ele>24.1</ele></trkpt>
    <trkpt lat="41.076623" lon="1.052050"><ele>24.2</ele></trkpt>
    <trkpt lat="41.076629" lon="1.052036"><ele>24.3</ele></trkpt>
    <trkpt lat="41.076636" lon="1.052024"><ele>24.4</ele></trkpt>
    <trkpt lat="41.076626" lon="1.051939"><ele>23.2</ele></trkpt>
    <trkpt lat="41.076509" lon="1.051664"><ele>23.6</ele></trkpt>
    <trkpt lat="41.076491" lon="1.051507"><ele>24.7</ele></trkpt>
    <trkpt lat="41.076498" lon="1.051488"><ele>24.7</ele></trkpt>
    <trkpt lat="41.076503" lon="1.051467"><ele>24.7</ele></trkpt>
    <trkpt lat="41.076616" lon="1.051345"><ele>24.9</ele></trkpt>
    <trkpt lat="41.076733" lon="1.051200"><ele>24.9</ele></trkpt>
    <trkpt lat="41.076998" lon="1.050844"><ele>25.8</ele></trkpt>
    <trkpt lat="41.077262" lon="1.050487"><ele>26.3</ele></trkpt>
    <trkpt lat="41.077526" lon="1.050130"><ele>27.1</ele></trkpt>
    <trkpt lat="41.077793" lon="1.049769"><ele>27.6</ele></trkpt>
    <trkpt lat="41.078060" lon="1.049407"><ele>28.3</ele></trkpt>
    <trkpt lat="41.078326" lon="1.049045"><ele>29.0</ele></trkpt>
    <trkpt lat="41.078593" lon="1.048684"><ele>29.5</ele></trkpt>
    <trkpt lat="41.078659" lon="1.048601"><ele>29.6</ele></trkpt>
    <trkpt lat="41.078834" lon="1.048363"><ele>30.1</ele></trkpt>
    <trkpt lat="41.079008" lon="1.048125"><ele>30.5</ele></trkpt>
    <trkpt lat="41.079052" lon="1.048064"><ele>30.6</ele></trkpt>
    <trkpt lat="41.079109" lon="1.047987"><ele>30.7</ele></trkpt>
    <trkpt lat="41.079346" lon="1.047731"><ele>31.3</ele></trkpt>
    <trkpt lat="41.079479" lon="1.047628"><ele>31.4</ele></trkpt>
    <trkpt lat="41.079806" lon="1.047429"><ele>32.2</ele></trkpt>
    <trkpt lat="41.079908" lon="1.047353"><ele>32.3</ele></trkpt>
    <trkpt lat="41.079944" lon="1.047356"><ele>32.2</ele></trkpt>
    <trkpt lat="41.079980" lon="1.047345"><ele>32.2</ele></trkpt>
    <trkpt lat="41.080012" lon="1.047321"><ele>32.3</ele></trkpt>
    <trkpt lat="41.080038" lon="1.047286"><ele>32.5</ele></trkpt>
    <trkpt lat="41.080170" lon="1.047227"><ele>32.7</ele></trkpt>
    <trkpt lat="41.080562" lon="1.046997"><ele>33.5</ele></trkpt>
    <trkpt lat="41.080955" lon="1.046767"><ele>34.1</ele></trkpt>
    <trkpt lat="41.081134" lon="1.046624"><ele>34.5</ele></trkpt>
    <trkpt lat="41.081210" lon="1.046574"><ele>34.8</ele></trkpt>
    <trkpt lat="41.081333" lon="1.046517"><ele>35.2</ele></trkpt>
    <trkpt lat="41.081566" lon="1.046404"><ele>36.2</ele></trkpt>
    <trkpt lat="41.081600" lon="1.046376"><ele>36.4</ele></trkpt>
    <trkpt lat="41.081639" lon="1.046329"><ele>36.7</ele></trkpt>
    <trkpt lat="41.081671" lon="1.046279"><ele>36.8</ele></trkpt>
    <trkpt lat="41.081596" lon="1.046025"><ele>36.3</ele></trkpt>
    <trkpt lat="41.081587" lon="1.045993"><ele>36.4</ele></trkpt>
    <trkpt lat="41.081502" lon="1.045688"><ele>37.2</ele></trkpt>
    <trkpt lat="41.081438" lon="1.045457"><ele>37.1</ele></trkpt>
    <trkpt lat="41.081378" lon="1.045239"><ele>37.1</ele></trkpt>
  </trkseg></trk></gpx>