<?xml version="1.0" encoding="UTF-8"?>
<gpx creator="Garmin Connect" version="1.1"
  xsi:schemaLocation="http://www.topografix.com/GPX/1/1 http://www.topografix.com/GPX/11.xsd"
  xmlns:ns3="http://www.garmin.com/xmlschemas/TrackPointExtension/v1"
  xmlns="http://www.topografix.com/GPX/1/1"
  xmlns:xsi="http://www.w3.org/2001/XMLSchema-instance" xmlns:ns2="http://www.garmin.com/xmlschemas/GpxExtensions/v3">
  <metadata>
    <name>GR92 Etappi 13: Tordera -&gt; Hortsavinyà</name>
    <link href="connect.garmin.com">
      <text>Garmin Connect</text>
    </link>
    <time>2026-04-15T05:48:31.000Z</time>
  </metadata>
  <trk>
    <name>GR92 Etappi 13: Tordera -&gt; Hortsavinyà</name>
    <trkseg>
      <trkpt lat="41.70730420388281" lon="2.719338331371546">
        <ele>27.37</ele>
      </trkpt>
      <trkpt lat="41.707234382629395" lon="2.7196526527404785">
        <ele>27.73</ele>
      </trkpt>
      <trkpt lat="41.70736321248114" lon="2.719695568084717">
        <ele>28.0</ele>
      </trkpt>
      <trkpt lat="41.707470417022705" lon="2.719759941101074">
        <ele>28.28</ele>
      </trkpt>
      <trkpt lat="41.707400511950254" lon="2.7200770284980536">
        <ele>28.59</ele>
      </trkpt>
      <trkpt lat="41.707330690696836" lon="2.7203941997140646">
        <ele>28.82</ele>
      </trkpt>
      <trkpt lat="41.707260785624385" lon="2.720711287111044">
        <ele>29.08</ele>
      </trkpt>
      <trkpt lat="41.70719155110419" lon="2.7210259437561035">
        <ele>29.2</ele>
      </trkpt>
      <trkpt lat="41.707030702382326" lon="2.720940113067627">
        <ele>29.22</ele>
      </trkpt>
      <trkpt lat="41.7068696860224" lon="2.7208542823791504">
        <ele>29.18</ele>
      </trkpt>
      <trkpt lat="41.70659073628485" lon="2.7207040786743164">
        <ele>29.08</ele>
      </trkpt>
      <trkpt lat="41.70635470189154" lon="2.7205967903137207">
        <ele>28.88</ele>
      </trkpt>
      <trkpt lat="41.70620449818671" lon="2.7204787731170654">
        <ele>28.6</ele>
      </trkpt>
      <trkpt lat="41.70605421066284" lon="2.72036075592041">
        <ele>28.2</ele>
      </trkpt>
      <trkpt lat="41.70592554844916" lon="2.720210552215576">
        <ele>27.76</ele>
      </trkpt>
      <trkpt lat="41.705743074417114" lon="2.7200066205114126">
        <ele>27.4</ele>
      </trkpt>
      <trkpt lat="41.7055606842041" lon="2.719802772626281">
        <ele>27.07</ele>
      </trkpt>
      <trkpt lat="41.70537829399109" lon="2.719598924741149">
        <ele>26.91</ele>
      </trkpt>
      <trkpt lat="41.70519598759711" lon="2.719395160675049">
        <ele>26.83</ele>
      </trkpt>
      <trkpt lat="41.70497420243919" lon="2.71913037635386">
        <ele>26.81</ele>
      </trkpt>
      <trkpt lat="41.70475241728127" lon="2.7188656758517027">
        <ele>26.81</ele>
      </trkpt>
      <trkpt lat="41.704530799761415" lon="2.7186012268066406">
        <ele>26.83</ele>
      </trkpt>
      <trkpt lat="41.704344721511006" lon="2.7183865662664175">
        <ele>26.86</ele>
      </trkpt>
      <trkpt lat="41.70415872707963" lon="2.718171989545226">
        <ele>26.84</ele>
      </trkpt>
      <trkpt lat="41.703972816467285" lon="2.7179574966430664">
        <ele>26.89</ele>
      </trkpt>
      <trkpt lat="41.70392998494208" lon="2.7180004119873047">
        <ele>26.85</ele>
      </trkpt>
      <trkpt lat="41.703801238909364" lon="2.7178287506103516">
        <ele>26.84</ele>
      </trkpt>
      <trkpt lat="41.70365103520453" lon="2.7177321910858154">
        <ele>26.74</ele>
      </trkpt>
      <trkpt lat="41.703500747680664" lon="2.7176356315612793">
        <ele>26.61</ele>
      </trkpt>
      <trkpt lat="41.70330771245062" lon="2.717592716217041">
        <ele>26.42</ele>
      </trkpt>
      <trkpt lat="41.70330762863159" lon="2.717592716217041">
        <ele>26.3</ele>
      </trkpt>
      <trkpt lat="41.70303337275982" lon="2.717571258544922">
        <ele>26.04</ele>
      </trkpt>
      <trkpt lat="41.702759116888046" lon="2.7175498008728027">
        <ele>25.88</ele>
      </trkpt>
      <trkpt lat="41.70248486101627" lon="2.7175284270197153">
        <ele>25.9</ele>
      </trkpt>
      <trkpt lat="41.7022106051445" lon="2.717506969347596">
        <ele>25.91</ele>
      </trkpt>
      <trkpt lat="41.701934421435" lon="2.7174854278564453">
        <ele>25.8</ele>
      </trkpt>
      <trkpt lat="41.70182704925537" lon="2.7174854278564453">
        <ele>25.72</ele>
      </trkpt>
      <trkpt lat="41.701741218566895" lon="2.7175283432006836">
        <ele>25.64</ele>
      </trkpt>
      <trkpt lat="41.701762676239014" lon="2.7176356315612793">
        <ele>25.58</ele>
      </trkpt>
      <trkpt lat="41.701741302385926" lon="2.7176785469055176">
        <ele>25.5</ele>
      </trkpt>
      <trkpt lat="41.701719760894775" lon="2.7176785469055176">
        <ele>25.4</ele>
      </trkpt>
      <trkpt lat="41.70156964100897" lon="2.7175498008728027">
        <ele>25.3</ele>
      </trkpt>
      <trkpt lat="41.7015266418457" lon="2.7175283432006836">
        <ele>25.18</ele>
      </trkpt>
      <trkpt lat="41.7014838103205" lon="2.717463970184326">
        <ele>25.04</ele>
      </trkpt>
      <trkpt lat="41.701483726501465" lon="2.717442512512207">
        <ele>24.9</ele>
      </trkpt>
      <trkpt lat="41.701483726501465" lon="2.717028446495533">
        <ele>24.71</ele>
      </trkpt>
      <trkpt lat="41.701483726501465" lon="2.7166144642978907">
        <ele>24.52</ele>
      </trkpt>
      <trkpt lat="41.701483726501465" lon="2.7162003982812166">
        <ele>24.32</ele>
      </trkpt>
      <trkpt lat="41.7014838103205" lon="2.715790271759033">
        <ele>24.25</ele>
      </trkpt>
      <trkpt lat="41.701505184173584" lon="2.715790271759033">
        <ele>24.11</ele>
      </trkpt>
      <trkpt lat="41.701505184173584" lon="2.71553210914135">
        <ele>24.03</ele>
      </trkpt>
      <trkpt lat="41.701505267992616" lon="2.715275287628174">
        <ele>23.95</ele>
      </trkpt>
      <trkpt lat="41.701505267992616" lon="2.7150386665016413">
        <ele>23.85</ele>
      </trkpt>
      <trkpt lat="41.701505267992616" lon="2.7148032188415527">
        <ele>23.71</ele>
      </trkpt>
      <trkpt lat="41.701505184173584" lon="2.7148032188415527">
        <ele>23.68</ele>
      </trkpt>
      <trkpt lat="41.701483726501465" lon="2.714416980743408">
        <ele>23.69</ele>
      </trkpt>
      <trkpt lat="41.70146235264838" lon="2.714416980743408">
        <ele>23.76</ele>
      </trkpt>
      <trkpt lat="41.70137643814087" lon="2.714416980743408">
        <ele>23.89</ele>
      </trkpt>
      <trkpt lat="41.70113353058696" lon="2.714424105361104">
        <ele>24.03</ele>
      </trkpt>
      <trkpt lat="41.70089070685208" lon="2.7144312299788">
        <ele>24.34</ele>
      </trkpt>
      <trkpt lat="41.70064687728882" lon="2.7144384384155273">
        <ele>24.65</ele>
      </trkpt>
      <trkpt lat="41.70048611238599" lon="2.7144598122686148">
        <ele>25.03</ele>
      </trkpt>
      <trkpt lat="41.70032501220703" lon="2.7144813537597656">
        <ele>25.5</ele>
      </trkpt>
      <trkpt lat="41.70017489232123" lon="2.7145671006292105">
        <ele>26.07</ele>
      </trkpt>
      <trkpt lat="41.70002460479736" lon="2.7146530151367188">
        <ele>26.77</ele>
      </trkpt>
      <trkpt lat="41.69989585876465" lon="2.714781677350402">
        <ele>27.59</ele>
      </trkpt>
      <trkpt lat="41.699767112731934" lon="2.7149105072021484">
        <ele>28.51</ele>
      </trkpt>
      <trkpt lat="41.69955253601074" lon="2.7150821685791016">
        <ele>29.63</ele>
      </trkpt>
      <trkpt lat="41.69931650161743" lon="2.71512508392334">
        <ele>30.8</ele>
      </trkpt>
      <trkpt lat="41.699059009552" lon="2.7151036262512207">
        <ele>31.93</ele>
      </trkpt>
      <trkpt lat="41.698902351781726" lon="2.715007234364748">
        <ele>32.96</ele>
      </trkpt>
      <trkpt lat="41.69878005981445" lon="2.7149319648742676">
        <ele>34.02</ele>
      </trkpt>
      <trkpt lat="41.69859406538308" lon="2.7147173043340445">
        <ele>35.04</ele>
      </trkpt>
      <trkpt lat="41.6984080709517" lon="2.714502727612853">
        <ele>36.13</ele>
      </trkpt>
      <trkpt lat="41.69822224415839" lon="2.7142882347106934">
        <ele>37.23</ele>
      </trkpt>
      <trkpt lat="41.698265075683594" lon="2.714202404022217">
        <ele>38.02</ele>
      </trkpt>
      <trkpt lat="41.698265075683594" lon="2.714052200317383">
        <ele>38.83</ele>
      </trkpt>
      <trkpt lat="41.698222160339355" lon="2.7139663696289062">
        <ele>39.65</ele>
      </trkpt>
      <trkpt lat="41.69807195663452" lon="2.7138805389404297">
        <ele>40.64</ele>
      </trkpt>
      <trkpt lat="41.698007583618164" lon="2.7137088775634766">
        <ele>41.39</ele>
      </trkpt>
      <trkpt lat="41.697964668273926" lon="2.7137088775634766">
        <ele>41.99</ele>
      </trkpt>
      <trkpt lat="41.697889398783445" lon="2.713440153747797">
        <ele>42.59</ele>
      </trkpt>
      <trkpt lat="41.69781454838812" lon="2.713172435760498">
        <ele>43.03</ele>
      </trkpt>
      <trkpt lat="41.697664093226194" lon="2.712839338928461">
        <ele>43.2</ele>
      </trkpt>
      <trkpt lat="41.697514057159424" lon="2.7125072479248047">
        <ele>43.37</ele>
      </trkpt>
      <trkpt lat="41.697471141815186" lon="2.7121424674987793">
        <ele>43.5</ele>
      </trkpt>
      <trkpt lat="41.697460329160094" lon="2.7118628472089767">
        <ele>43.42</ele>
      </trkpt>
      <trkpt lat="41.697449684143066" lon="2.7115845680236816">
        <ele>43.23</ele>
      </trkpt>
      <trkpt lat="41.69740676879883" lon="2.7114343643188477">
        <ele>43.05</ele>
      </trkpt>
      <trkpt lat="41.69738531112671" lon="2.711305618286133">
        <ele>42.79</ele>
      </trkpt>
      <trkpt lat="41.697256565093994" lon="2.711155414581299">
        <ele>42.57</ele>
      </trkpt>
      <trkpt lat="41.6970419883728" lon="2.711048126220703">
        <ele>42.44</ele>
      </trkpt>
      <trkpt lat="41.696849120780826" lon="2.711026668548584">
        <ele>42.41</ele>
      </trkpt>
      <trkpt lat="41.69665575027466" lon="2.711005210876465">
        <ele>42.38</ele>
      </trkpt>
      <trkpt lat="41.696484088897705" lon="2.7109408378601074">
        <ele>42.35</ele>
      </trkpt>
      <trkpt lat="41.696312511339784" lon="2.7108120918273926">
        <ele>42.4</ele>
      </trkpt>
      <trkpt lat="41.69631242752075" lon="2.7108120918273926">
        <ele>42.5</ele>
      </trkpt>
      <trkpt lat="41.696065831929445" lon="2.7106512431055307">
        <ele>42.74</ele>
      </trkpt>
      <trkpt lat="41.69581898488104" lon="2.7104902267456055">
        <ele>43.12</ele>
      </trkpt>
      <trkpt lat="41.69581890106201" lon="2.7104902267456055">
        <ele>43.42</ele>
      </trkpt>
      <trkpt lat="41.69558320194483" lon="2.7104580402374268">
        <ele>43.87</ele>
      </trkpt>
      <trkpt lat="41.69534691609442" lon="2.710425853729248">
        <ele>44.38</ele>
      </trkpt>
      <trkpt lat="41.69506796635687" lon="2.7103829383850098">
        <ele>44.91</ele>
      </trkpt>
      <trkpt lat="41.69506788253784" lon="2.7103829383850098">
        <ele>45.49</ele>
      </trkpt>
      <trkpt lat="41.695025051012635" lon="2.7103829383850098">
        <ele>46.12</ele>
      </trkpt>
      <trkpt lat="41.694960594177246" lon="2.7103400230407715">
        <ele>46.84</ele>
      </trkpt>
      <trkpt lat="41.694874512031674" lon="2.7099744882434607">
        <ele>47.74</ele>
      </trkpt>
      <trkpt lat="41.694788513705134" lon="2.70960895344615">
        <ele>48.63</ele>
      </trkpt>
      <trkpt lat="41.694702515378594" lon="2.7092435024678707">
        <ele>49.51</ele>
      </trkpt>
      <trkpt lat="41.69461727142334" lon="2.70888090133667">
        <ele>50.46</ele>
      </trkpt>
      <trkpt lat="41.69461735524237" lon="2.708773612976074">
        <ele>51.38</ele>
      </trkpt>
      <trkpt lat="41.69461727142334" lon="2.708773612976074">
        <ele>52.37</ele>
      </trkpt>
      <trkpt lat="41.69459581375122" lon="2.708559036254883">
        <ele>53.36</ele>
      </trkpt>
      <trkpt lat="41.694488525390625" lon="2.7082157135009766">
        <ele>54.44</ele>
      </trkpt>
      <trkpt lat="41.69434888288379" lon="2.7079901564866304">
        <ele>55.64</ele>
      </trkpt>
      <trkpt lat="41.694209575653076" lon="2.7077651023864746">
        <ele>56.85</ele>
      </trkpt>
      <trkpt lat="41.69413782656193" lon="2.707413900643587">
        <ele>57.99</ele>
      </trkpt>
      <trkpt lat="41.69406616128981" lon="2.7070626989006996">
        <ele>59.17</ele>
      </trkpt>
      <trkpt lat="41.693994998931885" lon="2.7067136764526367">
        <ele>60.43</ele>
      </trkpt>
      <trkpt lat="41.69398418627679" lon="2.7064125146716833">
        <ele>61.66</ele>
      </trkpt>
      <trkpt lat="41.693973541259766" lon="2.706112861633301">
        <ele>62.65</ele>
      </trkpt>
      <trkpt lat="41.693909000605345" lon="2.705811783671379">
        <ele>63.56</ele>
      </trkpt>
      <trkpt lat="41.69384479522705" lon="2.705512046813965">
        <ele>64.45</ele>
      </trkpt>
      <trkpt lat="41.69380187988281" lon="2.705254554748535">
        <ele>65.31</ele>
      </trkpt>
      <trkpt lat="41.69370515272021" lon="2.7050611842423677">
        <ele>66.11</ele>
      </trkpt>
      <trkpt lat="41.69360876083374" lon="2.7048683166503906">
        <ele>66.75</ele>
      </trkpt>
      <trkpt lat="41.69359794817865" lon="2.704588696360588">
        <ele>67.32</ele>
      </trkpt>
      <trkpt lat="41.69358730316162" lon="2.704310417175293">
        <ele>67.77</ele>
      </trkpt>
      <trkpt lat="41.69347976334393" lon="2.7040095068514347">
        <ele>68.1</ele>
      </trkpt>
      <trkpt lat="41.69337272644043" lon="2.703709602355957">
        <ele>68.33</ele>
      </trkpt>
      <trkpt lat="41.693265438079834" lon="2.7033448219299316">
        <ele>68.49</ele>
      </trkpt>
      <trkpt lat="41.69324389658868" lon="2.703108200803399">
        <ele>68.58</ele>
      </trkpt>
      <trkpt lat="41.693222522735596" lon="2.7028727531433105">
        <ele>68.62</ele>
      </trkpt>
      <trkpt lat="41.693168710917234" lon="2.7026362158358097">
        <ele>68.6</ele>
      </trkpt>
      <trkpt lat="41.693115234375" lon="2.7024006843566895">
        <ele>68.55</ele>
      </trkpt>
      <trkpt lat="41.693014400079846" lon="2.7020578645169735">
        <ele>68.46</ele>
      </trkpt>
      <trkpt lat="41.69290367513895" lon="2.701681349426508">
        <ele>68.32</ele>
      </trkpt>
      <trkpt lat="41.69279336929321" lon="2.7013063430786133">
        <ele>68.14</ele>
      </trkpt>
      <trkpt lat="41.69267727993429" lon="2.7009882498532534">
        <ele>67.76</ele>
      </trkpt>
      <trkpt lat="41.69256119057536" lon="2.7006701566278934">
        <ele>67.25</ele>
      </trkpt>
      <trkpt lat="41.69244518503547" lon="2.7003520634025335">
        <ele>66.71</ele>
      </trkpt>
      <trkpt lat="41.69232909567654" lon="2.7000339701771736">
        <ele>66.23</ele>
      </trkpt>
      <trkpt lat="41.692214012145996" lon="2.699718475341797">
        <ele>65.71</ele>
      </trkpt>
      <trkpt lat="41.69209591113031" lon="2.699525188654661">
        <ele>65.07</ele>
      </trkpt>
      <trkpt lat="41.69197806157172" lon="2.6993322372436523">
        <ele>64.36</ele>
      </trkpt>
      <trkpt lat="41.69182048179209" lon="2.6990099530667067">
        <ele>63.63</ele>
      </trkpt>
      <trkpt lat="41.69166290201247" lon="2.698687668889761">
        <ele>62.9</ele>
      </trkpt>
      <trkpt lat="41.691505908966064" lon="2.698366641998291">
        <ele>62.09</ele>
      </trkpt>
      <trkpt lat="41.691430639475584" lon="2.698065647855401">
        <ele>61.29</ele>
      </trkpt>
      <trkpt lat="41.69135570526123" lon="2.697765827178955">
        <ele>60.46</ele>
      </trkpt>
      <trkpt lat="41.69128043577075" lon="2.697572372853756">
        <ele>59.64</ele>
      </trkpt>
      <trkpt lat="41.6912055015564" lon="2.6973795890808105">
        <ele>58.89</ele>
      </trkpt>
      <trkpt lat="41.69118404388428" lon="2.6970791816711426">
        <ele>58.18</ele>
      </trkpt>
      <trkpt lat="41.69115177355707" lon="2.696864102035761">
        <ele>57.52</ele>
      </trkpt>
      <trkpt lat="41.69111967086792" lon="2.6966500282287598">
        <ele>56.94</ele>
      </trkpt>
      <trkpt lat="41.69103367254138" lon="2.6963705755770206">
        <ele>56.48</ele>
      </trkpt>
      <trkpt lat="41.69094800949097" lon="2.696092128753662">
        <ele>56.15</ele>
      </trkpt>
      <trkpt lat="41.690829740837216" lon="2.6958019472658634">
        <ele>55.92</ele>
      </trkpt>
      <trkpt lat="41.690711975097656" lon="2.6955127716064453">
        <ele>55.84</ele>
      </trkpt>
      <trkpt lat="41.6906476020813" lon="2.6952123641967773">
        <ele>55.98</ele>
      </trkpt>
      <trkpt lat="41.69062606059015" lon="2.6949434727430344">
        <ele>56.32</ele>
      </trkpt>
      <trkpt lat="41.69060468673706" lon="2.694675922393799">
        <ele>56.77</ele>
      </trkpt>
      <trkpt lat="41.69075505807996" lon="2.6943643670529127">
        <ele>57.38</ele>
      </trkpt>
      <trkpt lat="41.69090509414673" lon="2.6940536499023438">
        <ele>58.15</ele>
      </trkpt>
      <trkpt lat="41.69107683934271" lon="2.6937744487076998">
        <ele>59.12</ele>
      </trkpt>
      <trkpt lat="41.691248416900635" lon="2.693495750427246">
        <ele>60.27</ele>
      </trkpt>
      <trkpt lat="41.691312873736024" lon="2.6932914834469557">
        <ele>61.37</ele>
      </trkpt>
      <trkpt lat="41.69137716293335" lon="2.6930880546569824">
        <ele>62.54</ele>
      </trkpt>
      <trkpt lat="41.69136635027826" lon="2.6927169878035784">
        <ele>63.73</ele>
      </trkpt>
      <trkpt lat="41.6913556214422" lon="2.692346004769206">
        <ele>65.04</ele>
      </trkpt>
      <trkpt lat="41.69134489260614" lon="2.6919750217348337">
        <ele>66.48</ele>
      </trkpt>
      <trkpt lat="41.69133424758911" lon="2.6916074752807617">
        <ele>67.97</ele>
      </trkpt>
      <trkpt lat="41.69137724675238" lon="2.6913207303732634">
        <ele>69.44</ele>
      </trkpt>
      <trkpt lat="41.69142024591565" lon="2.691033985465765">
        <ele>70.98</ele>
      </trkpt>
      <trkpt lat="41.691462993621826" lon="2.690749168395996">
        <ele>72.63</ele>
      </trkpt>
      <trkpt lat="41.691531389951706" lon="2.690535429865122">
        <ele>74.34</ele>
      </trkpt>
      <trkpt lat="41.69163465499878" lon="2.6902127265930176">
        <ele>76.15</ele>
      </trkpt>
      <trkpt lat="41.69175636023283" lon="2.6899405661970377">
        <ele>77.95</ele>
      </trkpt>
      <trkpt lat="41.69187814928591" lon="2.689668405801058">
        <ele>79.69</ele>
      </trkpt>
      <trkpt lat="41.691999435424805" lon="2.6893973350524902">
        <ele>81.4</ele>
      </trkpt>
      <trkpt lat="41.69207101687789" lon="2.689125007018447">
        <ele>83.01</ele>
      </trkpt>
      <trkpt lat="41.692142682150006" lon="2.6888526789844036">
        <ele>84.62</ele>
      </trkpt>
      <trkpt lat="41.692214012145996" lon="2.688581943511963">
        <ele>86.36</ele>
      </trkpt>
      <trkpt lat="41.692257011309266" lon="2.688201991841197">
        <ele>88.1</ele>
      </trkpt>
      <trkpt lat="41.692300010472536" lon="2.687822040170431">
        <ele>89.83</ele>
      </trkpt>
      <trkpt lat="41.69234275817871" lon="2.6874446868896484">
        <ele>91.46</ele>
      </trkpt>
      <trkpt lat="41.69232130050659" lon="2.687058448791504">
        <ele>93.1</ele>
      </trkpt>
      <trkpt lat="41.69224603101611" lon="2.6868111826479435">
        <ele>94.6</ele>
      </trkpt>
      <trkpt lat="41.69217109680176" lon="2.6865649223327637">
        <ele>95.98</ele>
      </trkpt>
      <trkpt lat="41.69210655614734" lon="2.6862710528075695">
        <ele>97.29</ele>
      </trkpt>
      <trkpt lat="41.692042015492916" lon="2.6859771832823753">
        <ele>98.38</ele>
      </trkpt>
      <trkpt lat="41.691977977752686" lon="2.685685157775879">
        <ele>99.28</ele>
      </trkpt>
      <trkpt lat="41.691881250590086" lon="2.685459516942501">
        <ele>99.99</ele>
      </trkpt>
      <trkpt lat="41.69178485870361" lon="2.685234546661377">
        <ele>100.57</ele>
      </trkpt>
      <trkpt lat="41.691655945032835" lon="2.6850197184830904">
        <ele>101.03</ele>
      </trkpt>
      <trkpt lat="41.691527366638184" lon="2.684805393218994">
        <ele>101.29</ele>
      </trkpt>
      <trkpt lat="41.69136643409729" lon="2.6846444606781006">
        <ele>101.47</ele>
      </trkpt>
      <trkpt lat="41.6912055015564" lon="2.684483528137207">
        <ele>101.58</ele>
      </trkpt>
      <trkpt lat="41.691044652834535" lon="2.6843762397766113">
        <ele>101.62</ele>
      </trkpt>
      <trkpt lat="41.69088363647461" lon="2.6842689514160156">
        <ele>101.54</ele>
      </trkpt>
      <trkpt lat="41.69066922739148" lon="2.684172475710511">
        <ele>101.43</ele>
      </trkpt>
      <trkpt lat="41.69045448303223" lon="2.6840758323669434">
        <ele>101.29</ele>
      </trkpt>
      <trkpt lat="41.69015407562256" lon="2.6840758323669434">
        <ele>101.04</ele>
      </trkpt>
      <trkpt lat="41.690003871917725" lon="2.6841187477111816">
        <ele>100.62</ele>
      </trkpt>
      <trkpt lat="41.689843107014894" lon="2.684086561203003">
        <ele>100.14</ele>
      </trkpt>
      <trkpt lat="41.68968200683594" lon="2.684054374694824">
        <ele>99.6</ele>
      </trkpt>
      <trkpt lat="41.68947824276984" lon="2.683925712481141">
        <ele>99.08</ele>
      </trkpt>
      <trkpt lat="41.689274311065674" lon="2.6837968826293945">
        <ele>98.6</ele>
      </trkpt>
      <trkpt lat="41.68905998580158" lon="2.683732509613037">
        <ele>98.13</ele>
      </trkpt>
      <trkpt lat="41.68884515762329" lon="2.6836681365966797">
        <ele>97.75</ele>
      </trkpt>
      <trkpt lat="41.68860912322998" lon="2.683539390563965">
        <ele>97.43</ele>
      </trkpt>
      <trkpt lat="41.68843746185303" lon="2.6833784580230713">
        <ele>97.11</ele>
      </trkpt>
      <trkpt lat="41.688265800476074" lon="2.6832175254821777">
        <ele>96.9</ele>
      </trkpt>
      <trkpt lat="41.688169073313475" lon="2.683013342320919">
        <ele>96.75</ele>
      </trkpt>
      <trkpt lat="41.688072681427" lon="2.682809829711914">
        <ele>96.65</ele>
      </trkpt>
      <trkpt lat="41.68790102005005" lon="2.682616710662842">
        <ele>96.61</ele>
      </trkpt>
      <trkpt lat="41.68780429288745" lon="2.682434068992734">
        <ele>96.68</ele>
      </trkpt>
      <trkpt lat="41.68770790100098" lon="2.6822519302368164">
        <ele>96.84</ele>
      </trkpt>
      <trkpt lat="41.68762190267444" lon="2.6819455716758966">
        <ele>97.11</ele>
      </trkpt>
      <trkpt lat="41.6875359043479" lon="2.681639213114977">
        <ele>97.55</ele>
      </trkpt>
      <trkpt lat="41.68744990602136" lon="2.681332854554057">
        <ele>98.13</ele>
      </trkpt>
      <trkpt lat="41.68736457824707" lon="2.6810288429260254">
        <ele>98.82</ele>
      </trkpt>
      <trkpt lat="41.68722426518798" lon="2.680760957300663">
        <ele>99.71</ele>
      </trkpt>
      <trkpt lat="41.68708395212889" lon="2.6804931554943323">
        <ele>100.83</ele>
      </trkpt>
      <trkpt lat="41.686944141983986" lon="2.680226191878319">
        <ele>102.04</ele>
      </trkpt>
      <trkpt lat="41.68689250946045" lon="2.6801276206970215">
        <ele>103.22</ele>
      </trkpt>
      <trkpt lat="41.68678522109985" lon="2.680020332336426">
        <ele>104.51</ele>
      </trkpt>
      <trkpt lat="41.686688493937254" lon="2.6798054203391075">
        <ele>105.93</ele>
      </trkpt>
      <trkpt lat="41.68659210205078" lon="2.679591178894043">
        <ele>107.44</ele>
      </trkpt>
      <trkpt lat="41.68652756139636" lon="2.6793654542416334">
        <ele>109.0</ele>
      </trkpt>
      <trkpt lat="41.686463356018066" lon="2.679140567779541">
        <ele>110.59</ele>
      </trkpt>
      <trkpt lat="41.68627006933093" lon="2.6788721792399883">
        <ele>112.22</ele>
      </trkpt>
      <trkpt lat="41.68607686646283" lon="2.6786037907004356">
        <ele>113.75</ele>
      </trkpt>
      <trkpt lat="41.68588366359472" lon="2.678335402160883">
        <ele>115.14</ele>
      </trkpt>
      <trkpt lat="41.68569087982178" lon="2.678067684173584">
        <ele>116.59</ele>
      </trkpt>
      <trkpt lat="41.685519218444824" lon="2.6778531074523926">
        <ele>117.97</ele>
      </trkpt>
      <trkpt lat="41.685261810198426" lon="2.6776599884033203">
        <ele>119.29</ele>
      </trkpt>
      <trkpt lat="41.68506148271263" lon="2.6774382032454014">
        <ele>120.52</ele>
      </trkpt>
      <trkpt lat="41.68486115522683" lon="2.6772164180874825">
        <ele>121.78</ele>
      </trkpt>
      <trkpt lat="41.68466099537909" lon="2.676994800567627">
        <ele>123.01</ele>
      </trkpt>
      <trkpt lat="41.68455362319946" lon="2.676844596862793">
        <ele>124.09</ele>
      </trkpt>
      <trkpt lat="41.68426956050098" lon="2.676689112558961">
        <ele>125.02</ele>
      </trkpt>
      <trkpt lat="41.683985497802496" lon="2.6765337120741606">
        <ele>125.84</ele>
      </trkpt>
      <trkpt lat="41.68370143510401" lon="2.6763782277703285">
        <ele>126.62</ele>
      </trkpt>
      <trkpt lat="41.68341636657715" lon="2.676222324371338">
        <ele>127.44</ele>
      </trkpt>
      <trkpt lat="41.68315887451172" lon="2.6759862899780273">
        <ele>128.19</ele>
      </trkpt>
      <trkpt lat="41.6829870454967" lon="2.675696276128292">
        <ele>128.81</ele>
      </trkpt>
      <trkpt lat="41.682815216481686" lon="2.6754063460975885">
        <ele>129.41</ele>
      </trkpt>
      <trkpt lat="41.6826434712857" lon="2.675116416066885">
        <ele>129.92</ele>
      </trkpt>
      <trkpt lat="41.68247231282294" lon="2.6748275756835938">
        <ele>130.27</ele>
      </trkpt>
      <trkpt lat="41.682472229003906" lon="2.6748275756835938">
        <ele>130.59</ele>
      </trkpt>
      <trkpt lat="41.682326132431626" lon="2.6745396573096514">
        <ele>130.83</ele>
      </trkpt>
      <trkpt lat="41.682180035859346" lon="2.6742518227547407">
        <ele>131.05</ele>
      </trkpt>
      <trkpt lat="41.68203393928707" lon="2.6739639043807983">
        <ele>131.19</ele>
      </trkpt>
      <trkpt lat="41.68188784271479" lon="2.6736760698258877">
        <ele>131.28</ele>
      </trkpt>
      <trkpt lat="41.681742668151855" lon="2.6733899116516113">
        <ele>131.28</ele>
      </trkpt>
      <trkpt lat="41.68172129429877" lon="2.67317533493042">
        <ele>131.16</ele>
      </trkpt>
      <trkpt lat="41.68166463263333" lon="2.6728112250566483">
        <ele>130.94</ele>
      </trkpt>
      <trkpt lat="41.68160797096789" lon="2.6724471990019083">
        <ele>130.57</ele>
      </trkpt>
      <trkpt lat="41.68155130930245" lon="2.6720831729471684">
        <ele>130.06</ele>
      </trkpt>
      <trkpt lat="41.68149464763701" lon="2.6717191468924284">
        <ele>129.46</ele>
      </trkpt>
      <trkpt lat="41.681438656523824" lon="2.671359060332179">
        <ele>128.86</ele>
      </trkpt>
      <trkpt lat="41.68142080307007" lon="2.6712441444396973">
        <ele>128.17</ele>
      </trkpt>
      <trkpt lat="41.68131334707141" lon="2.6709969621151686">
        <ele>127.41</ele>
      </trkpt>
      <trkpt lat="41.68120622634888" lon="2.670750617980957">
        <ele>126.6</ele>
      </trkpt>
      <trkpt lat="41.68109893798828" lon="2.6705145835876465">
        <ele>125.71</ele>
      </trkpt>
      <trkpt lat="41.6810701880604" lon="2.670213421806693">
        <ele>124.77</ele>
      </trkpt>
      <trkpt lat="41.681041521951556" lon="2.6699123438447714">
        <ele>123.83</ele>
      </trkpt>
      <trkpt lat="41.681013107299805" lon="2.6696133613586426">
        <ele>122.94</ele>
      </trkpt>
      <trkpt lat="41.680905651301146" lon="2.669376991689205">
        <ele>122.08</ele>
      </trkpt>
      <trkpt lat="41.68079853057861" lon="2.6691412925720215">
        <ele>121.29</ele>
      </trkpt>
      <trkpt lat="41.68079853057861" lon="2.6690125465393066">
        <ele>120.62</ele>
      </trkpt>
      <trkpt lat="41.68069124221802" lon="2.668948173522949">
        <ele>120.02</ele>
      </trkpt>
      <trkpt lat="41.68045520782471" lon="2.668948173522949">
        <ele>119.56</ele>
      </trkpt>
      <trkpt lat="41.68030500411987" lon="2.668883800506592">
        <ele>119.26</ele>
      </trkpt>
      <trkpt lat="41.68024071492255" lon="2.6687979698181152">
        <ele>119.08</ele>
      </trkpt>
      <trkpt lat="41.68021925725043" lon="2.668755054473877">
        <ele>119.04</ele>
      </trkpt>
      <trkpt lat="41.68009025976062" lon="2.6684326864778996">
        <ele>119.19</ele>
      </trkpt>
      <trkpt lat="41.67996168136597" lon="2.6681113243103027">
        <ele>119.56</ele>
      </trkpt>
      <trkpt lat="41.67987568303943" lon="2.6677780598402023">
        <ele>120.17</ele>
      </trkpt>
      <trkpt lat="41.679790019989014" lon="2.6674461364746094">
        <ele>120.78</ele>
      </trkpt>
      <trkpt lat="41.67974718846381" lon="2.667403221130371">
        <ele>121.47</ele>
      </trkpt>
      <trkpt lat="41.679747104644775" lon="2.667403221130371">
        <ele>122.25</ele>
      </trkpt>
      <trkpt lat="41.67961835861206" lon="2.6672744750976562">
        <ele>123.23</ele>
      </trkpt>
      <trkpt lat="41.679382575675845" lon="2.6672208309173584">
        <ele>124.39</ele>
      </trkpt>
      <trkpt lat="41.67914628982544" lon="2.6671671867370605">
        <ele>125.62</ele>
      </trkpt>
      <trkpt lat="41.67891025543213" lon="2.6669955253601074">
        <ele>126.93</ele>
      </trkpt>
      <trkpt lat="41.67869567871094" lon="2.666802406311035">
        <ele>128.2</ele>
      </trkpt>
      <trkpt lat="41.67865980416536" lon="2.6665084529668093">
        <ele>129.57</ele>
      </trkpt>
      <trkpt lat="41.67862392961979" lon="2.666214583441615">
        <ele>131.03</ele>
      </trkpt>
      <trkpt lat="41.67858839035034" lon="2.6659226417541504">
        <ele>132.49</ele>
      </trkpt>
      <trkpt lat="41.6785095166415" lon="2.6656431052833796">
        <ele>134.11</ele>
      </trkpt>
      <trkpt lat="41.678430726751685" lon="2.6653636526316404">
        <ele>135.83</ele>
      </trkpt>
      <trkpt lat="41.67835243977606" lon="2.665085792541504">
        <ele>137.54</ele>
      </trkpt>
      <trkpt lat="41.67835235595703" lon="2.665085792541504">
        <ele>139.21</ele>
      </trkpt>
      <trkpt lat="41.67830944061279" lon="2.664957046508789">
        <ele>140.95</ele>
      </trkpt>
      <trkpt lat="41.67815923690796" lon="2.6646780967712402">
        <ele>142.73</ele>
      </trkpt>
      <trkpt lat="41.677966034039855" lon="2.664463436231017">
        <ele>144.6</ele>
      </trkpt>
      <trkpt lat="41.67777291499078" lon="2.6642488595098257">
        <ele>146.44</ele>
      </trkpt>
      <trkpt lat="41.67757987976074" lon="2.664034366607666">
        <ele>148.31</ele>
      </trkpt>
      <trkpt lat="41.67754895053804" lon="2.6639841590076685">
        <ele>150.03</ele>
      </trkpt>
      <trkpt lat="41.67740821838379" lon="2.663755416870117">
        <ele>151.78</ele>
      </trkpt>
      <trkpt lat="41.67733294889331" lon="2.663497421890497">
        <ele>153.53</ele>
      </trkpt>
      <trkpt lat="41.677258014678955" lon="2.663240432739258">
        <ele>155.18</ele>
      </trkpt>
      <trkpt lat="41.67709716595709" lon="2.6631546020507812">
        <ele>156.65</ele>
      </trkpt>
      <trkpt lat="41.67693614959717" lon="2.6630687713623047">
        <ele>158.0</ele>
      </trkpt>
      <trkpt lat="41.67694687843323" lon="2.6627998799085617">
        <ele>159.34</ele>
      </trkpt>
      <trkpt lat="41.67695760726929" lon="2.662532329559326">
        <ele>160.5</ele>
      </trkpt>
      <trkpt lat="41.676903795450926" lon="2.6622957922518253">
        <ele>161.49</ele>
      </trkpt>
      <trkpt lat="41.67685031890869" lon="2.662060260772705">
        <ele>162.35</ele>
      </trkpt>
      <trkpt lat="41.67670011520386" lon="2.661888599395752">
        <ele>163.09</ele>
      </trkpt>
      <trkpt lat="41.6764856223017" lon="2.661759853363037">
        <ele>163.66</ele>
      </trkpt>
      <trkpt lat="41.67642116546631" lon="2.661609649658203">
        <ele>164.03</ele>
      </trkpt>
      <trkpt lat="41.67637825012207" lon="2.661566734313965">
        <ele>164.19</ele>
      </trkpt>
      <trkpt lat="41.676228046417236" lon="2.66143798828125">
        <ele>164.15</ele>
      </trkpt>
      <trkpt lat="41.6760778427124" lon="2.661309242248535">
        <ele>163.91</ele>
      </trkpt>
      <trkpt lat="41.67601330205798" lon="2.6609436236321926">
        <ele>163.61</ele>
      </trkpt>
      <trkpt lat="41.67594909667969" lon="2.6605796813964844">
        <ele>163.15</ele>
      </trkpt>
      <trkpt lat="41.67588472366333" lon="2.660365104675293">
        <ele>162.5</ele>
      </trkpt>
      <trkpt lat="41.675755977630615" lon="2.660236358642578">
        <ele>161.65</ele>
      </trkpt>
      <trkpt lat="41.67571306228638" lon="2.660086154937744">
        <ele>160.75</ele>
      </trkpt>
      <trkpt lat="41.6756272315979" lon="2.660064697265625">
        <ele>159.63</ele>
      </trkpt>
      <trkpt lat="41.675477027893066" lon="2.660086154937744">
        <ele>158.34</ele>
      </trkpt>
      <trkpt lat="41.67534828186035" lon="2.6601505279541016">
        <ele>156.97</ele>
      </trkpt>
      <trkpt lat="41.67521953582764" lon="2.6603221893310547">
        <ele>155.54</ele>
      </trkpt>
      <trkpt lat="41.6750693321228" lon="2.660386562347412">
        <ele>154.05</ele>
      </trkpt>
      <trkpt lat="41.67489767074585" lon="2.660536766052246">
        <ele>152.39</ele>
      </trkpt>
      <trkpt lat="41.67480094358325" lon="2.660730052739382">
        <ele>150.75</ele>
      </trkpt>
      <trkpt lat="41.67470455169678" lon="2.6609230041503906">
        <ele>149.11</ele>
      </trkpt>
      <trkpt lat="41.67459726333618" lon="2.6612019538879395">
        <ele>147.45</ele>
      </trkpt>
      <trkpt lat="41.67455434799194" lon="2.6615023612976074">
        <ele>145.82</ele>
      </trkpt>
      <trkpt lat="41.67450053617358" lon="2.6617388147860765">
        <ele>144.27</ele>
      </trkpt>
      <trkpt lat="41.67444705963135" lon="2.6619744300842285">
        <ele>142.7</ele>
      </trkpt>
      <trkpt lat="41.67446851730347" lon="2.6621894259005785">
        <ele>141.33</ele>
      </trkpt>
      <trkpt lat="41.674489974975586" lon="2.6624035835266113">
        <ele>140.01</ele>
      </trkpt>
      <trkpt lat="41.674296855926514" lon="2.6623177528381348">
        <ele>138.73</ele>
      </trkpt>
      <trkpt lat="41.67414665222168" lon="2.662081718444824">
        <ele>137.5</ele>
      </trkpt>
      <trkpt lat="41.67415738105774" lon="2.661823555827141">
        <ele>136.45</ele>
      </trkpt>
      <trkpt lat="41.6741681098938" lon="2.661566734313965">
        <ele>135.54</ele>
      </trkpt>
      <trkpt lat="41.67410373687744" lon="2.6613736152648926">
        <ele>134.68</ele>
      </trkpt>
      <trkpt lat="41.6740436386317" lon="2.6613244134932756">
        <ele>133.9</ele>
      </trkpt>
      <trkpt lat="41.67386778630316" lon="2.6611804962158203">
        <ele>133.12</ele>
      </trkpt>
      <trkpt lat="41.67389460839331" lon="2.660787971690297">
        <ele>132.7</ele>
      </trkpt>
      <trkpt lat="41.67392151430249" lon="2.660395447164774">
        <ele>132.4</ele>
      </trkpt>
      <trkpt lat="41.67394833639264" lon="2.6600029226392508">
        <ele>132.22</ele>
      </trkpt>
      <trkpt lat="41.67397499084473" lon="2.659614086151123">
        <ele>132.05</ele>
      </trkpt>
      <trkpt lat="41.6741110291332" lon="2.6593348011374474">
        <ele>132.22</ele>
      </trkpt>
      <trkpt lat="41.674247067421675" lon="2.6590555161237717">
        <ele>132.45</ele>
      </trkpt>
      <trkpt lat="41.67438268661499" lon="2.6587772369384766">
        <ele>132.74</ele>
      </trkpt>
      <trkpt lat="41.67441487312317" lon="2.658562157303095">
        <ele>133.01</ele>
      </trkpt>
      <trkpt lat="41.67444705963135" lon="2.6583480834960938">
        <ele>133.35</ele>
      </trkpt>
      <trkpt lat="41.6746187210083" lon="2.658047676086426">
        <ele>133.89</ele>
      </trkpt>
      <trkpt lat="41.674666330218315" lon="2.6579895056784153">
        <ele>134.41</ele>
      </trkpt>
      <trkpt lat="41.67481184005737" lon="2.6578116416931152">
        <ele>135.01</ele>
      </trkpt>
      <trkpt lat="41.67489767074585" lon="2.657618522644043">
        <ele>135.66</ele>
      </trkpt>
      <trkpt lat="41.67483313009143" lon="2.6573927979916334">
        <ele>136.19</ele>
      </trkpt>
      <trkpt lat="41.674768924713135" lon="2.657167911529541">
        <ele>136.78</ele>
      </trkpt>
      <trkpt lat="41.6747260093689" lon="2.6567816734313965">
        <ele>137.47</ele>
      </trkpt>
      <trkpt lat="41.674661468714476" lon="2.656512865796685">
        <ele>138.16</ele>
      </trkpt>
      <trkpt lat="41.67459726333618" lon="2.656245231628418">
        <ele>138.92</ele>
      </trkpt>
      <trkpt lat="41.674489974975586" lon="2.6561379432678223">
        <ele>139.64</ele>
      </trkpt>
      <trkpt lat="41.67433977127075" lon="2.6561594009399414">
        <ele>140.46</ele>
      </trkpt>
      <trkpt lat="41.67421102523804" lon="2.656245231628418">
        <ele>141.32</ele>
      </trkpt>
      <trkpt lat="41.67409300804138" lon="2.6563847064971924">
        <ele>142.33</ele>
      </trkpt>
      <trkpt lat="41.67397507466376" lon="2.656524181365967">
        <ele>143.35</ele>
      </trkpt>
      <trkpt lat="41.673738956451416" lon="2.656717300415039">
        <ele>144.33</ele>
      </trkpt>
      <trkpt lat="41.67363166809082" lon="2.656738758087158">
        <ele>145.44</ele>
      </trkpt>
      <trkpt lat="41.67358875274658" lon="2.65669584274292">
        <ele>146.67</ele>
      </trkpt>
      <trkpt lat="41.6736102104187" lon="2.656588554382324">
        <ele>148.05</ele>
      </trkpt>
      <trkpt lat="41.67382478713989" lon="2.6565027236938477">
        <ele>149.5</ele>
      </trkpt>
      <trkpt lat="41.67386770248413" lon="2.656395435333252">
        <ele>151.06</ele>
      </trkpt>
      <trkpt lat="41.673760414123535" lon="2.6561379432678223">
        <ele>152.86</ele>
      </trkpt>
      <trkpt lat="41.673738956451416" lon="2.6559019088745117">
        <ele>154.68</ele>
      </trkpt>
      <trkpt lat="41.67367458343506" lon="2.6557302474975586">
        <ele>156.59</ele>
      </trkpt>
      <trkpt lat="41.6735671274364" lon="2.655536876991391">
        <ele>158.63</ele>
      </trkpt>
      <trkpt lat="41.67346000671387" lon="2.655344009399414">
        <ele>160.81</ele>
      </trkpt>
      <trkpt lat="41.67337417602539" lon="2.6551079750061035">
        <ele>163.13</ele>
      </trkpt>
      <trkpt lat="41.67330980300903" lon="2.6548075675964355">
        <ele>165.41</ele>
      </trkpt>
      <trkpt lat="41.67330075055361" lon="2.6547913067042828">
        <ele>167.63</ele>
      </trkpt>
      <trkpt lat="41.67320251464844" lon="2.6546144485473633">
        <ele>170.03</ele>
      </trkpt>
      <trkpt lat="41.67318105697632" lon="2.6545071601867676">
        <ele>172.41</ele>
      </trkpt>
      <trkpt lat="41.67322397232056" lon="2.654271125793457">
        <ele>174.99</ele>
      </trkpt>
      <trkpt lat="41.6731595993042" lon="2.653927803039551">
        <ele>177.73</ele>
      </trkpt>
      <trkpt lat="41.6730523109436" lon="2.653777599334717">
        <ele>180.22</ele>
      </trkpt>
      <trkpt lat="41.67290210723877" lon="2.653648853302002">
        <ele>182.67</ele>
      </trkpt>
      <trkpt lat="41.672751903533936" lon="2.653520107269287">
        <ele>185.12</ele>
      </trkpt>
      <trkpt lat="41.6727089881897" lon="2.653369903564453">
        <ele>187.53</ele>
      </trkpt>
      <trkpt lat="41.672730445861816" lon="2.653176784515381">
        <ele>189.97</ele>
      </trkpt>
      <trkpt lat="41.67268761433661" lon="2.6530051231384277">
        <ele>192.38</ele>
      </trkpt>
      <trkpt lat="41.67253749445081" lon="2.6529300212860107">
        <ele>194.73</ele>
      </trkpt>
      <trkpt lat="41.67238720692694" lon="2.6528549194335938">
        <ele>197.04</ele>
      </trkpt>
      <trkpt lat="41.67220490053296" lon="2.6527584437280893">
        <ele>199.24</ele>
      </trkpt>
      <trkpt lat="41.672022342681885" lon="2.6526618003845215">
        <ele>201.24</ele>
      </trkpt>
      <trkpt lat="41.67182922363281" lon="2.652468681335449">
        <ele>203.39</ele>
      </trkpt>
      <trkpt lat="41.671647084876895" lon="2.6524579524993896">
        <ele>205.31</ele>
      </trkpt>
      <trkpt lat="41.67146444320679" lon="2.65244722366333">
        <ele>207.16</ele>
      </trkpt>
      <trkpt lat="41.67135715484619" lon="2.652404308319092">
        <ele>208.82</ele>
      </trkpt>
      <trkpt lat="41.671249866485596" lon="2.652297019958496">
        <ele>210.43</ele>
      </trkpt>
      <trkpt lat="41.67109966278076" lon="2.652554512023926">
        <ele>211.44</ele>
      </trkpt>
      <trkpt lat="41.67084217071533" lon="2.6525115966796875">
        <ele>213.08</ele>
      </trkpt>
      <trkpt lat="41.67072398588061" lon="2.6527047995477915">
        <ele>214.02</ele>
      </trkpt>
      <trkpt lat="41.67060613632202" lon="2.652897834777832">
        <ele>214.75</ele>
      </trkpt>
      <trkpt lat="41.6705986764282" lon="2.6529833301901817">
        <ele>215.3</ele>
      </trkpt>
      <trkpt lat="41.67056322097778" lon="2.6533913612365723">
        <ele>215.52</ele>
      </trkpt>
      <trkpt lat="41.67057394981384" lon="2.653670897707343">
        <ele>215.84</ele>
      </trkpt>
      <trkpt lat="41.6705846786499" lon="2.65394926071167">
        <ele>216.05</ele>
      </trkpt>
      <trkpt lat="41.670520305633545" lon="2.6540565490722656">
        <ele>216.38</ele>
      </trkpt>
      <trkpt lat="41.670262813568115" lon="2.6542282104492188">
        <ele>216.76</ele>
      </trkpt>
      <trkpt lat="41.670102048665285" lon="2.654217481613159">
        <ele>217.33</ele>
      </trkpt>
      <trkpt lat="41.66994094848633" lon="2.6542067527770996">
        <ele>217.92</ele>
      </trkpt>
      <trkpt lat="41.66989803314209" lon="2.654271125793457">
        <ele>218.25</ele>
      </trkpt>
      <trkpt lat="41.66991957463324" lon="2.65444278717041">
        <ele>218.35</ele>
      </trkpt>
      <trkpt lat="41.66991949081421" lon="2.65444278717041">
        <ele>218.87</ele>
      </trkpt>
      <trkpt lat="41.66983366012573" lon="2.654592990875244">
        <ele>219.32</ele>
      </trkpt>
      <trkpt lat="41.669589914381504" lon="2.6545929070562124">
        <ele>220.34</ele>
      </trkpt>
      <trkpt lat="41.66934549808502" lon="2.654592990875244">
        <ele>221.45</ele>
      </trkpt>
      <trkpt lat="41.66916847229004" lon="2.654592990875244">
        <ele>222.7</ele>
      </trkpt>
      <trkpt lat="41.66914701461792" lon="2.6546788215637207">
        <ele>223.68</ele>
      </trkpt>
      <trkpt lat="41.66925438679755" lon="2.654947377741337">
        <ele>224.42</ele>
      </trkpt>
      <trkpt lat="41.66936159133911" lon="2.655215263366699">
        <ele>225.49</ele>
      </trkpt>
      <trkpt lat="41.669275760650635" lon="2.655172348022461">
        <ele>226.92</ele>
      </trkpt>
      <trkpt lat="41.6691255569458" lon="2.6549148559570312">
        <ele>228.64</ele>
      </trkpt>
      <trkpt lat="41.668996727094054" lon="2.6547645684331656">
        <ele>230.51</ele>
      </trkpt>
      <trkpt lat="41.66886806488037" lon="2.6546144485473633">
        <ele>232.5</ele>
      </trkpt>
      <trkpt lat="41.668739318847656" lon="2.6543784141540527">
        <ele>234.52</ele>
      </trkpt>
      <trkpt lat="41.668739318847656" lon="2.654292583465576">
        <ele>236.03</ele>
      </trkpt>
      <trkpt lat="41.668782234191895" lon="2.6542282104492188">
        <ele>237.46</ele>
      </trkpt>
      <trkpt lat="41.668942999094725" lon="2.6541531085968018">
        <ele>238.62</ele>
      </trkpt>
      <trkpt lat="41.66910409927368" lon="2.6540780067443848">
        <ele>239.99</ele>
      </trkpt>
      <trkpt lat="41.66921138763428" lon="2.653970718383789">
        <ele>241.5</ele>
      </trkpt>
      <trkpt lat="41.66940450668335" lon="2.6539063453674316">
        <ele>242.87</ele>
      </trkpt>
      <trkpt lat="41.66942596435547" lon="2.653820514678955">
        <ele>244.45</ele>
      </trkpt>
      <trkpt lat="41.6692328453064" lon="2.653820514678955">
        <ele>246.13</ele>
      </trkpt>
      <trkpt lat="41.668932773172855" lon="2.653884720057249">
        <ele>247.79</ele>
      </trkpt>
      <trkpt lat="41.66863203048706" lon="2.65394926071167">
        <ele>249.74</ele>
      </trkpt>
      <trkpt lat="41.668524742126465" lon="2.653927803039551">
        <ele>251.38</ele>
      </trkpt>
      <trkpt lat="41.66848182678223" lon="2.653820514678955">
        <ele>252.85</ele>
      </trkpt>
      <trkpt lat="41.66865348815918" lon="2.6536917686462402">
        <ele>253.73</ele>
      </trkpt>
      <trkpt lat="41.66889983229339" lon="2.653648853302002">
        <ele>254.56</ele>
      </trkpt>
      <trkpt lat="41.66914701461792" lon="2.6536059379577637">
        <ele>255.35</ele>
      </trkpt>
      <trkpt lat="41.669275760650635" lon="2.6533913612365723">
        <ele>256.54</ele>
      </trkpt>
      <trkpt lat="41.66928447782993" lon="2.653359929099679">
        <ele>257.54</ele>
      </trkpt>
      <trkpt lat="41.66938304901123" lon="2.6530051231384277">
        <ele>259.2</ele>
      </trkpt>
      <trkpt lat="41.669554710388184" lon="2.6528334617614746">
        <ele>260.1</ele>
      </trkpt>
      <trkpt lat="41.6696834564209" lon="2.6528120040893555">
        <ele>260.57</ele>
      </trkpt>
      <trkpt lat="41.669769287109375" lon="2.652769088745117">
        <ele>261.21</ele>
      </trkpt>
      <trkpt lat="41.66985511779785" lon="2.652618885040283">
        <ele>262.18</ele>
      </trkpt>
      <trkpt lat="41.66996248997748" lon="2.6523717027157545">
        <ele>263.1</ele>
      </trkpt>
      <trkpt lat="41.67006969451904" lon="2.652125358581543">
        <ele>264.02</ele>
      </trkpt>
      <trkpt lat="41.67014488019049" lon="2.6518996339291334">
        <ele>265.09</ele>
      </trkpt>
      <trkpt lat="41.67021989822388" lon="2.651674747467041">
        <ele>266.1</ele>
      </trkpt>
      <trkpt lat="41.67037001810968" lon="2.651546001434326">
        <ele>266.87</ele>
      </trkpt>
      <trkpt lat="41.670520305633545" lon="2.6514172554016113">
        <ele>267.81</ele>
      </trkpt>
      <trkpt lat="41.67067050933838" lon="2.65120267868042">
        <ele>268.93</ele>
      </trkpt>
      <trkpt lat="41.670756340026855" lon="2.651031017303467">
        <ele>270.05</ele>
      </trkpt>
      <trkpt lat="41.670756340026855" lon="2.6509451866149902">
        <ele>271.46</ele>
      </trkpt>
      <trkpt lat="41.67071342468262" lon="2.650752067565918">
        <ele>273.02</ele>
      </trkpt>
      <trkpt lat="41.67060613632202" lon="2.6504945755004883">
        <ele>274.71</ele>
      </trkpt>
      <trkpt lat="41.67041301727295" lon="2.6503658294677734">
        <ele>276.45</ele>
      </trkpt>
      <trkpt lat="41.67021989822388" lon="2.650322914123535">
        <ele>278.41</ele>
      </trkpt>
      <trkpt lat="41.67009115219116" lon="2.6503658294677734">
        <ele>280.55</ele>
      </trkpt>
      <trkpt lat="41.66991949081421" lon="2.6505589485168457">
        <ele>283.07</ele>
      </trkpt>
      <trkpt lat="41.66964054107666" lon="2.6507091522216797">
        <ele>285.77</ele>
      </trkpt>
      <trkpt lat="41.66940450668335" lon="2.650752067565918">
        <ele>288.49</ele>
      </trkpt>
      <trkpt lat="41.669275760650635" lon="2.6506662368774414">
        <ele>290.91</ele>
      </trkpt>
      <trkpt lat="41.66913729161024" lon="2.650435483083129">
        <ele>293.23</ele>
      </trkpt>
      <trkpt lat="41.669018268585205" lon="2.6502370834350586">
        <ele>295.48</ele>
      </trkpt>
      <trkpt lat="41.66891098022461" lon="2.6499366760253906">
        <ele>297.43</ele>
      </trkpt>
      <trkpt lat="41.66884660720825" lon="2.649679183959961">
        <ele>299.22</ele>
      </trkpt>
      <trkpt lat="41.668803691864014" lon="2.649657726287842">
        <ele>301.36</ele>
      </trkpt>
      <trkpt lat="41.66864284314215" lon="2.649754201993346">
        <ele>303.68</ele>
      </trkpt>
      <trkpt lat="41.66848182678223" lon="2.649850845336914">
        <ele>306.16</ele>
      </trkpt>
      <trkpt lat="41.668245792388916" lon="2.6499152183532715">
        <ele>308.74</ele>
      </trkpt>
      <trkpt lat="41.668052673339844" lon="2.6499152183532715">
        <ele>311.02</ele>
      </trkpt>
      <trkpt lat="41.667902301996946" lon="2.649678932502866">
        <ele>312.92</ele>
      </trkpt>
      <trkpt lat="41.667752265930176" lon="2.6494431495666504">
        <ele>314.69</ele>
      </trkpt>
      <trkpt lat="41.66770935058594" lon="2.649056911468506">
        <ele>315.71</ele>
      </trkpt>
      <trkpt lat="41.66758060455322" lon="2.648799419403076">
        <ele>317.0</ele>
      </trkpt>
      <trkpt lat="41.667494773864746" lon="2.6487350463867188">
        <ele>318.3</ele>
      </trkpt>
      <trkpt lat="41.667258739471436" lon="2.6487135887145996">
        <ele>319.69</ele>
      </trkpt>
      <trkpt lat="41.667044162750244" lon="2.6485848426818848">
        <ele>320.79</ele>
      </trkpt>
      <trkpt lat="41.66713007725775" lon="2.6483125146478415">
        <ele>321.84</ele>
      </trkpt>
      <trkpt lat="41.66721607558429" lon="2.64804027043283">
        <ele>322.58</ele>
      </trkpt>
      <trkpt lat="41.667301654815674" lon="2.6477694511413574">
        <ele>323.06</ele>
      </trkpt>
      <trkpt lat="41.667344653978944" lon="2.647543642669916">
        <ele>323.42</ele>
      </trkpt>
      <trkpt lat="41.66738748550415" lon="2.6473188400268555">
        <ele>323.6</ele>
      </trkpt>
      <trkpt lat="41.667494773864746" lon="2.647082805633545">
        <ele>323.64</ele>
      </trkpt>
      <trkpt lat="41.66751011274755" lon="2.6470393035560846">
        <ele>323.63</ele>
      </trkpt>
      <trkpt lat="41.66762351989746" lon="2.6467180252075195">
        <ele>323.59</ele>
      </trkpt>
      <trkpt lat="41.66773080825806" lon="2.6465678215026855">
        <ele>323.23</ele>
      </trkpt>
      <trkpt lat="41.66789157316089" lon="2.6464927196502686">
        <ele>322.68</ele>
      </trkpt>
      <trkpt lat="41.668052673339844" lon="2.6464176177978516">
        <ele>322.17</ele>
      </trkpt>
      <trkpt lat="41.6681170463562" lon="2.646353244781494">
        <ele>321.77</ele>
      </trkpt>
      <trkpt lat="41.66815996170044" lon="2.6462674140930176">
        <ele>321.44</ele>
      </trkpt>
      <trkpt lat="41.66809558868408" lon="2.6461172103881836">
        <ele>321.33</ele>
      </trkpt>
      <trkpt lat="41.66792392730713" lon="2.645881175994873">
        <ele>321.45</ele>
      </trkpt>
      <trkpt lat="41.667773723602295" lon="2.645580768585205">
        <ele>321.63</ele>
      </trkpt>
      <trkpt lat="41.667773723602295" lon="2.645409107208252">
        <ele>321.66</ele>
      </trkpt>
      <trkpt lat="41.66781663894653" lon="2.645258903503418">
        <ele>321.63</ele>
      </trkpt>
      <trkpt lat="41.66788101196289" lon="2.6451945304870605">
        <ele>321.56</ele>
      </trkpt>
      <trkpt lat="41.66803104802966" lon="2.6451194286346436">
        <ele>321.43</ele>
      </trkpt>
      <trkpt lat="41.66818141937256" lon="2.6450443267822266">
        <ele>321.38</ele>
      </trkpt>
      <trkpt lat="41.66831016540527" lon="2.6449155807495117">
        <ele>321.45</ele>
      </trkpt>
      <trkpt lat="41.66844964027405" lon="2.644722294062376">
        <ele>321.59</ele>
      </trkpt>
      <trkpt lat="41.66858911514282" lon="2.644529342651367">
        <ele>321.72</ele>
      </trkpt>
      <trkpt lat="41.66865348815918" lon="2.6444005966186523">
        <ele>322.07</ele>
      </trkpt>
      <trkpt lat="41.66861057281494" lon="2.644186019897461">
        <ele>322.73</ele>
      </trkpt>
      <trkpt lat="41.6684280987829" lon="2.643971359357238">
        <ele>323.89</ele>
      </trkpt>
      <trkpt lat="41.668245792388916" lon="2.643756866455078">
        <ele>325.02</ele>
      </trkpt>
      <trkpt lat="41.6681276075542" lon="2.6435420382767916">
        <ele>325.99</ele>
      </trkpt>
      <trkpt lat="41.668009757995605" lon="2.6433277130126953">
        <ele>327.09</ele>
      </trkpt>
      <trkpt lat="41.66790246963501" lon="2.6431775093078613">
        <ele>328.35</ele>
      </trkpt>
      <trkpt lat="41.66768789291382" lon="2.6430487632751465">
        <ele>330.0</ele>
      </trkpt>
      <trkpt lat="41.667430652305484" lon="2.642952287569642">
        <ele>331.75</ele>
      </trkpt>
      <trkpt lat="41.66717290878296" lon="2.642855644226074">
        <ele>333.58</ele>
      </trkpt>
      <trkpt lat="41.667001247406006" lon="2.6427698135375977">
        <ele>335.36</ele>
      </trkpt>
      <trkpt lat="41.66679723188281" lon="2.642501424998045">
        <ele>337.0</ele>
      </trkpt>
      <trkpt lat="41.66659355163574" lon="2.642233371734619">
        <ele>338.8</ele>
      </trkpt>
      <trkpt lat="41.6665146779269" lon="2.642109403386712">
        <ele>340.5</ele>
      </trkpt>
      <trkpt lat="41.66644334793091" lon="2.6419973373413086">
        <ele>342.2</ele>
      </trkpt>
      <trkpt lat="41.66640043258667" lon="2.6418685913085938">
        <ele>343.89</ele>
      </trkpt>
      <trkpt lat="41.66646480560303" lon="2.641761302947998">
        <ele>345.42</ele>
      </trkpt>
      <trkpt lat="41.6667147539556" lon="2.641732720658183">
        <ele>346.7</ele>
      </trkpt>
      <trkpt lat="41.66696470230818" lon="2.641704138368368">
        <ele>348.06</ele>
      </trkpt>
      <trkpt lat="41.6672158241272" lon="2.6416754722595215">
        <ele>349.68</ele>
      </trkpt>
      <trkpt lat="41.66743040084839" lon="2.6415252685546875">
        <ele>351.63</ele>
      </trkpt>
      <trkpt lat="41.667548418045044" lon="2.6413642521947622">
        <ele>353.66</ele>
      </trkpt>
      <trkpt lat="41.6676664352417" lon="2.6412034034729004">
        <ele>355.25</ele>
      </trkpt>
      <trkpt lat="41.66770935058594" lon="2.641117572784424">
        <ele>356.99</ele>
      </trkpt>
      <trkpt lat="41.66770935058594" lon="2.6409244537353516">
        <ele>358.95</ele>
      </trkpt>
      <trkpt lat="41.66768780909479" lon="2.6405910216271877">
        <ele>361.1</ele>
      </trkpt>
      <trkpt lat="41.6676664352417" lon="2.640259265899658">
        <ele>363.15</ele>
      </trkpt>
      <trkpt lat="41.66759116575122" lon="2.6400335412472486">
        <ele>365.43</ele>
      </trkpt>
      <trkpt lat="41.667516231536865" lon="2.6398086547851562">
        <ele>367.87</ele>
      </trkpt>
      <trkpt lat="41.66761287488043" lon="2.6396260131150484">
        <ele>369.44</ele>
      </trkpt>
      <trkpt lat="41.66770935058594" lon="2.639443874359131">
        <ele>371.09</ele>
      </trkpt>
      <trkpt lat="41.66770935058594" lon="2.6392722129821777">
        <ele>373.05</ele>
      </trkpt>
      <trkpt lat="41.66764497756958" lon="2.6389718055725098">
        <ele>375.34</ele>
      </trkpt>
      <trkpt lat="41.66768789291382" lon="2.638885974884033">
        <ele>377.04</ele>
      </trkpt>
      <trkpt lat="41.667752265930176" lon="2.638843059539795">
        <ele>378.57</ele>
      </trkpt>
      <trkpt lat="41.667912947013974" lon="2.638821601867676">
        <ele>380.06</ele>
      </trkpt>
      <trkpt lat="41.66807413101196" lon="2.6388001441955566">
        <ele>381.63</ele>
      </trkpt>
      <trkpt lat="41.66826699860394" lon="2.63887507840991">
        <ele>383.08</ele>
      </trkpt>
      <trkpt lat="41.66846036911011" lon="2.6389503479003906">
        <ele>384.5</ele>
      </trkpt>
      <trkpt lat="41.66855659335852" lon="2.638902235776186">
        <ele>386.18</ele>
      </trkpt>
      <trkpt lat="41.66858911514282" lon="2.638885974884033">
        <ele>387.79</ele>
      </trkpt>
      <trkpt lat="41.66874485090375" lon="2.6385475136339664">
        <ele>389.81</ele>
      </trkpt>
      <trkpt lat="41.66890058666468" lon="2.6382091362029314">
        <ele>391.59</ele>
      </trkpt>
      <trkpt lat="41.669056406244636" lon="2.6378707587718964">
        <ele>393.5</ele>
      </trkpt>
      <trkpt lat="41.66921138763428" lon="2.6375341415405273">
        <ele>395.7</ele>
      </trkpt>
      <trkpt lat="41.66931867599487" lon="2.6374268531799316">
        <ele>397.86</ele>
      </trkpt>
      <trkpt lat="41.66942596435547" lon="2.637448310852051">
        <ele>399.65</ele>
      </trkpt>
      <trkpt lat="41.669554794207215" lon="2.6377275958657265">
        <ele>401.09</ele>
      </trkpt>
      <trkpt lat="41.6696834564209" lon="2.6380062103271484">
        <ele>403.0</ele>
      </trkpt>
      <trkpt lat="41.66982293128967" lon="2.6381778717041016">
        <ele>405.36</ele>
      </trkpt>
      <trkpt lat="41.66996240615845" lon="2.6383495330810547">
        <ele>407.96</ele>
      </trkpt>
      <trkpt lat="41.67020548135042" lon="2.6385424844920635">
        <ele>410.92</ele>
      </trkpt>
      <trkpt lat="41.6704485565424" lon="2.638735519722104">
        <ele>414.09</ele>
      </trkpt>
      <trkpt lat="41.6706919670105" lon="2.6389288902282715">
        <ele>417.37</ele>
      </trkpt>
      <trkpt lat="41.67090654373169" lon="2.639143466949463">
        <ele>420.53</ele>
      </trkpt>
      <trkpt lat="41.67096027173102" lon="2.639401461929083">
        <ele>423.53</ele>
      </trkpt>
      <trkpt lat="41.671013832092285" lon="2.6396584510803223">
        <ele>426.79</ele>
      </trkpt>
      <trkpt lat="41.671142578125" lon="2.639765739440918">
        <ele>430.51</ele>
      </trkpt>
      <trkpt lat="41.67120695114136" lon="2.6397228240966797">
        <ele>434.2</ele>
      </trkpt>
      <trkpt lat="41.671271324157715" lon="2.6395726203918457">
        <ele>438.06</ele>
      </trkpt>
      <trkpt lat="41.671260511502624" lon="2.639239188283682">
        <ele>442.32</ele>
      </trkpt>
      <trkpt lat="41.671249866485596" lon="2.6389074325561523">
        <ele>446.78</ele>
      </trkpt>
      <trkpt lat="41.671106619760394" lon="2.6385993976145983">
        <ele>451.44</ele>
      </trkpt>
      <trkpt lat="41.67096337303519" lon="2.638291446492076">
        <ele>455.9</ele>
      </trkpt>
      <trkpt lat="41.67082071304321" lon="2.6379847526550293">
        <ele>460.21</ele>
      </trkpt>
      <trkpt lat="41.670777797698975" lon="2.637813091278076">
        <ele>464.43</ele>
      </trkpt>
      <trkpt lat="41.670756340026855" lon="2.6374053955078125">
        <ele>468.96</ele>
      </trkpt>
      <trkpt lat="41.670659529045224" lon="2.637029131874442">
        <ele>473.38</ele>
      </trkpt>
      <trkpt lat="41.67056322097778" lon="2.6366543769836426">
        <ele>477.66</ele>
      </trkpt>
      <trkpt lat="41.67039851658046" lon="2.636332092806697">
        <ele>481.51</ele>
      </trkpt>
      <trkpt lat="41.67023381218314" lon="2.636009892448783">
        <ele>485.31</ele>
      </trkpt>
      <trkpt lat="41.67006969451904" lon="2.6356887817382812">
        <ele>489.11</ele>
      </trkpt>
      <trkpt lat="41.669919323176146" lon="2.6354310382157564">
        <ele>492.72</ele>
      </trkpt>
      <trkpt lat="41.669769287109375" lon="2.635173797607422">
        <ele>496.12</ele>
      </trkpt>
      <trkpt lat="41.669715475291014" lon="2.634818907827139">
        <ele>499.57</ele>
      </trkpt>
      <trkpt lat="41.66966199874878" lon="2.6344656944274902">
        <ele>502.71</ele>
      </trkpt>
      <trkpt lat="41.669511795043945" lon="2.634122371673584">
        <ele>505.42</ele>
      </trkpt>
      <trkpt lat="41.669415067881346" lon="2.633885918185115">
        <ele>508.07</ele>
      </trkpt>
      <trkpt lat="41.66931867599487" lon="2.633650302886963">
        <ele>510.48</ele>
      </trkpt>
      <trkpt lat="41.66926125995815" lon="2.633377891033888">
        <ele>512.62</ele>
      </trkpt>
      <trkpt lat="41.669203927740455" lon="2.6331055629998446">
        <ele>514.38</ele>
      </trkpt>
      <trkpt lat="41.66914701461792" lon="2.6328349113464355">
        <ele>515.87</ele>
      </trkpt>
      <trkpt lat="41.66899982839823" lon="2.632571216672659">
        <ele>517.45</ele>
      </trkpt>
      <trkpt lat="41.66885297745466" lon="2.632308192551136">
        <ele>518.72</ele>
      </trkpt>
      <trkpt lat="41.6687423363328" lon="2.632109960541129">
        <ele>519.81</ele>
      </trkpt>
      <trkpt lat="41.66863203048706" lon="2.6319122314453125">
        <ele>520.7</ele>
      </trkpt>
      <trkpt lat="41.668546199798584" lon="2.631654739379883">
        <ele>521.3</ele>
      </trkpt>
      <trkpt lat="41.6685676574707" lon="2.6313328742980957">
        <ele>521.5</ele>
      </trkpt>
      <trkpt lat="41.668667905032635" lon="2.6310175471007824">
        <ele>521.51</ele>
      </trkpt>
      <trkpt lat="41.6687682364136" lon="2.630702303722501">
        <ele>521.1</ele>
      </trkpt>
      <trkpt lat="41.66886806488037" lon="2.6303887367248535">
        <ele>520.62</ele>
      </trkpt>
      <trkpt lat="41.66886806488037" lon="2.630281448364258">
        <ele>520.1</ele>
      </trkpt>
      <trkpt lat="41.66873940266669" lon="2.6299166679382324">
        <ele>519.5</ele>
      </trkpt>
      <trkpt lat="41.66864267550409" lon="2.6297124847769737">
        <ele>518.71</ele>
      </trkpt>
      <trkpt lat="41.668546199798584" lon="2.6295089721679688">
        <ele>517.67</ele>
      </trkpt>
      <trkpt lat="41.66848182678223" lon="2.6295089721679688">
        <ele>516.8</ele>
      </trkpt>
      <trkpt lat="41.66846103966236" lon="2.629446694627404">
        <ele>515.86</ele>
      </trkpt>
      <trkpt lat="41.66841745376587" lon="2.6293158531188965">
        <ele>514.8</ele>
      </trkpt>
      <trkpt lat="41.66837453842163" lon="2.629101276397705">
        <ele>513.71</ele>
      </trkpt>
      <trkpt lat="41.66841745376587" lon="2.628908157348633">
        <ele>512.83</ele>
      </trkpt>
      <trkpt lat="41.66853563860059" lon="2.628617975860834">
        <ele>512.03</ele>
      </trkpt>
      <trkpt lat="41.66865348815918" lon="2.628328800201416">
        <ele>511.25</ele>
      </trkpt>
      <trkpt lat="41.66882514953613" lon="2.628114139661193">
        <ele>510.89</ele>
      </trkpt>
      <trkpt lat="41.668996810913086" lon="2.627899646759033">
        <ele>510.48</ele>
      </trkpt>
      <trkpt lat="41.669039726257324" lon="2.627835273742676">
        <ele>509.93</ele>
      </trkpt>
      <trkpt lat="41.66913284920156" lon="2.6275629457086325">
        <ele>509.38</ele>
      </trkpt>
      <trkpt lat="41.669225972145796" lon="2.627290701493621">
        <ele>508.89</ele>
      </trkpt>
      <trkpt lat="41.66931867599487" lon="2.6270198822021484">
        <ele>508.39</ele>
      </trkpt>
      <trkpt lat="41.66936159133911" lon="2.626633644104004">
        <ele>507.63</ele>
      </trkpt>
      <trkpt lat="41.66936167515814" lon="2.626633644104004">
        <ele>506.88</ele>
      </trkpt>
      <trkpt lat="41.669297218322754" lon="2.6263976097106934">
        <ele>505.81</ele>
      </trkpt>
      <trkpt lat="41.66931867599487" lon="2.6262903213500977">
        <ele>504.93</ele>
      </trkpt>
      <trkpt lat="41.66942613199353" lon="2.6260324101895094">
        <ele>503.96</ele>
      </trkpt>
      <trkpt lat="41.66953358799219" lon="2.625774582847953">
        <ele>502.79</ele>
      </trkpt>
      <trkpt lat="41.66964062489569" lon="2.6255178451538086">
        <ele>501.71</ele>
      </trkpt>
      <trkpt lat="41.669755121693015" lon="2.625267142429948">
        <ele>500.64</ele>
      </trkpt>
      <trkpt lat="41.66986970230937" lon="2.625016439706087">
        <ele>499.48</ele>
      </trkpt>
      <trkpt lat="41.669983863830566" lon="2.6247668266296387">
        <ele>498.27</ele>
      </trkpt>
      <trkpt lat="41.67006969451904" lon="2.624659538269043">
        <ele>497.4</ele>
      </trkpt>
      <trkpt lat="41.67030572891235" lon="2.62448787689209">
        <ele>496.77</ele>
      </trkpt>
      <trkpt lat="41.67034864425659" lon="2.624380588531494">
        <ele>495.88</ele>
      </trkpt>
      <trkpt lat="41.67037010192871" lon="2.6242733001708984">
        <ele>494.93</ele>
      </trkpt>
      <trkpt lat="41.67030572891235" lon="2.6241016387939453">
        <ele>493.76</ele>
      </trkpt>
      <trkpt lat="41.67011260986328" lon="2.6238226890563965">
        <ele>492.08</ele>
      </trkpt>
      <trkpt lat="41.670005321502686" lon="2.6235222816467285">
        <ele>490.66</ele>
      </trkpt>
      <trkpt lat="41.66989803314209" lon="2.6233720779418945">
        <ele>489.38</ele>
      </trkpt>
      <trkpt lat="41.66987657546997" lon="2.6232433319091797">
        <ele>488.36</ele>
      </trkpt>
      <trkpt lat="41.66989803314209" lon="2.622857093811035">
        <ele>487.59</ele>
      </trkpt>
      <trkpt lat="41.66994103230536" lon="2.6226528268307447">
        <ele>486.74</ele>
      </trkpt>
      <trkpt lat="41.669983863830566" lon="2.6224493980407715">
        <ele>485.75</ele>
      </trkpt>
      <trkpt lat="41.66995176114142" lon="2.622502874583006">
        <ele>484.36</ele>
      </trkpt>
      <trkpt lat="41.6699839476496" lon="2.6224493980407715">
        <ele>483.09</ele>
      </trkpt>
      <trkpt lat="41.669983863830566" lon="2.622385025024414">
        <ele>481.65</ele>
      </trkpt>
      <trkpt lat="41.66991949081421" lon="2.622342109680176">
        <ele>480.13</ele>
      </trkpt>
      <trkpt lat="41.66971924714744" lon="2.622499354183674">
        <ele>478.17</ele>
      </trkpt>
      <trkpt lat="41.669519087299705" lon="2.622656598687172">
        <ele>476.13</ele>
      </trkpt>
      <trkpt lat="41.66931867599487" lon="2.622814178466797">
        <ele>474.08</ele>
      </trkpt>
      <trkpt lat="41.66912564076483" lon="2.622857093811035">
        <ele>472.35</ele>
      </trkpt>
      <trkpt lat="41.66895389556885" lon="2.622857093811035">
        <ele>470.7</ele>
      </trkpt>
      <trkpt lat="41.668782234191895" lon="2.622814178466797">
        <ele>468.95</ele>
      </trkpt>
      <trkpt lat="41.66850353591144" lon="2.6226855162531137">
        <ele>467.4</ele>
      </trkpt>
      <trkpt lat="41.6682243347168" lon="2.622556686401367">
        <ele>466.18</ele>
      </trkpt>
      <trkpt lat="41.668074214830995" lon="2.622620975598693">
        <ele>464.63</ele>
      </trkpt>
      <trkpt lat="41.66792392730713" lon="2.622685432434082">
        <ele>463.27</ele>
      </trkpt>
      <trkpt lat="41.66768789291382" lon="2.622706890106201">
        <ele>462.19</ele>
      </trkpt>
      <trkpt lat="41.66747331619263" lon="2.622685432434082">
        <ele>461.39</ele>
      </trkpt>
      <trkpt lat="41.667312467470765" lon="2.622588872909546">
        <ele>461.0</ele>
      </trkpt>
      <trkpt lat="41.66715145111084" lon="2.6224923133850098">
        <ele>460.68</ele>
      </trkpt>
      <trkpt lat="41.666968977078795" lon="2.622288381680846">
        <ele>460.82</ele>
      </trkpt>
      <trkpt lat="41.666786670684814" lon="2.622084617614746">
        <ele>461.19</ele>
      </trkpt>
      <trkpt lat="41.66664719581604" lon="2.621966600418091">
        <ele>461.64</ele>
      </trkpt>
      <trkpt lat="41.666507720947266" lon="2.6218485832214355">
        <ele>462.24</ele>
      </trkpt>
      <trkpt lat="41.66642189025879" lon="2.6216983795166016">
        <ele>463.19</ele>
      </trkpt>
      <trkpt lat="41.66637897491455" lon="2.621591091156006">
        <ele>464.29</ele>
      </trkpt>
      <trkpt lat="41.66642189025879" lon="2.6212048530578613">
        <ele>466.0</ele>
      </trkpt>
      <trkpt lat="41.66635751724243" lon="2.621033191680908">
        <ele>467.25</ele>
      </trkpt>
      <trkpt lat="41.666143191978335" lon="2.62099027633667">
        <ele>468.15</ele>
      </trkpt>
      <trkpt lat="41.66592836380005" lon="2.6209473609924316">
        <ele>469.31</ele>
      </trkpt>
      <trkpt lat="41.66576751507819" lon="2.6208508014678955">
        <ele>470.72</ele>
      </trkpt>
      <trkpt lat="41.66560649871826" lon="2.6207542419433594">
        <ele>472.17</ele>
      </trkpt>
      <trkpt lat="41.665402902290225" lon="2.620689868927002">
        <ele>473.64</ele>
      </trkpt>
      <trkpt lat="41.665198802948" lon="2.6206254959106445">
        <ele>475.13</ele>
      </trkpt>
      <trkpt lat="41.665027141571045" lon="2.6204752922058105">
        <ele>476.86</ele>
      </trkpt>
      <trkpt lat="41.66502722539008" lon="2.6204752922058105">
        <ele>478.52</ele>
      </trkpt>
      <trkpt lat="41.66498422622681" lon="2.6203465461730957">
        <ele>480.42</ele>
      </trkpt>
      <trkpt lat="41.66496276855469" lon="2.6201963424682617">
        <ele>482.28</ele>
      </trkpt>
      <trkpt lat="41.66496276855469" lon="2.619788646697998">
        <ele>484.27</ele>
      </trkpt>
      <trkpt lat="41.665037954226136" lon="2.619476839900017">
        <ele>486.22</ele>
      </trkpt>
      <trkpt lat="41.66511297225952" lon="2.619166374206543">
        <ele>488.08</ele>
      </trkpt>
      <trkpt lat="41.6651451587677" lon="2.6189082954078913">
        <ele>489.7</ele>
      </trkpt>
      <trkpt lat="41.66517734527588" lon="2.6186513900756836">
        <ele>491.37</ele>
      </trkpt>
      <trkpt lat="41.665263175964355" lon="2.6184797286987305">
        <ele>493.44</ele>
      </trkpt>
      <trkpt lat="41.66534900665283" lon="2.6183724403381348">
        <ele>495.67</ele>
      </trkpt>
      <trkpt lat="41.66560624726117" lon="2.6182008627802134">
        <ele>498.3</ele>
      </trkpt>
      <trkpt lat="41.66586399078369" lon="2.6180291175842285">
        <ele>500.77</ele>
      </trkpt>
      <trkpt lat="41.66598200798035" lon="2.617878830060363">
        <ele>502.77</ele>
      </trkpt>
      <trkpt lat="41.666100025177" lon="2.6177287101745605">
        <ele>504.8</ele>
      </trkpt>
      <trkpt lat="41.66618585586548" lon="2.6175785064697266">
        <ele>506.93</ele>
      </trkpt>
      <trkpt lat="41.66622877120972" lon="2.6174283027648926">
        <ele>508.96</ele>
      </trkpt>
      <trkpt lat="41.66622877120972" lon="2.617213726043701">
        <ele>511.03</ele>
      </trkpt>
      <trkpt lat="41.66618585586548" lon="2.6169562339782715">
        <ele>513.12</ele>
      </trkpt>
      <trkpt lat="41.666100025177" lon="2.616720199584961">
        <ele>514.84</ele>
      </trkpt>
      <trkpt lat="41.666100108996034" lon="2.616720199584961">
        <ele>516.35</ele>
      </trkpt>
      <trkpt lat="41.66594982147217" lon="2.6165270805358887">
        <ele>517.95</ele>
      </trkpt>
      <trkpt lat="41.66571378707886" lon="2.616323232650757">
        <ele>519.35</ele>
      </trkpt>
      <trkpt lat="41.66547775268555" lon="2.616119384765625">
        <ele>520.54</ele>
      </trkpt>
      <trkpt lat="41.66533811017871" lon="2.6158400997519493">
        <ele>521.8</ele>
      </trkpt>
      <trkpt lat="41.665198802948" lon="2.6155614852905273">
        <ele>523.13</ele>
      </trkpt>
      <trkpt lat="41.66507005691528" lon="2.615346908569336">
        <ele>524.38</ele>
      </trkpt>
      <trkpt lat="41.66496276855469" lon="2.6152610778808594">
        <ele>525.2</ele>
      </trkpt>
      <trkpt lat="41.66472698561847" lon="2.615196704864502">
        <ele>525.76</ele>
      </trkpt>
      <trkpt lat="41.664490699768066" lon="2.6151323318481445">
        <ele>526.32</ele>
      </trkpt>
      <trkpt lat="41.664297580718994" lon="2.614949941635132">
        <ele>526.62</ele>
      </trkpt>
      <trkpt lat="41.66410446166992" lon="2.614767551422119">
        <ele>526.88</ele>
      </trkpt>
      <trkpt lat="41.66414746083319" lon="2.6147031784057617">
        <ele>526.88</ele>
      </trkpt>
      <trkpt lat="41.6640830039978" lon="2.614617347717285">
        <ele>526.99</ele>
      </trkpt>
      <trkpt lat="41.66404671035707" lon="2.614653641358018">
        <ele>527.22</ele>
      </trkpt>
    </trkseg>
  </trk>
</gpx>
