<?xml version="1.0" encoding="UTF-8"?>
<gpx creator="Garmin Connect" version="1.1"
  xsi:schemaLocation="http://www.topografix.com/GPX/1/1 http://www.topografix.com/GPX/11.xsd"
  xmlns:ns3="http://www.garmin.com/xmlschemas/TrackPointExtension/v1"
  xmlns="http://www.topografix.com/GPX/1/1"
  xmlns:xsi="http://www.w3.org/2001/XMLSchema-instance" xmlns:ns2="http://www.garmin.com/xmlschemas/GpxExtensions/v3">
  <metadata>
    <name>GR92 Etappi 21: Bruguers to Garraf</name>
    <link href="connect.garmin.com">
      <text>Garmin Connect</text>
    </link>
    <time>2026-09-13T10:39:38.000Z</time>
  </metadata>
  <trk>
    <name>GR92 Etappi 21: Bruguers to Garraf</name>
    <trkseg>
      <trkpt lat="41.314676413312554" lon="1.9616603013128042">
        <ele>242.95</ele>
      </trkpt>
      <trkpt lat="41.314687728881836" lon="1.961660385131836">
        <ele>244.36</ele>
      </trkpt>
      <trkpt lat="41.314709186553955" lon="1.9614028930664062">
        <ele>246.22</ele>
      </trkpt>
      <trkpt lat="41.31462335586548" lon="1.9610166549682617">
        <ele>248.88</ele>
      </trkpt>
      <trkpt lat="41.31458044052124" lon="1.9609522819519043">
        <ele>251.47</ele>
      </trkpt>
      <trkpt lat="41.31438732147217" lon="1.9609951972961426">
        <ele>254.03</ele>
      </trkpt>
      <trkpt lat="41.31422655656934" lon="1.9609415531158447">
        <ele>256.82</ele>
      </trkpt>
      <trkpt lat="41.31406545639038" lon="1.9608879089355469">
        <ele>259.85</ele>
      </trkpt>
      <trkpt lat="41.31386169232428" lon="1.9607377890497446">
        <ele>263.6</ele>
      </trkpt>
      <trkpt lat="41.31365776062012" lon="1.960587501525879">
        <ele>267.4</ele>
      </trkpt>
      <trkpt lat="41.31350755691528" lon="1.960287094116211">
        <ele>272.31</ele>
      </trkpt>
      <trkpt lat="41.31329298019409" lon="1.960158348083496">
        <ele>276.32</ele>
      </trkpt>
      <trkpt lat="41.31327101960778" lon="1.9601363874971867">
        <ele>279.8</ele>
      </trkpt>
      <trkpt lat="41.31325006484985" lon="1.9601154327392578">
        <ele>285.61</ele>
      </trkpt>
      <trkpt lat="41.31335735321045" lon="1.9600725173950195">
        <ele>288.55</ele>
      </trkpt>
      <trkpt lat="41.31329298019409" lon="1.960008144378662">
        <ele>291.17</ele>
      </trkpt>
      <trkpt lat="41.313228607177734" lon="1.959836483001709">
        <ele>294.06</ele>
      </trkpt>
      <trkpt lat="41.31305694580078" lon="1.9596648216247559">
        <ele>296.45</ele>
      </trkpt>
      <trkpt lat="41.312992572784424" lon="1.9594931602478027">
        <ele>299.16</ele>
      </trkpt>
      <trkpt lat="41.31314277648926" lon="1.9595789909362793">
        <ele>301.69</ele>
      </trkpt>
      <trkpt lat="41.31314277648926" lon="1.9594717025756836">
        <ele>304.44</ele>
      </trkpt>
      <trkpt lat="41.31316423416138" lon="1.9594717025756836">
        <ele>306.93</ele>
      </trkpt>
      <trkpt lat="41.31325006484985" lon="1.9595575332641602">
        <ele>309.28</ele>
      </trkpt>
      <trkpt lat="41.31335735321045" lon="1.9595789909362793">
        <ele>311.74</ele>
      </trkpt>
      <trkpt lat="41.31340026855469" lon="1.9596648216247559">
        <ele>313.9</ele>
      </trkpt>
      <trkpt lat="41.31361484527588" lon="1.959686279296875">
        <ele>316.36</ele>
      </trkpt>
      <trkpt lat="41.31342172622681" lon="1.959536075592041">
        <ele>319.12</ele>
      </trkpt>
      <trkpt lat="41.31325006484985" lon="1.959214210510254">
        <ele>322.58</ele>
      </trkpt>
      <trkpt lat="41.31312131881714" lon="1.9591498374938965">
        <ele>325.36</ele>
      </trkpt>
      <trkpt lat="41.31303548812866" lon="1.958913803100586">
        <ele>328.77</ele>
      </trkpt>
      <trkpt lat="41.312949657440186" lon="1.9588923454284668">
        <ele>331.72</ele>
      </trkpt>
      <trkpt lat="41.31294974125922" lon="1.9588279724121094">
        <ele>334.84</ele>
      </trkpt>
      <trkpt lat="41.313024926930666" lon="1.958580706268549">
        <ele>338.35</ele>
      </trkpt>
      <trkpt lat="41.31309986114502" lon="1.9583344459533691">
        <ele>341.9</ele>
      </trkpt>
      <trkpt lat="41.313014114275575" lon="1.958162784576416">
        <ele>344.93</ele>
      </trkpt>
      <trkpt lat="41.31305694580078" lon="1.9580769538879395">
        <ele>348.06</ele>
      </trkpt>
      <trkpt lat="41.31309986114502" lon="1.9580554962158203">
        <ele>351.04</ele>
      </trkpt>
      <trkpt lat="41.31316423416138" lon="1.9579482078552246">
        <ele>354.09</ele>
      </trkpt>
      <trkpt lat="41.31327152252197" lon="1.957862377166748">
        <ele>357.15</ele>
      </trkpt>
      <trkpt lat="41.313185691833496" lon="1.95756196975708">
        <ele>359.69</ele>
      </trkpt>
      <trkpt lat="41.313185691833496" lon="1.9574975967407227">
        <ele>362.04</ele>
      </trkpt>
      <trkpt lat="41.31335735321045" lon="1.957390308380127">
        <ele>364.74</ele>
      </trkpt>
      <trkpt lat="41.31335735321045" lon="1.9571757316589355">
        <ele>366.87</ele>
      </trkpt>
      <trkpt lat="41.31340026855469" lon="1.9570684432983398">
        <ele>368.92</ele>
      </trkpt>
      <trkpt lat="41.31338442675769" lon="1.9570132903754711">
        <ele>370.49</ele>
      </trkpt>
      <trkpt lat="41.313384510576725" lon="1.9570133741945028">
        <ele>371.87</ele>
      </trkpt>
      <trkpt lat="41.31335735321045" lon="1.9569182395935059">
        <ele>372.96</ele>
      </trkpt>
      <trkpt lat="41.31340026855469" lon="1.9566607475280762">
        <ele>374.11</ele>
      </trkpt>
      <trkpt lat="41.313464641571045" lon="1.956467628479004">
        <ele>375.1</ele>
      </trkpt>
      <trkpt lat="41.313443183898926" lon="1.9564247131347656">
        <ele>375.63</ele>
      </trkpt>
      <trkpt lat="41.313486099243164" lon="1.956167221069336">
        <ele>375.94</ele>
      </trkpt>
      <trkpt lat="41.313464641571045" lon="1.956038475036621">
        <ele>375.98</ele>
      </trkpt>
      <trkpt lat="41.31350755691528" lon="1.9559097290039062">
        <ele>375.92</ele>
      </trkpt>
      <trkpt lat="41.313700675964355" lon="1.955866813659668">
        <ele>375.91</ele>
      </trkpt>
      <trkpt lat="41.31370075978339" lon="1.955866813659668">
        <ele>375.7</ele>
      </trkpt>
      <trkpt lat="41.313979625701904" lon="1.955866813659668">
        <ele>375.54</ele>
      </trkpt>
      <trkpt lat="41.31415128707886" lon="1.9557809829711914">
        <ele>375.21</ele>
      </trkpt>
      <trkpt lat="41.314215660095215" lon="1.955716609954834">
        <ele>374.75</ele>
      </trkpt>
      <trkpt lat="41.31430149078369" lon="1.9554591178894043">
        <ele>374.36</ele>
      </trkpt>
      <trkpt lat="41.31430157460272" lon="1.9551801681518555">
        <ele>373.82</ele>
      </trkpt>
      <trkpt lat="41.314161848276854" lon="1.9549116119742393">
        <ele>373.03</ele>
      </trkpt>
      <trkpt lat="41.31402254104614" lon="1.954643726348877">
        <ele>372.04</ele>
      </trkpt>
      <trkpt lat="41.31385087966919" lon="1.9544291496276855">
        <ele>370.84</ele>
      </trkpt>
      <trkpt lat="41.31365784443915" lon="1.9542789459228516">
        <ele>369.59</ele>
      </trkpt>
      <trkpt lat="41.313464641571045" lon="1.9541287422180176">
        <ele>368.19</ele>
      </trkpt>
      <trkpt lat="41.31327152252197" lon="1.953892707824707">
        <ele>366.73</ele>
      </trkpt>
      <trkpt lat="41.313228607177734" lon="1.9537854194641113">
        <ele>365.48</ele>
      </trkpt>
      <trkpt lat="41.313207149505615" lon="1.9536352157592773">
        <ele>364.32</ele>
      </trkpt>
      <trkpt lat="41.31327152252197" lon="1.9533133506774902">
        <ele>363.39</ele>
      </trkpt>
      <trkpt lat="41.31329298019409" lon="1.9531631469726562">
        <ele>362.39</ele>
      </trkpt>
      <trkpt lat="41.31325006484985" lon="1.9530344009399414">
        <ele>361.36</ele>
      </trkpt>
      <trkpt lat="41.3131888769567" lon="1.9529188983142376">
        <ele>360.33</ele>
      </trkpt>
      <trkpt lat="41.31318896077573" lon="1.9529189821332693">
        <ele>359.37</ele>
      </trkpt>
      <trkpt lat="41.31305694580078" lon="1.952669620513916">
        <ele>358.38</ele>
      </trkpt>
      <trkpt lat="41.312906658276916" lon="1.952476417645812">
        <ele>357.26</ele>
      </trkpt>
      <trkpt lat="41.31275653839111" lon="1.9522833824157715">
        <ele>356.12</ele>
      </trkpt>
      <trkpt lat="41.312735080718994" lon="1.952197551727295">
        <ele>355.33</ele>
      </trkpt>
      <trkpt lat="41.31275653839111" lon="1.9518756866455078">
        <ele>354.61</ele>
      </trkpt>
      <trkpt lat="41.31282091140747" lon="1.9516825675964355">
        <ele>354.13</ele>
      </trkpt>
      <trkpt lat="41.31296030245721" lon="1.9515430927276611">
        <ele>353.93</ele>
      </trkpt>
      <trkpt lat="41.31309986114502" lon="1.9514036178588867">
        <ele>353.8</ele>
      </trkpt>
      <trkpt lat="41.31316423416138" lon="1.9512534141540527">
        <ele>353.59</ele>
      </trkpt>
      <trkpt lat="41.31314277648926" lon="1.9510602951049805">
        <ele>353.27</ele>
      </trkpt>
      <trkpt lat="41.312971115112305" lon="1.9507813453674316">
        <ele>352.64</ele>
      </trkpt>
      <trkpt lat="41.312981843948364" lon="1.950501725077629">
        <ele>352.48</ele>
      </trkpt>
      <trkpt lat="41.312992572784424" lon="1.950223445892334">
        <ele>352.37</ele>
      </trkpt>
      <trkpt lat="41.31306775845587" lon="1.9500299915671349">
        <ele>352.52</ele>
      </trkpt>
      <trkpt lat="41.31314277648926" lon="1.9498372077941895">
        <ele>352.82</ele>
      </trkpt>
      <trkpt lat="41.313099693506956" lon="1.9495791289955378">
        <ele>353.02</ele>
      </trkpt>
      <trkpt lat="41.31305694580078" lon="1.94932222366333">
        <ele>353.43</ele>
      </trkpt>
      <trkpt lat="41.312971115112305" lon="1.9492149353027344">
        <ele>353.79</ele>
      </trkpt>
      <trkpt lat="41.31284236907959" lon="1.9492149353027344">
        <ele>354.11</ele>
      </trkpt>
      <trkpt lat="41.31267070770264" lon="1.9492578506469727">
        <ele>354.43</ele>
      </trkpt>
      <trkpt lat="41.3125205039978" lon="1.9493651390075684">
        <ele>354.85</ele>
      </trkpt>
      <trkpt lat="41.31241321563721" lon="1.9493651390075684">
        <ele>355.47</ele>
      </trkpt>
      <trkpt lat="41.312241554260254" lon="1.949150562286377">
        <ele>356.49</ele>
      </trkpt>
      <trkpt lat="41.31209135055542" lon="1.949021816253662">
        <ele>357.51</ele>
      </trkpt>
      <trkpt lat="41.31191968917847" lon="1.9488072395324707">
        <ele>358.83</ele>
      </trkpt>
      <trkpt lat="41.31168382242322" lon="1.948692910373211">
        <ele>360.07</ele>
      </trkpt>
      <trkpt lat="41.311448039487004" lon="1.948578581213951">
        <ele>361.44</ele>
      </trkpt>
      <trkpt lat="41.311211585998535" lon="1.9484639167785645">
        <ele>362.82</ele>
      </trkpt>
      <trkpt lat="41.31107211112976" lon="1.9483351707458496">
        <ele>364.26</ele>
      </trkpt>
      <trkpt lat="41.310932636260986" lon="1.9482064247131348">
        <ele>365.69</ele>
      </trkpt>
      <trkpt lat="41.31087723188102" lon="1.9481850508600473">
        <ele>366.93</ele>
      </trkpt>
      <trkpt lat="41.31087706424296" lon="1.9481850508600473">
        <ele>368.11</ele>
      </trkpt>
      <trkpt lat="41.31065368652344" lon="1.948099136352539">
        <ele>369.2</ele>
      </trkpt>
      <trkpt lat="41.31054639816284" lon="1.947948932647705">
        <ele>370.38</ele>
      </trkpt>
      <trkpt lat="41.31052494049072" lon="1.947648525238037">
        <ele>371.77</ele>
      </trkpt>
      <trkpt lat="41.31033182144165" lon="1.9474554061889648">
        <ele>372.59</ele>
      </trkpt>
      <trkpt lat="41.310224533081055" lon="1.9472837448120117">
        <ele>373.4</ele>
      </trkpt>
      <trkpt lat="41.31018865853548" lon="1.9469969999045134">
        <ele>374.21</ele>
      </trkpt>
      <trkpt lat="41.310152783989906" lon="1.946710254997015">
        <ele>374.88</ele>
      </trkpt>
      <trkpt lat="41.31011724472046" lon="1.946425437927246">
        <ele>375.39</ele>
      </trkpt>
      <trkpt lat="41.31011724472046" lon="1.9463181495666504">
        <ele>375.89</ele>
      </trkpt>
      <trkpt lat="41.310203075408936" lon="1.9459962844848633">
        <ele>376.45</ele>
      </trkpt>
      <trkpt lat="41.31017432548106" lon="1.9457023311406374">
        <ele>376.82</ele>
      </trkpt>
      <trkpt lat="41.31014565937221" lon="1.9454083777964115">
        <ele>377.07</ele>
      </trkpt>
      <trkpt lat="41.31011724472046" lon="1.9451165199279785">
        <ele>377.16</ele>
      </trkpt>
      <trkpt lat="41.31011724472046" lon="1.9450092315673828">
        <ele>377.32</ele>
      </trkpt>
      <trkpt lat="41.31024615839124" lon="1.9447191338986158">
        <ele>377.44</ele>
      </trkpt>
      <trkpt lat="41.31037473678589" lon="1.944429874420166">
        <ele>377.45</ele>
      </trkpt>
      <trkpt lat="41.310439109802246" lon="1.9443869590759277">
        <ele>377.55</ele>
      </trkpt>
      <trkpt lat="41.31054639816284" lon="1.9443440437316895">
        <ele>377.66</ele>
      </trkpt>
      <trkpt lat="41.31054648198187" lon="1.9443440437316895">
        <ele>377.74</ele>
      </trkpt>
      <trkpt lat="41.31080389022827" lon="1.9444513320922852">
        <ele>378.01</ele>
      </trkpt>
      <trkpt lat="41.31088972091675" lon="1.9444513320922852">
        <ele>378.17</ele>
      </trkpt>
      <trkpt lat="41.31108267232776" lon="1.9443333987146616">
        <ele>378.34</ele>
      </trkpt>
      <trkpt lat="41.31127595901489" lon="1.9442152976989746">
        <ele>378.73</ele>
      </trkpt>
      <trkpt lat="41.31138324737549" lon="1.9440865516662598">
        <ele>378.98</ele>
      </trkpt>
      <trkpt lat="41.311233043670654" lon="1.9437646865844727">
        <ele>378.83</ele>
      </trkpt>
      <trkpt lat="41.31126523017883" lon="1.9434957951307297">
        <ele>378.98</ele>
      </trkpt>
      <trkpt lat="41.31129741668701" lon="1.9432282447814941">
        <ele>379.13</ele>
      </trkpt>
      <trkpt lat="41.31129741668701" lon="1.9430351257324219">
        <ele>379.24</ele>
      </trkpt>
      <trkpt lat="41.31125450134277" lon="1.9428205490112305">
        <ele>379.26</ele>
      </trkpt>
      <trkpt lat="41.31116850301623" lon="1.9426270946860313">
        <ele>379.2</ele>
      </trkpt>
      <trkpt lat="41.31108283996582" lon="1.942434310913086">
        <ele>379.21</ele>
      </trkpt>
      <trkpt lat="41.31112575531006" lon="1.942305564880371">
        <ele>379.59</ele>
      </trkpt>
      <trkpt lat="41.31131887435913" lon="1.9420051574707031">
        <ele>380.16</ele>
      </trkpt>
      <trkpt lat="41.311447620391846" lon="1.9419193267822266">
        <ele>380.55</ele>
      </trkpt>
      <trkpt lat="41.31165113300085" lon="1.9418978691101074">
        <ele>381.1</ele>
      </trkpt>
      <trkpt lat="41.31185531616211" lon="1.9418764114379883">
        <ele>381.79</ele>
      </trkpt>
      <trkpt lat="41.31209135055542" lon="1.9420051574707031">
        <ele>382.89</ele>
      </trkpt>
      <trkpt lat="41.31232738494873" lon="1.9421982765197754">
        <ele>384.18</ele>
      </trkpt>
      <trkpt lat="41.31241321563721" lon="1.9421982765197754">
        <ele>385.25</ele>
      </trkpt>
      <trkpt lat="41.312456130981445" lon="1.9421124458312988">
        <ele>386.32</ele>
      </trkpt>
      <trkpt lat="41.312488317489624" lon="1.9417790975421667">
        <ele>387.37</ele>
      </trkpt>
      <trkpt lat="41.3125205039978" lon="1.9414472579956055">
        <ele>388.73</ele>
      </trkpt>
      <trkpt lat="41.312499046325684" lon="1.9411253929138184">
        <ele>390.17</ele>
      </trkpt>
      <trkpt lat="41.31244523450732" lon="1.940856585279107">
        <ele>391.57</ele>
      </trkpt>
      <trkpt lat="41.312391674146056" lon="1.940588615834713">
        <ele>393.09</ele>
      </trkpt>
      <trkpt lat="41.31239175796509" lon="1.9405889511108398">
        <ele>394.69</ele>
      </trkpt>
      <trkpt lat="41.31242394447327" lon="1.9402556028217077">
        <ele>396.59</ele>
      </trkpt>
      <trkpt lat="41.312456130981445" lon="1.9399237632751465">
        <ele>398.52</ele>
      </trkpt>
      <trkpt lat="41.312542045488954" lon="1.9396765809506178">
        <ele>400.6</ele>
      </trkpt>
      <trkpt lat="41.3126277923584" lon="1.9394302368164062">
        <ele>402.64</ele>
      </trkpt>
      <trkpt lat="41.312692165374756" lon="1.9391083717346191">
        <ele>404.67</ele>
      </trkpt>
      <trkpt lat="41.312735080718994" lon="1.938765048980713">
        <ele>406.65</ele>
      </trkpt>
      <trkpt lat="41.31282091140747" lon="1.9384002685546875">
        <ele>408.72</ele>
      </trkpt>
      <trkpt lat="41.31309986114502" lon="1.9384002685546875">
        <ele>410.91</ele>
      </trkpt>
      <trkpt lat="41.313207149505615" lon="1.9384431838989258">
        <ele>412.97</ele>
      </trkpt>
      <trkpt lat="41.31335735321045" lon="1.9384002685546875">
        <ele>415.04</ele>
      </trkpt>
      <trkpt lat="41.313486099243164" lon="1.9380569458007812">
        <ele>417.33</ele>
      </trkpt>
      <trkpt lat="41.313529098406434" lon="1.9378204084932804">
        <ele>419.59</ele>
      </trkpt>
      <trkpt lat="41.31357192993164" lon="1.9375848770141602">
        <ele>421.79</ele>
      </trkpt>
      <trkpt lat="41.31355047225952" lon="1.9373703002929688">
        <ele>423.9</ele>
      </trkpt>
      <trkpt lat="41.31359338760376" lon="1.9371342658996582">
        <ele>425.95</ele>
      </trkpt>
      <trkpt lat="41.31365776062012" lon="1.9369840621948242">
        <ele>427.87</ele>
      </trkpt>
      <trkpt lat="41.313679218292236" lon="1.9366399012506008">
        <ele>430.0</ele>
      </trkpt>
      <trkpt lat="41.313700675964355" lon="1.9362974166870117">
        <ele>431.95</ele>
      </trkpt>
      <trkpt lat="41.313636302948" lon="1.936018466949463">
        <ele>433.79</ele>
      </trkpt>
      <trkpt lat="41.3135290145874" lon="1.935889720916748">
        <ele>435.47</ele>
      </trkpt>
      <trkpt lat="41.313443183898926" lon="1.935868263244629">
        <ele>437.03</ele>
      </trkpt>
      <trkpt lat="41.31328660994768" lon="1.935722166672349">
        <ele>438.53</ele>
      </trkpt>
      <trkpt lat="41.313130371272564" lon="1.9355763215571642">
        <ele>439.98</ele>
      </trkpt>
      <trkpt lat="41.31313011981547" lon="1.935576070100069">
        <ele>441.34</ele>
      </trkpt>
      <trkpt lat="41.31312131881714" lon="1.935567855834961">
        <ele>442.68</ele>
      </trkpt>
      <trkpt lat="41.31301386281848" lon="1.9353744853287935">
        <ele>443.98</ele>
      </trkpt>
      <trkpt lat="41.31290674209595" lon="1.9351816177368164">
        <ele>445.42</ele>
      </trkpt>
      <trkpt lat="41.31282091140747" lon="1.9353532791137695">
        <ele>446.97</ele>
      </trkpt>
      <trkpt lat="41.31290674209595" lon="1.9356536865234375">
        <ele>448.31</ele>
      </trkpt>
      <trkpt lat="41.312928199768066" lon="1.9358468055725098">
        <ele>449.74</ele>
      </trkpt>
      <trkpt lat="41.31279945373535" lon="1.9359111785888672">
        <ele>451.39</ele>
      </trkpt>
      <trkpt lat="41.31275653839111" lon="1.935718059539795">
        <ele>453.03</ele>
      </trkpt>
      <trkpt lat="41.31260633468628" lon="1.935439109802246">
        <ele>454.79</ele>
      </trkpt>
      <trkpt lat="41.31237030029297" lon="1.935267448425293">
        <ele>456.72</ele>
      </trkpt>
      <trkpt lat="41.312198638916016" lon="1.9352030754089355">
        <ele>458.67</ele>
      </trkpt>
      <trkpt lat="41.31206335499883" lon="1.9352609943598509">
        <ele>460.82</ele>
      </trkpt>
      <trkpt lat="41.31206293590367" lon="1.935261245816946">
        <ele>462.88</ele>
      </trkpt>
      <trkpt lat="41.31204843521118" lon="1.935267448425293">
        <ele>465.07</ele>
      </trkpt>
      <trkpt lat="41.31187694147229" lon="1.9352888222783804">
        <ele>467.49</ele>
      </trkpt>
      <trkpt lat="41.311705112457275" lon="1.9353103637695312">
        <ele>470.07</ele>
      </trkpt>
      <trkpt lat="41.31159782409668" lon="1.935288906097412">
        <ele>472.72</ele>
      </trkpt>
      <trkpt lat="41.3115119934082" lon="1.9351601600646973">
        <ele>475.45</ele>
      </trkpt>
      <trkpt lat="41.311286855489016" lon="1.9350422266870737">
        <ele>478.51</ele>
      </trkpt>
      <trkpt lat="41.3110613822937" lon="1.9349241256713867">
        <ele>481.84</ele>
      </trkpt>
      <trkpt lat="41.310975551605225" lon="1.9350099563598633">
        <ele>485.11</ele>
      </trkpt>
      <trkpt lat="41.31082534790039" lon="1.9350099563598633">
        <ele>488.72</ele>
      </trkpt>
      <trkpt lat="41.31065377034247" lon="1.9348382949829102">
        <ele>492.45</ele>
      </trkpt>
      <trkpt lat="41.3106107711792" lon="1.9345593452453613">
        <ele>495.77</ele>
      </trkpt>
      <trkpt lat="41.31052494049072" lon="1.9343233108520508">
        <ele>499.13</ele>
      </trkpt>
      <trkpt lat="41.31037482060492" lon="1.9342267513275146">
        <ele>502.61</ele>
      </trkpt>
      <trkpt lat="41.310224616900086" lon="1.9341301918029785">
        <ele>506.07</ele>
      </trkpt>
      <trkpt lat="41.31007441319525" lon="1.9340336322784424">
        <ele>509.52</ele>
      </trkpt>
      <trkpt lat="41.30992412567139" lon="1.9339370727539062">
        <ele>513.01</ele>
      </trkpt>
      <trkpt lat="41.30977383814752" lon="1.933729536831379">
        <ele>516.49</ele>
      </trkpt>
      <trkpt lat="41.309623550623655" lon="1.9335220009088516">
        <ele>520.12</ele>
      </trkpt>
      <trkpt lat="41.309473514556885" lon="1.9333148002624512">
        <ele>523.86</ele>
      </trkpt>
      <trkpt lat="41.30930185317993" lon="1.9331860542297363">
        <ele>527.59</ele>
      </trkpt>
      <trkpt lat="41.30925893783569" lon="1.9327783584594727">
        <ele>530.8</ele>
      </trkpt>
      <trkpt lat="41.30908719263971" lon="1.9325421564280987">
        <ele>534.27</ele>
      </trkpt>
      <trkpt lat="41.30891561508179" lon="1.9323062896728516">
        <ele>537.24</ele>
      </trkpt>
      <trkpt lat="41.30889415740967" lon="1.9321560859680176">
        <ele>539.91</ele>
      </trkpt>
      <trkpt lat="41.308743953704834" lon="1.9319415092468262">
        <ele>542.41</ele>
      </trkpt>
      <trkpt lat="41.308722496032715" lon="1.931769847869873">
        <ele>544.58</ele>
      </trkpt>
      <trkpt lat="41.3086870405823" lon="1.9316812511533499">
        <ele>546.48</ele>
      </trkpt>
      <trkpt lat="41.30868695676327" lon="1.9316809996962547">
        <ele>548.07</ele>
      </trkpt>
      <trkpt lat="41.30855083465576" lon="1.9313406944274902">
        <ele>549.47</ele>
      </trkpt>
      <trkpt lat="41.30857229232788" lon="1.931297779083252">
        <ele>550.47</ele>
      </trkpt>
      <trkpt lat="41.3082829490304" lon="1.9312013033777475">
        <ele>551.24</ele>
      </trkpt>
      <trkpt lat="41.307992935180664" lon="1.9311046600341797">
        <ele>551.53</ele>
      </trkpt>
      <trkpt lat="41.30782118998468" lon="1.9309114571660757">
        <ele>551.7</ele>
      </trkpt>
      <trkpt lat="41.307649528607726" lon="1.9307183381170034">
        <ele>551.52</ele>
      </trkpt>
      <trkpt lat="41.307477951049805" lon="1.930525302886963">
        <ele>550.94</ele>
      </trkpt>
      <trkpt lat="41.30735985003412" lon="1.9303534738719463">
        <ele>550.04</ele>
      </trkpt>
      <trkpt lat="41.307241916656494" lon="1.9301819801330566">
        <ele>548.82</ele>
      </trkpt>
      <trkpt lat="41.30707025527954" lon="1.9300103187561035">
        <ele>547.23</ele>
      </trkpt>
      <trkpt lat="41.30689876154065" lon="1.9299566745758057">
        <ele>545.3</ele>
      </trkpt>
      <trkpt lat="41.306726932525635" lon="1.9299030303955078">
        <ele>543.18</ele>
      </trkpt>
      <trkpt lat="41.30651235580444" lon="1.9296669960021973">
        <ele>540.83</ele>
      </trkpt>
      <trkpt lat="41.306254863739014" lon="1.9294524192810059">
        <ele>538.21</ele>
      </trkpt>
      <trkpt lat="41.30608320236206" lon="1.9293880462646484">
        <ele>535.24</ele>
      </trkpt>
      <trkpt lat="41.30589008331299" lon="1.9293665885925293">
        <ele>531.93</ele>
      </trkpt>
      <trkpt lat="41.30576133728027" lon="1.9292807579040527">
        <ele>528.53</ele>
      </trkpt>
      <trkpt lat="41.30555774085224" lon="1.9292163848876953">
        <ele>524.81</ele>
      </trkpt>
      <trkpt lat="41.30535364151001" lon="1.929152011871338">
        <ele>520.93</ele>
      </trkpt>
      <trkpt lat="41.30513898096979" lon="1.9288782589137554">
        <ele>516.92</ele>
      </trkpt>
      <trkpt lat="41.30492432042956" lon="1.9286045897752047">
        <ele>513.0</ele>
      </trkpt>
      <trkpt lat="41.30470965988934" lon="1.928330920636654">
        <ele>509.07</ele>
      </trkpt>
      <trkpt lat="41.304495334625244" lon="1.9280576705932617">
        <ele>505.13</ele>
      </trkpt>
      <trkpt lat="41.30443104542792" lon="1.9278216361999512">
        <ele>501.36</ele>
      </trkpt>
      <trkpt lat="41.30443096160889" lon="1.9278216361999512">
        <ele>497.81</ele>
      </trkpt>
      <trkpt lat="41.30425217561424" lon="1.9276427663862705">
        <ele>494.12</ele>
      </trkpt>
      <trkpt lat="41.30407338961959" lon="1.9274639803916216">
        <ele>490.58</ele>
      </trkpt>
      <trkpt lat="41.30389460362494" lon="1.9272851943969727">
        <ele>487.25</ele>
      </trkpt>
      <trkpt lat="41.30389451980591" lon="1.9272851943969727">
        <ele>484.4</ele>
      </trkpt>
      <trkpt lat="41.30384070798755" lon="1.9270809274166822">
        <ele>481.7</ele>
      </trkpt>
      <trkpt lat="41.30378723144531" lon="1.926877498626709">
        <ele>479.26</ele>
      </trkpt>
      <trkpt lat="41.30359411239624" lon="1.9266200065612793">
        <ele>477.05</ele>
      </trkpt>
      <trkpt lat="41.303443908691406" lon="1.9263625144958496">
        <ele>475.16</ele>
      </trkpt>
      <trkpt lat="41.30328297615051" lon="1.9261908531188965">
        <ele>473.57</ele>
      </trkpt>
      <trkpt lat="41.30312204360962" lon="1.9260191917419434">
        <ele>472.25</ele>
      </trkpt>
      <trkpt lat="41.30292892456055" lon="1.9257831573486328">
        <ele>471.32</ele>
      </trkpt>
      <trkpt lat="41.302821384742856" lon="1.9254607055336237">
        <ele>470.95</ele>
      </trkpt>
      <trkpt lat="41.302714347839355" lon="1.9251394271850586">
        <ele>471.0</ele>
      </trkpt>
      <trkpt lat="41.302652321755886" lon="1.925080418586731">
        <ele>471.39</ele>
      </trkpt>
      <trkpt lat="41.30265198647976" lon="1.925080083310604">
        <ele>472.08</ele>
      </trkpt>
      <trkpt lat="41.302457861602306" lon="1.92489517852664">
        <ele>473.18</ele>
      </trkpt>
      <trkpt lat="41.30226373672485" lon="1.9247102737426758">
        <ele>474.71</ele>
      </trkpt>
      <trkpt lat="41.30217790603638" lon="1.9246459007263184">
        <ele>476.41</ele>
      </trkpt>
      <trkpt lat="41.30207061767578" lon="1.92460298538208">
        <ele>478.43</ele>
      </trkpt>
      <trkpt lat="41.30189895629883" lon="1.924452781677246">
        <ele>480.86</ele>
      </trkpt>
      <trkpt lat="41.30179166793823" lon="1.924302577972412">
        <ele>483.33</ele>
      </trkpt>
      <trkpt lat="41.30179166793823" lon="1.9241738319396973">
        <ele>485.83</ele>
      </trkpt>
      <trkpt lat="41.301748752593994" lon="1.924130916595459">
        <ele>488.37</ele>
      </trkpt>
      <trkpt lat="41.301748836413026" lon="1.924130916595459">
        <ele>490.87</ele>
      </trkpt>
      <trkpt lat="41.30149159580469" lon="1.9240451697260141">
        <ele>493.78</ele>
      </trkpt>
      <trkpt lat="41.30123443901539" lon="1.9239594228565693">
        <ele>496.56</ele>
      </trkpt>
      <trkpt lat="41.300976276397705" lon="1.9238734245300293">
        <ele>499.23</ele>
      </trkpt>
      <trkpt lat="41.30089044570923" lon="1.9238734245300293">
        <ele>501.72</ele>
      </trkpt>
      <trkpt lat="41.300697326660156" lon="1.9239592552185059">
        <ele>504.1</ele>
      </trkpt>
      <trkpt lat="41.30041837692261" lon="1.9239163398742676">
        <ele>506.64</ele>
      </trkpt>
      <trkpt lat="41.30023623816669" lon="1.923937713727355">
        <ele>508.8</ele>
      </trkpt>
      <trkpt lat="41.30005359649658" lon="1.9239592552185059">
        <ele>510.69</ele>
      </trkpt>
      <trkpt lat="41.29990339279175" lon="1.9238519668579102">
        <ele>512.54</ele>
      </trkpt>
      <trkpt lat="41.29981756210327" lon="1.923508644104004">
        <ele>514.41</ele>
      </trkpt>
      <trkpt lat="41.299731731414795" lon="1.9234013557434082">
        <ele>515.92</ele>
      </trkpt>
      <trkpt lat="41.29965813830495" lon="1.9231622200459242">
        <ele>517.43</ele>
      </trkpt>
      <trkpt lat="41.29958488047123" lon="1.9229242578148842">
        <ele>518.7</ele>
      </trkpt>
      <trkpt lat="41.29958488047123" lon="1.9229240901768208">
        <ele>519.93</ele>
      </trkpt>
      <trkpt lat="41.29956007003784" lon="1.9228434562683105">
        <ele>521.05</ele>
      </trkpt>
      <trkpt lat="41.29950625821948" lon="1.9226176477968693">
        <ele>522.13</ele>
      </trkpt>
      <trkpt lat="41.299452781677246" lon="1.9223928451538086">
        <ele>523.25</ele>
      </trkpt>
      <trkpt lat="41.29932386800647" lon="1.9221457466483116">
        <ele>524.26</ele>
      </trkpt>
      <trkpt lat="41.299195289611816" lon="1.9218993186950684">
        <ele>525.23</ele>
      </trkpt>
      <trkpt lat="41.29893779754639" lon="1.921834945678711">
        <ele>526.1</ele>
      </trkpt>
      <trkpt lat="41.29880905151367" lon="1.92185640335083">
        <ele>526.78</ele>
      </trkpt>
      <trkpt lat="41.298616183921695" lon="1.921834945678711">
        <ele>527.48</ele>
      </trkpt>
      <trkpt lat="41.29842281341553" lon="1.9218134880065918">
        <ele>528.03</ele>
      </trkpt>
      <trkpt lat="41.298208236694336" lon="1.921534538269043">
        <ele>528.6</ele>
      </trkpt>
      <trkpt lat="41.29807949066162" lon="1.9212770462036133">
        <ele>529.04</ele>
      </trkpt>
      <trkpt lat="41.297993659973145" lon="1.9210410118103027">
        <ele>529.49</ele>
      </trkpt>
      <trkpt lat="41.297972202301025" lon="1.9208049774169922">
        <ele>530.02</ele>
      </trkpt>
      <trkpt lat="41.297972202301025" lon="1.920633316040039">
        <ele>530.59</ele>
      </trkpt>
      <trkpt lat="41.298004388809204" lon="1.920385966077447">
        <ele>531.32</ele>
      </trkpt>
      <trkpt lat="41.29803657531738" lon="1.9201397895812988">
        <ele>532.08</ele>
      </trkpt>
      <trkpt lat="41.29792928695679" lon="1.9197750091552734">
        <ele>532.77</ele>
      </trkpt>
      <trkpt lat="41.297972202301025" lon="1.9196677207946777">
        <ele>533.83</ele>
      </trkpt>
      <trkpt lat="41.297918390482664" lon="1.9194634538143873">
        <ele>534.86</ele>
      </trkpt>
      <trkpt lat="41.29786491394043" lon="1.919260025024414">
        <ele>535.97</ele>
      </trkpt>
      <trkpt lat="41.29775745794177" lon="1.9190343841910362">
        <ele>537.22</ele>
      </trkpt>
      <trkpt lat="41.29765033721924" lon="1.918809413909912">
        <ele>538.82</ele>
      </trkpt>
      <trkpt lat="41.297500133514404" lon="1.9186592102050781">
        <ele>540.63</ele>
      </trkpt>
      <trkpt lat="41.297242641448975" lon="1.918637752532959">
        <ele>542.58</ele>
      </trkpt>
      <trkpt lat="41.29713535308838" lon="1.9187021255493164">
        <ele>544.44</ele>
      </trkpt>
      <trkpt lat="41.29692077636719" lon="1.918637752532959">
        <ele>546.55</ele>
      </trkpt>
      <trkpt lat="41.29677057266235" lon="1.9185090065002441">
        <ele>548.74</ele>
      </trkpt>
      <trkpt lat="41.296706199645996" lon="1.918165683746338">
        <ele>551.27</ele>
      </trkpt>
      <trkpt lat="41.296749114990234" lon="1.918015480041504">
        <ele>553.74</ele>
      </trkpt>
      <trkpt lat="41.29688858985901" lon="1.9178221933543682">
        <ele>556.31</ele>
      </trkpt>
      <trkpt lat="41.29702806472778" lon="1.9176292419433594">
        <ele>558.8</ele>
      </trkpt>
      <trkpt lat="41.297153290361166" lon="1.9172639586031437">
        <ele>561.45</ele>
      </trkpt>
      <trkpt lat="41.2971533741802" lon="1.917263874784112">
        <ele>563.85</ele>
      </trkpt>
      <trkpt lat="41.29721950739622" lon="1.917070671916008">
        <ele>566.35</ele>
      </trkpt>
      <trkpt lat="41.29728555679321" lon="1.9168782234191895">
        <ele>568.75</ele>
      </trkpt>
      <trkpt lat="41.297242641448975" lon="1.9167280197143555">
        <ele>571.09</ele>
      </trkpt>
      <trkpt lat="41.29717826843262" lon="1.9167065620422363">
        <ele>573.28</ele>
      </trkpt>
      <trkpt lat="41.29711389541626" lon="1.9166207313537598">
        <ele>575.4</ele>
      </trkpt>
      <trkpt lat="41.2970495223999" lon="1.9163846969604492">
        <ele>577.52</ele>
      </trkpt>
      <trkpt lat="41.29694223403931" lon="1.916213035583496">
        <ele>579.43</ele>
      </trkpt>
      <trkpt lat="41.29687786102295" lon="1.9161701202392578">
        <ele>580.97</ele>
      </trkpt>
      <trkpt lat="41.29677057266235" lon="1.916191577911377">
        <ele>582.2</ele>
      </trkpt>
      <trkpt lat="41.296727657318115" lon="1.9161057472229004">
        <ele>583.25</ele>
      </trkpt>
      <trkpt lat="41.29679203033447" lon="1.9158053398132324">
        <ele>584.06</ele>
      </trkpt>
      <trkpt lat="41.296749114990234" lon="1.9156336784362793">
        <ele>584.47</ele>
      </trkpt>
      <trkpt lat="41.29666328430176" lon="1.9156765937805176">
        <ele>584.67</ele>
      </trkpt>
      <trkpt lat="41.296513080596924" lon="1.915590763092041">
        <ele>584.49</ele>
      </trkpt>
      <trkpt lat="41.29638433456421" lon="1.9156122207641602">
        <ele>584.08</ele>
      </trkpt>
      <trkpt lat="41.296212673187256" lon="1.915590763092041">
        <ele>583.27</ele>
      </trkpt>
      <trkpt lat="41.29608392715454" lon="1.9156336784362793">
        <ele>582.2</ele>
      </trkpt>
      <trkpt lat="41.29586935043335" lon="1.9156122207641602">
        <ele>580.72</ele>
      </trkpt>
      <trkpt lat="41.29563331604004" lon="1.915419101715088">
        <ele>578.92</ele>
      </trkpt>
      <trkpt lat="41.2955904006958" lon="1.915440559387207">
        <ele>577.18</ele>
      </trkpt>
      <trkpt lat="41.29554748535156" lon="1.9155263900756836">
        <ele>575.24</ele>
      </trkpt>
      <trkpt lat="41.29535436630249" lon="1.9153976440429688">
        <ele>573.03</ele>
      </trkpt>
      <trkpt lat="41.295204162597656" lon="1.915419101715088">
        <ele>570.72</ele>
      </trkpt>
      <trkpt lat="41.294936276972294" lon="1.9153761863708496">
        <ele>568.26</ele>
      </trkpt>
      <trkpt lat="41.29466772079468" lon="1.9153332710266113">
        <ele>565.77</ele>
      </trkpt>
      <trkpt lat="41.29460334777832" lon="1.9153761863708496">
        <ele>563.25</ele>
      </trkpt>
      <trkpt lat="41.29441140219569" lon="1.915595456957817">
        <ele>560.5</ele>
      </trkpt>
      <trkpt lat="41.294219540432096" lon="1.9158147275447845">
        <ele>557.83</ele>
      </trkpt>
      <trkpt lat="41.29402818158269" lon="1.91603341139853">
        <ele>555.16</ele>
      </trkpt>
      <trkpt lat="41.29402776248753" lon="1.916033998131752">
        <ele>552.53</ele>
      </trkpt>
      <trkpt lat="41.29385232925415" lon="1.9162344932556152">
        <ele>549.72</ele>
      </trkpt>
      <trkpt lat="41.29359483718872" lon="1.9164276123046875">
        <ele>546.87</ele>
      </trkpt>
      <trkpt lat="41.29344471730292" lon="1.916524088010192">
        <ele>544.17</ele>
      </trkpt>
      <trkpt lat="41.29329442977905" lon="1.9166207313537598">
        <ele>541.52</ele>
      </trkpt>
      <trkpt lat="41.293123019859195" lon="1.9166207313537598">
        <ele>539.0</ele>
      </trkpt>
      <trkpt lat="41.29295110702515" lon="1.9166207313537598">
        <ele>536.55</ele>
      </trkpt>
      <trkpt lat="41.29277944564819" lon="1.9165778160095215">
        <ele>534.21</ele>
      </trkpt>
      <trkpt lat="41.29257568158209" lon="1.9164491537958384">
        <ele>532.06</ele>
      </trkpt>
      <trkpt lat="41.29237174987793" lon="1.9163203239440918">
        <ele>530.05</ele>
      </trkpt>
      <trkpt lat="41.29215742461383" lon="1.9162988662719727">
        <ele>528.03</ele>
      </trkpt>
      <trkpt lat="41.29194259643555" lon="1.9162774085998535">
        <ele>526.2</ele>
      </trkpt>
      <trkpt lat="41.291663646698" lon="1.916191577911377">
        <ele>524.55</ele>
      </trkpt>
      <trkpt lat="41.291491985321045" lon="1.9161057472229004">
        <ele>523.06</ele>
      </trkpt>
      <trkpt lat="41.29137388430536" lon="1.9159447308629751">
        <ele>521.89</ele>
      </trkpt>
      <trkpt lat="41.291255950927734" lon="1.9157838821411133">
        <ele>520.89</ele>
      </trkpt>
      <trkpt lat="41.29119157791138" lon="1.9157195091247559">
        <ele>520.05</ele>
      </trkpt>
      <trkpt lat="41.29106283187866" lon="1.9156765937805176">
        <ele>519.26</ele>
      </trkpt>
      <trkpt lat="41.29085278138518" lon="1.915725963190198">
        <ele>518.56</ele>
      </trkpt>
      <trkpt lat="41.290851943194866" lon="1.915726214647293">
        <ele>518.22</ele>
      </trkpt>
      <trkpt lat="41.29069805145264" lon="1.9157624244689941">
        <ele>517.88</ele>
      </trkpt>
      <trkpt lat="41.290537202730775" lon="1.915665864944458">
        <ele>517.85</ele>
      </trkpt>
      <trkpt lat="41.29037618637085" lon="1.9155693054199219">
        <ele>517.95</ele>
      </trkpt>
      <trkpt lat="41.290247440338135" lon="1.9155049324035645">
        <ele>518.18</ele>
      </trkpt>
      <trkpt lat="41.29007577896118" lon="1.9151830673217773">
        <ele>518.62</ele>
      </trkpt>
      <trkpt lat="41.289982572197914" lon="1.914910739287734">
        <ele>519.02</ele>
      </trkpt>
      <trkpt lat="41.28988944925368" lon="1.9146384950727224">
        <ele>519.53</ele>
      </trkpt>
      <trkpt lat="41.28979682922363" lon="1.91436767578125">
        <ele>520.06</ele>
      </trkpt>
      <trkpt lat="41.28960371017456" lon="1.9141960144042969">
        <ele>520.58</ele>
      </trkpt>
      <trkpt lat="41.289357114583254" lon="1.9140458945184946">
        <ele>521.1</ele>
      </trkpt>
      <trkpt lat="41.28911018371582" lon="1.913895606994629">
        <ele>521.47</ele>
      </trkpt>
      <trkpt lat="41.288895858451724" lon="1.913809860125184">
        <ele>521.77</ele>
      </trkpt>
      <trkpt lat="41.28868103027344" lon="1.9137239456176758">
        <ele>522.02</ele>
      </trkpt>
      <trkpt lat="41.28846653737128" lon="1.913563096895814">
        <ele>522.14</ele>
      </trkpt>
      <trkpt lat="41.288251876831055" lon="1.9134020805358887">
        <ele>522.1</ele>
      </trkpt>
      <trkpt lat="41.28814458847046" lon="1.9132518768310547">
        <ele>521.98</ele>
      </trkpt>
      <trkpt lat="41.2880802154541" lon="1.9129729270935059">
        <ele>521.78</ele>
      </trkpt>
      <trkpt lat="41.28797275945544" lon="1.9126827456057072">
        <ele>521.46</ele>
      </trkpt>
      <trkpt lat="41.28786563873291" lon="1.912393569946289">
        <ele>521.06</ele>
      </trkpt>
      <trkpt lat="41.287758350372314" lon="1.9125652313232422">
        <ele>520.57</ele>
      </trkpt>
      <trkpt lat="41.28757604397833" lon="1.9124472979456186">
        <ele>519.92</ele>
      </trkpt>
      <trkpt lat="41.28739356994629" lon="1.9123291969299316">
        <ele>519.18</ele>
      </trkpt>
      <trkpt lat="41.287136413156986" lon="1.9123934023082256">
        <ele>518.29</ele>
      </trkpt>
      <trkpt lat="41.28687858581543" lon="1.9124579429626465">
        <ele>517.44</ele>
      </trkpt>
      <trkpt lat="41.286771297454834" lon="1.912393569946289">
        <ele>516.57</ele>
      </trkpt>
      <trkpt lat="41.286749839782715" lon="1.9122004508972168">
        <ele>515.67</ele>
      </trkpt>
      <trkpt lat="41.286628218367696" lon="1.9119675178080797">
        <ele>514.69</ele>
      </trkpt>
      <trkpt lat="41.2865071836859" lon="1.9117355067282915">
        <ele>513.71</ele>
      </trkpt>
      <trkpt lat="41.286507016047835" lon="1.911735087633133">
        <ele>512.75</ele>
      </trkpt>
      <trkpt lat="41.286507016047835" lon="1.9117350038141012">
        <ele>511.76</ele>
      </trkpt>
      <trkpt lat="41.286492347717285" lon="1.9117069244384766">
        <ele>510.73</ele>
      </trkpt>
      <trkpt lat="41.28636360168457" lon="1.9116425514221191">
        <ele>509.63</ele>
      </trkpt>
      <trkpt lat="41.286234855651855" lon="1.911470890045166">
        <ele>508.52</ele>
      </trkpt>
      <trkpt lat="41.28612756729126" lon="1.9115567207336426">
        <ele>507.41</ele>
      </trkpt>
      <trkpt lat="41.28595590591431" lon="1.9115996360778809">
        <ele>506.26</ele>
      </trkpt>
      <trkpt lat="41.28587007522583" lon="1.9114279747009277">
        <ele>505.05</ele>
      </trkpt>
      <trkpt lat="41.28567695617676" lon="1.911320686340332">
        <ele>503.79</ele>
      </trkpt>
      <trkpt lat="41.285719871520996" lon="1.9110846519470215">
        <ele>502.53</ele>
      </trkpt>
      <trkpt lat="41.28569841384888" lon="1.911020278930664">
        <ele>501.26</ele>
      </trkpt>
      <trkpt lat="41.28545181825757" lon="1.9108594302088022">
        <ele>499.9</ele>
      </trkpt>
      <trkpt lat="41.28520564176142" lon="1.9106989167630672">
        <ele>498.54</ele>
      </trkpt>
      <trkpt lat="41.28520488739014" lon="1.910698413848877">
        <ele>497.25</ele>
      </trkpt>
      <trkpt lat="41.28419637680054" lon="1.9109129905700684">
        <ele>495.74</ele>
      </trkpt>
      <trkpt lat="41.283995965495706" lon="1.9107423350214958">
        <ele>494.24</ele>
      </trkpt>
      <trkpt lat="41.28379622474313" lon="1.9105721823871136">
        <ele>492.76</ele>
      </trkpt>
      <trkpt lat="41.283795554190874" lon="1.9105715956538916">
        <ele>491.44</ele>
      </trkpt>
      <trkpt lat="41.28361701965332" lon="1.9104194641113281">
        <ele>489.98</ele>
      </trkpt>
      <trkpt lat="41.28355264663696" lon="1.9101834297180176">
        <ele>488.6</ele>
      </trkpt>
      <trkpt lat="41.28340244293213" lon="1.910022497177124">
        <ele>487.22</ele>
      </trkpt>
      <trkpt lat="41.283252239227295" lon="1.9098615646362305">
        <ele>485.86</ele>
      </trkpt>
      <trkpt lat="41.2830482237041" lon="1.9095501769334078">
        <ele>484.4</ele>
      </trkpt>
      <trkpt lat="41.28284454345703" lon="1.9092392921447754">
        <ele>482.96</ele>
      </trkpt>
      <trkpt lat="41.28265142440796" lon="1.9090354442596436">
        <ele>481.67</ele>
      </trkpt>
      <trkpt lat="41.28245830535889" lon="1.9088315963745117">
        <ele>480.51</ele>
      </trkpt>
      <trkpt lat="41.28224398009479" lon="1.9088636990636587">
        <ele>479.09</ele>
      </trkpt>
      <trkpt lat="41.282029151916504" lon="1.9088959693908691">
        <ele>477.64</ele>
      </trkpt>
      <trkpt lat="41.28200761042535" lon="1.90926150418818">
        <ele>476.31</ele>
      </trkpt>
      <trkpt lat="41.281986236572266" lon="1.90962553024292">
        <ele>475.0</ele>
      </trkpt>
      <trkpt lat="41.28205060958862" lon="1.909925937652588">
        <ele>473.7</ele>
      </trkpt>
      <trkpt lat="41.28207206726074" lon="1.9099688529968262">
        <ele>472.35</ele>
      </trkpt>
      <trkpt lat="41.28220089711249" lon="1.9101727847009897">
        <ele>470.96</ele>
      </trkpt>
      <trkpt lat="41.28232955932617" lon="1.9103765487670898">
        <ele>469.47</ele>
      </trkpt>
      <trkpt lat="41.28239393234253" lon="1.910569667816162">
        <ele>467.88</ele>
      </trkpt>
      <trkpt lat="41.28234372474253" lon="1.910913661122322">
        <ele>466.02</ele>
      </trkpt>
      <trkpt lat="41.282293517142534" lon="1.9112577382475138">
        <ele>464.09</ele>
      </trkpt>
      <trkpt lat="41.282243728637695" lon="1.9115996360778809">
        <ele>461.85</ele>
      </trkpt>
      <trkpt lat="41.282286727800965" lon="1.9118791725486517">
        <ele>459.88</ele>
      </trkpt>
      <trkpt lat="41.28232955932617" lon="1.9121575355529785">
        <ele>457.84</ele>
      </trkpt>
      <trkpt lat="41.28227675333619" lon="1.912438916042447">
        <ele>455.48</ele>
      </trkpt>
      <trkpt lat="41.282224198803306" lon="1.9127187877893448">
        <ele>453.05</ele>
      </trkpt>
      <trkpt lat="41.282224198803306" lon="1.912719290703535">
        <ele>450.68</ele>
      </trkpt>
      <trkpt lat="41.28220081329346" lon="1.912844181060791">
        <ele>448.13</ele>
      </trkpt>
      <trkpt lat="41.28215789794922" lon="1.9129729270935059">
        <ele>445.41</ele>
      </trkpt>
      <trkpt lat="41.282029151916504" lon="1.9130373001098633">
        <ele>442.4</ele>
      </trkpt>
      <trkpt lat="41.28181482665241" lon="1.9130158424377441">
        <ele>439.29</ele>
      </trkpt>
      <trkpt lat="41.28160058520734" lon="1.912994384765625">
        <ele>436.14</ele>
      </trkpt>
      <trkpt lat="41.28138542175293" lon="1.9129729270935059">
        <ele>433.01</ele>
      </trkpt>
      <trkpt lat="41.28111753612757" lon="1.9129835721105337">
        <ele>429.67</ele>
      </trkpt>
      <trkpt lat="41.28084897994995" lon="1.912994384765625">
        <ele>426.25</ele>
      </trkpt>
      <trkpt lat="41.280677318573" lon="1.9130373001098633">
        <ele>422.94</ele>
      </trkpt>
      <trkpt lat="41.280505657196045" lon="1.9131875038146973">
        <ele>419.6</ele>
      </trkpt>
      <trkpt lat="41.280408930033445" lon="1.9134453311562538">
        <ele>416.18</ele>
      </trkpt>
      <trkpt lat="41.28031253814697" lon="1.9137024879455566">
        <ele>412.69</ele>
      </trkpt>
      <trkpt lat="41.280269622802734" lon="1.913766860961914">
        <ele>409.24</ele>
      </trkpt>
      <trkpt lat="41.28018379211426" lon="1.9138312339782715">
        <ele>405.73</ele>
      </trkpt>
      <trkpt lat="41.28005504608154" lon="1.9138097763061523">
        <ele>402.21</ele>
      </trkpt>
      <trkpt lat="41.279797637835145" lon="1.9136060122400522">
        <ele>398.61</ele>
      </trkpt>
      <trkpt lat="41.279540061950684" lon="1.9134020805358887">
        <ele>394.87</ele>
      </trkpt>
      <trkpt lat="41.27938985824585" lon="1.9134020805358887">
        <ele>391.25</ele>
      </trkpt>
      <trkpt lat="41.27915935590863" lon="1.91353065893054">
        <ele>387.4</ele>
      </trkpt>
      <trkpt lat="41.27892893739045" lon="1.9136593211442232">
        <ele>383.76</ele>
      </trkpt>
      <trkpt lat="41.27869843505323" lon="1.9137878995388746">
        <ele>380.22</ele>
      </trkpt>
      <trkpt lat="41.27846717834473" lon="1.913917064666748">
        <ele>376.85</ele>
      </trkpt>
      <trkpt lat="41.27828503958881" lon="1.913949167355895">
        <ele>373.69</ele>
      </trkpt>
      <trkpt lat="41.2781023979187" lon="1.9139814376831055">
        <ele>370.76</ele>
      </trkpt>
      <trkpt lat="41.2778452411294" lon="1.9139599800109863">
        <ele>367.94</ele>
      </trkpt>
      <trkpt lat="41.27758816815913" lon="1.9139385223388672">
        <ele>365.23</ele>
      </trkpt>
      <trkpt lat="41.277331011369824" lon="1.9139171484857798">
        <ele>362.66</ele>
      </trkpt>
      <trkpt lat="41.27707242965698" lon="1.913895606994629">
        <ele>360.19</ele>
      </trkpt>
      <trkpt lat="41.27682600170374" lon="1.9138313177973032">
        <ele>357.85</ele>
      </trkpt>
      <trkpt lat="41.276579573750496" lon="1.9137670285999775">
        <ele>355.76</ele>
      </trkpt>
      <trkpt lat="41.27633314579725" lon="1.9137027394026518">
        <ele>354.0</ele>
      </trkpt>
      <trkpt lat="41.2760853767395" lon="1.9136381149291992">
        <ele>352.27</ele>
      </trkpt>
      <trkpt lat="41.27589242532849" lon="1.9135416392236948">
        <ele>350.59</ele>
      </trkpt>
      <trkpt lat="41.27569913864136" lon="1.913444995880127">
        <ele>348.96</ele>
      </trkpt>
      <trkpt lat="41.2756728194654" lon="1.9134336803108454">
        <ele>347.48</ele>
      </trkpt>
      <trkpt lat="41.27567206509411" lon="1.9134333450347185">
        <ele>346.09</ele>
      </trkpt>
      <trkpt lat="41.27538548782468" lon="1.9133105501532555">
        <ele>344.55</ele>
      </trkpt>
      <trkpt lat="41.27509832382202" lon="1.9131875038146973">
        <ele>343.03</ele>
      </trkpt>
      <trkpt lat="41.27488374710083" lon="1.913144588470459">
        <ele>341.69</ele>
      </trkpt>
      <trkpt lat="41.274776458740234" lon="1.9131660461425781">
        <ele>340.49</ele>
      </trkpt>
      <trkpt lat="41.27464771270752" lon="1.913316249847412">
        <ele>339.42</ele>
      </trkpt>
      <trkpt lat="41.27456188201904" lon="1.913595199584961">
        <ele>338.43</ele>
      </trkpt>
      <trkpt lat="41.27446155063808" lon="1.9138889014720917">
        <ele>337.32</ele>
      </trkpt>
      <trkpt lat="41.27436130307615" lon="1.9141826033592224">
        <ele>336.15</ele>
      </trkpt>
      <trkpt lat="41.27426155842841" lon="1.9144749641418457">
        <ele>335.09</ele>
      </trkpt>
      <trkpt lat="41.27419710159302" lon="1.9145393371582031">
        <ele>334.08</ele>
      </trkpt>
      <trkpt lat="41.274003982543945" lon="1.9145822525024414">
        <ele>332.99</ele>
      </trkpt>
      <trkpt lat="41.27372536808252" lon="1.9145928975194693">
        <ele>331.88</ele>
      </trkpt>
      <trkpt lat="41.27344608306885" lon="1.9146037101745605">
        <ele>330.84</ele>
      </trkpt>
      <trkpt lat="41.27318859100342" lon="1.914839744567871">
        <ele>329.91</ele>
      </trkpt>
      <trkpt lat="41.27310276031494" lon="1.9150972366333008">
        <ele>329.21</ele>
      </trkpt>
      <trkpt lat="41.27304894849658" lon="1.9154735002666712">
        <ele>328.63</ele>
      </trkpt>
      <trkpt lat="41.272995471954346" lon="1.9158482551574707">
        <ele>328.07</ele>
      </trkpt>
      <trkpt lat="41.27290964126587" lon="1.9160842895507812">
        <ele>327.55</ele>
      </trkpt>
      <trkpt lat="41.272780895233154" lon="1.9162344932556152">
        <ele>327.09</ele>
      </trkpt>
      <trkpt lat="41.2727165222168" lon="1.9161486625671387">
        <ele>326.7</ele>
      </trkpt>
      <trkpt lat="41.27256631851196" lon="1.916062831878662">
        <ele>326.31</ele>
      </trkpt>
      <trkpt lat="41.272265911102295" lon="1.9159770011901855">
        <ele>325.88</ele>
      </trkpt>
      <trkpt lat="41.272083688527346" lon="1.9158805254846811">
        <ele>325.57</ele>
      </trkpt>
      <trkpt lat="41.27190113067627" lon="1.9157838821411133">
        <ele>325.38</ele>
      </trkpt>
      <trkpt lat="41.27164212986827" lon="1.9156975485384464">
        <ele>325.17</ele>
      </trkpt>
      <trkpt lat="41.27164104022086" lon="1.9156972132623196">
        <ele>325.05</ele>
      </trkpt>
      <trkpt lat="41.27138514071703" lon="1.9156118854880333">
        <ele>324.96</ele>
      </trkpt>
      <trkpt lat="41.27112865447998" lon="1.9155263900756836">
        <ele>324.96</ele>
      </trkpt>
      <trkpt lat="41.271042823791504" lon="1.9154620170593262">
        <ele>324.9</ele>
      </trkpt>
      <trkpt lat="41.270806873217225" lon="1.9154620170593262">
        <ele>324.82</ele>
      </trkpt>
      <trkpt lat="41.270688688382506" lon="1.915301000699401">
        <ele>324.66</ele>
      </trkpt>
      <trkpt lat="41.27057075500488" lon="1.915140151977539">
        <ele>324.46</ele>
      </trkpt>
      <trkpt lat="41.27042055130005" lon="1.9150114059448242">
        <ele>324.14</ele>
      </trkpt>
      <trkpt lat="41.270270347595215" lon="1.9148826599121094">
        <ele>323.69</ele>
      </trkpt>
      <trkpt lat="41.270020231604576" lon="1.9147254154086113">
        <ele>323.13</ele>
      </trkpt>
      <trkpt lat="41.26977011561394" lon="1.9145681709051132">
        <ele>322.45</ele>
      </trkpt>
      <trkpt lat="41.26951941289008" lon="1.9144105911254883">
        <ele>321.6</ele>
      </trkpt>
      <trkpt lat="41.269358564168215" lon="1.9143140316009521">
        <ele>320.59</ele>
      </trkpt>
      <trkpt lat="41.26919746398926" lon="1.914217472076416">
        <ele>319.36</ele>
      </trkpt>
      <trkpt lat="41.269047260284424" lon="1.9140887260437012">
        <ele>318.03</ele>
      </trkpt>
      <trkpt lat="41.26889705657959" lon="1.9139599800109863">
        <ele>316.63</ele>
      </trkpt>
      <trkpt lat="41.268736124038696" lon="1.913820505142212">
        <ele>315.08</ele>
      </trkpt>
      <trkpt lat="41.2685751914978" lon="1.9136810302734375">
        <ele>313.32</ele>
      </trkpt>
      <trkpt lat="41.268457090482116" lon="1.9135200139135122">
        <ele>311.44</ele>
      </trkpt>
      <trkpt lat="41.26833915710449" lon="1.9133591651916504">
        <ele>309.45</ele>
      </trkpt>
      <trkpt lat="41.268339240923524" lon="1.9133591651916504">
        <ele>307.72</ele>
      </trkpt>
      <trkpt lat="41.26819968223572" lon="1.9132304191589355">
        <ele>305.5</ele>
      </trkpt>
      <trkpt lat="41.26806020736694" lon="1.9131016731262207">
        <ele>303.18</ele>
      </trkpt>
      <trkpt lat="41.26808853819966" lon="1.913058003410697">
        <ele>301.37</ele>
      </trkpt>
      <trkpt lat="41.268089124932885" lon="1.9130571652203798">
        <ele>299.46</ele>
      </trkpt>
      <trkpt lat="41.268214182928205" lon="1.9128646329045296">
        <ele>297.87</ele>
      </trkpt>
      <trkpt lat="41.26833915710449" lon="1.912672519683838">
        <ele>296.05</ele>
      </trkpt>
      <trkpt lat="41.268489360809326" lon="1.9123291969299316">
        <ele>294.03</ele>
      </trkpt>
      <trkpt lat="41.268564546480775" lon="1.9120282027870417">
        <ele>291.7</ele>
      </trkpt>
      <trkpt lat="41.26863956451416" lon="1.9117283821105957">
        <ele>289.08</ele>
      </trkpt>
      <trkpt lat="41.26863956451416" lon="1.9115781784057617">
        <ele>286.29</ele>
      </trkpt>
      <trkpt lat="41.2685751914978" lon="1.9115781784057617">
        <ele>283.56</ele>
      </trkpt>
      <trkpt lat="41.268510818481445" lon="1.9118356704711914">
        <ele>281.13</ele>
      </trkpt>
      <trkpt lat="41.26836061477661" lon="1.9121146202087402">
        <ele>278.12</ele>
      </trkpt>
      <trkpt lat="41.26818895339966" lon="1.9122648239135742">
        <ele>274.94</ele>
      </trkpt>
      <trkpt lat="41.267995834350586" lon="1.9122648239135742">
        <ele>271.4</ele>
      </trkpt>
      <trkpt lat="41.267802715301514" lon="1.9121789932250977">
        <ele>267.77</ele>
      </trkpt>
      <trkpt lat="41.26765946857631" lon="1.9119355827569962">
        <ele>264.13</ele>
      </trkpt>
      <trkpt lat="41.26751630567014" lon="1.9116921722888947">
        <ele>260.47</ele>
      </trkpt>
      <trkpt lat="41.26737356185913" lon="1.9114494323730469">
        <ele>256.78</ele>
      </trkpt>
      <trkpt lat="41.26715898513794" lon="1.911299228668213">
        <ele>253.09</ele>
      </trkpt>
      <trkpt lat="41.26694440841675" lon="1.9112133979797363">
        <ele>249.5</ele>
      </trkpt>
      <trkpt lat="41.26672455109656" lon="1.9110363721847534">
        <ele>245.97</ele>
      </trkpt>
      <trkpt lat="41.26650469377637" lon="1.910859514027834">
        <ele>242.51</ele>
      </trkpt>
      <trkpt lat="41.26628483645618" lon="1.9106825720518827">
        <ele>239.15</ele>
      </trkpt>
      <trkpt lat="41.26606464385986" lon="1.9105052947998047">
        <ele>236.05</ele>
      </trkpt>
      <trkpt lat="41.265807151794434" lon="1.9103765487670898">
        <ele>233.09</ele>
      </trkpt>
      <trkpt lat="41.26567832194269" lon="1.9102262612432241">
        <ele>230.56</ele>
      </trkpt>
      <trkpt lat="41.265549659729004" lon="1.9100761413574219">
        <ele>228.31</ele>
      </trkpt>
      <trkpt lat="41.2654032278806" lon="1.9098042324185371">
        <ele>226.35</ele>
      </trkpt>
      <trkpt lat="41.265257550403476" lon="1.9095336645841599">
        <ele>224.59</ele>
      </trkpt>
      <trkpt lat="41.26525721512735" lon="1.9095329940319061">
        <ele>223.07</ele>
      </trkpt>
      <trkpt lat="41.2650990486145" lon="1.9092392921447754">
        <ele>221.61</ele>
      </trkpt>
      <trkpt lat="41.26500223763287" lon="1.908863028511405">
        <ele>220.56</ele>
      </trkpt>
      <trkpt lat="41.26490592956543" lon="1.9084882736206055">
        <ele>219.89</ele>
      </trkpt>
      <trkpt lat="41.26483066007495" lon="1.9082948192954063">
        <ele>219.32</ele>
      </trkpt>
      <trkpt lat="41.264755725860596" lon="1.908102035522461">
        <ele>218.89</ele>
      </trkpt>
      <trkpt lat="41.26458406448364" lon="1.9079089164733887">
        <ele>218.49</ele>
      </trkpt>
      <trkpt lat="41.26429480500519" lon="1.9079410191625357">
        <ele>217.83</ele>
      </trkpt>
      <trkpt lat="41.264004707336426" lon="1.907973289489746">
        <ele>217.25</ele>
      </trkpt>
      <trkpt lat="41.263726092875004" lon="1.9080161210149527">
        <ele>216.83</ele>
      </trkpt>
      <trkpt lat="41.26344680786133" lon="1.9080591201782227">
        <ele>216.71</ele>
      </trkpt>
      <trkpt lat="41.2632963526994" lon="1.9077009614557028">
        <ele>216.77</ele>
      </trkpt>
      <trkpt lat="41.2631459813565" lon="1.907342802733183">
        <ele>216.65</ele>
      </trkpt>
      <trkpt lat="41.262996196746826" lon="1.9069862365722656">
        <ele>216.7</ele>
      </trkpt>
      <trkpt lat="41.26286015845835" lon="1.9067427422851324">
        <ele>216.91</ele>
      </trkpt>
      <trkpt lat="41.26272412016988" lon="1.906499331817031">
        <ele>217.18</ele>
      </trkpt>
      <trkpt lat="41.26258850097656" lon="1.9062566757202148">
        <ele>217.27</ele>
      </trkpt>
      <trkpt lat="41.262502670288086" lon="1.9061708450317383">
        <ele>217.39</ele>
      </trkpt>
      <trkpt lat="41.26237392425537" lon="1.9062352180480957">
        <ele>217.61</ele>
      </trkpt>
      <trkpt lat="41.26235246658325" lon="1.9064068794250488">
        <ele>217.82</ele>
      </trkpt>
      <trkpt lat="41.26237140968442" lon="1.906482819467783">
        <ele>217.95</ele>
      </trkpt>
      <trkpt lat="41.26237174496055" lon="1.906483992934227">
        <ele>217.98</ele>
      </trkpt>
      <trkpt lat="41.26237174496055" lon="1.9064840767532587">
        <ele>217.94</ele>
      </trkpt>
      <trkpt lat="41.26243829727173" lon="1.906750202178955">
        <ele>217.88</ele>
      </trkpt>
      <trkpt lat="41.26245975494385" lon="1.907050609588623">
        <ele>217.48</ele>
      </trkpt>
      <trkpt lat="41.26241683959961" lon="1.9074153900146484">
        <ele>217.15</ele>
      </trkpt>
      <trkpt lat="41.26237392425537" lon="1.9076728820800781">
        <ele>216.74</ele>
      </trkpt>
      <trkpt lat="41.2621808052063" lon="1.907973289489746">
        <ele>215.99</ele>
      </trkpt>
      <trkpt lat="41.26196622848511" lon="1.908252239227295">
        <ele>215.09</ele>
      </trkpt>
      <trkpt lat="41.2617473769933" lon="1.9084323663264513">
        <ele>214.02</ele>
      </trkpt>
      <trkpt lat="41.26152860932052" lon="1.9086124934256077">
        <ele>212.77</ele>
      </trkpt>
      <trkpt lat="41.261309841647744" lon="1.9087927043437958">
        <ele>211.47</ele>
      </trkpt>
      <trkpt lat="41.26109107397497" lon="1.9089728314429522">
        <ele>210.13</ele>
      </trkpt>
      <trkpt lat="41.26087188720703" lon="1.9091534614562988">
        <ele>208.49</ele>
      </trkpt>
      <trkpt lat="41.26059293746948" lon="1.909346580505371">
        <ele>206.52</ele>
      </trkpt>
      <trkpt lat="41.26031423918903" lon="1.9094966165721416">
        <ele>204.44</ele>
      </trkpt>
      <trkpt lat="41.260035037994385" lon="1.909646987915039">
        <ele>202.11</ele>
      </trkpt>
      <trkpt lat="41.25997066497803" lon="1.909797191619873">
        <ele>200.01</ele>
      </trkpt>
      <trkpt lat="41.25993839465082" lon="1.910012187436223">
        <ele>197.88</ele>
      </trkpt>
      <trkpt lat="41.25990629196167" lon="1.9102263450622559">
        <ele>195.63</ele>
      </trkpt>
      <trkpt lat="41.25988483428955" lon="1.910247802734375">
        <ele>193.17</ele>
      </trkpt>
      <trkpt lat="41.25982029363513" lon="1.9098929967731237">
        <ele>190.25</ele>
      </trkpt>
      <trkpt lat="41.259756088256836" lon="1.9095396995544434">
        <ele>187.27</ele>
      </trkpt>
      <trkpt lat="41.25990629196167" lon="1.9092392921447754">
        <ele>184.51</ele>
      </trkpt>
      <trkpt lat="41.260056579485536" lon="1.9090030901134014">
        <ele>181.77</ele>
      </trkpt>
      <trkpt lat="41.2602068670094" lon="1.9087668880820274">
        <ele>179.2</ele>
      </trkpt>
      <trkpt lat="41.26035690307617" lon="1.9085311889648438">
        <ele>176.44</ele>
      </trkpt>
      <trkpt lat="41.26045354641974" lon="1.908348547294736">
        <ele>173.72</ele>
      </trkpt>
      <trkpt lat="41.260550022125244" lon="1.9081664085388184">
        <ele>170.99</ele>
      </trkpt>
      <trkpt lat="41.260528564453125" lon="1.908102035522461">
        <ele>168.23</ele>
      </trkpt>
      <trkpt lat="41.26039981842041" lon="1.9081664085388184">
        <ele>165.54</ele>
      </trkpt>
      <trkpt lat="41.26017459668219" lon="1.9083486311137676">
        <ele>162.82</ele>
      </trkpt>
      <trkpt lat="41.25994920730591" lon="1.9085311889648438">
        <ele>160.03</ele>
      </trkpt>
      <trkpt lat="41.25969171524048" lon="1.9086384773254395">
        <ele>157.29</ele>
      </trkpt>
      <trkpt lat="41.25939172692597" lon="1.908652726560831">
        <ele>154.73</ele>
      </trkpt>
      <trkpt lat="41.25909173861146" lon="1.9086669757962227">
        <ele>152.19</ele>
      </trkpt>
      <trkpt lat="41.258790493011475" lon="1.9086813926696777">
        <ele>149.86</ele>
      </trkpt>
      <trkpt lat="41.258811950683594" lon="1.908552646636963">
        <ele>147.71</ele>
      </trkpt>
      <trkpt lat="41.258747577667236" lon="1.9085311889648438">
        <ele>145.76</ele>
      </trkpt>
      <trkpt lat="41.25864028930664" lon="1.9086384773254395">
        <ele>144.01</ele>
      </trkpt>
      <trkpt lat="41.25861883163452" lon="1.9088315963745117">
        <ele>142.42</ele>
      </trkpt>
      <trkpt lat="41.25866174697876" lon="1.9089603424072266">
        <ele>140.95</ele>
      </trkpt>
      <trkpt lat="41.25872620381415" lon="1.9092505238950253">
        <ele>139.63</ele>
      </trkpt>
      <trkpt lat="41.258790493011475" lon="1.9095396995544434">
        <ele>138.38</ele>
      </trkpt>
      <trkpt lat="41.25882267951965" lon="1.9099052343517542">
        <ele>136.79</ele>
      </trkpt>
      <trkpt lat="41.25885486602783" lon="1.9102692604064941">
        <ele>135.36</ele>
      </trkpt>
      <trkpt lat="41.258811950683594" lon="1.9104409217834473">
        <ele>133.99</ele>
      </trkpt>
      <trkpt lat="41.258704662323" lon="1.910548210144043">
        <ele>132.4</ele>
      </trkpt>
      <trkpt lat="41.25853308476508" lon="1.910676872357726">
        <ele>130.95</ele>
      </trkpt>
      <trkpt lat="41.25836133956909" lon="1.9108057022094727">
        <ele>129.41</ele>
      </trkpt>
      <trkpt lat="41.258296966552734" lon="1.9109559059143066">
        <ele>128.22</ele>
      </trkpt>
      <trkpt lat="41.258339965716004" lon="1.9111923594027758">
        <ele>127.36</ele>
      </trkpt>
      <trkpt lat="41.25838279724121" lon="1.9114279747009277">
        <ele>126.42</ele>
      </trkpt>
      <trkpt lat="41.25838279724121" lon="1.9117283821105957">
        <ele>125.34</ele>
      </trkpt>
      <trkpt lat="41.25833971425891" lon="1.912040188908577">
        <ele>124.22</ele>
      </trkpt>
      <trkpt lat="41.258296966552734" lon="1.9123506546020508">
        <ele>123.03</ele>
      </trkpt>
      <trkpt lat="41.258296966552734" lon="1.912619462236762">
        <ele>122.03</ele>
      </trkpt>
      <trkpt lat="41.258296966552734" lon="1.9128862582147121">
        <ele>120.98</ele>
      </trkpt>
      <trkpt lat="41.258296966552734" lon="1.9128870964050293">
        <ele>119.97</ele>
      </trkpt>
      <trkpt lat="41.258296966552734" lon="1.9129300117492676">
        <ele>118.94</ele>
      </trkpt>
      <trkpt lat="41.258254051208496" lon="1.913294792175293">
        <ele>117.78</ele>
      </trkpt>
      <trkpt lat="41.25816822052002" lon="1.9135737419128418">
        <ele>116.36</ele>
      </trkpt>
      <trkpt lat="41.25814667902887" lon="1.9138640072196722">
        <ele>115.27</ele>
      </trkpt>
      <trkpt lat="41.25812530517578" lon="1.9141530990600586">
        <ele>114.17</ele>
      </trkpt>
      <trkpt lat="41.25803930684924" lon="1.9143571984022856">
        <ele>112.77</ele>
      </trkpt>
      <trkpt lat="41.25795364379883" lon="1.9145607948303223">
        <ele>111.34</ele>
      </trkpt>
      <trkpt lat="41.25786781311035" lon="1.9147109985351562">
        <ele>109.73</ele>
      </trkpt>
      <trkpt lat="41.25786781311035" lon="1.9146037101745605">
        <ele>108.56</ele>
      </trkpt>
      <trkpt lat="41.25797510147095" lon="1.9142818450927734">
        <ele>107.7</ele>
      </trkpt>
      <trkpt lat="41.25797510147095" lon="1.9139814376831055">
        <ele>106.31</ele>
      </trkpt>
      <trkpt lat="41.25793218612671" lon="1.9137883186340332">
        <ele>104.73</ele>
      </trkpt>
      <trkpt lat="41.25793218612671" lon="1.9134764280170202">
        <ele>103.12</ele>
      </trkpt>
      <trkpt lat="41.25793218612671" lon="1.9131660461425781">
        <ele>101.49</ele>
      </trkpt>
      <trkpt lat="41.25791072845459" lon="1.9129085540771484">
        <ele>100.0</ele>
      </trkpt>
      <trkpt lat="41.25786781311035" lon="1.9127154350280762">
        <ele>98.37</ele>
      </trkpt>
      <trkpt lat="41.25777108594775" lon="1.9125436060130596">
        <ele>96.38</ele>
      </trkpt>
      <trkpt lat="41.25767469406128" lon="1.91237211227417">
        <ele>94.25</ele>
      </trkpt>
      <trkpt lat="41.25765323638916" lon="1.912221908569336">
        <ele>92.16</ele>
      </trkpt>
      <trkpt lat="41.25771760940552" lon="1.9120287895202637">
        <ele>90.18</ele>
      </trkpt>
      <trkpt lat="41.257760524749756" lon="1.9118142127990723">
        <ele>88.08</ele>
      </trkpt>
      <trkpt lat="41.257760524749756" lon="1.9116854667663574">
        <ele>85.91</ele>
      </trkpt>
      <trkpt lat="41.2576961517334" lon="1.9113421440124512">
        <ele>83.63</ele>
      </trkpt>
      <trkpt lat="41.25751979649067" lon="1.9110077060759068">
        <ele>80.85</ele>
      </trkpt>
      <trkpt lat="41.25734344124794" lon="1.9106732681393623">
        <ele>78.05</ele>
      </trkpt>
      <trkpt lat="41.25716809183359" lon="1.9103407580405474">
        <ele>75.19</ele>
      </trkpt>
      <trkpt lat="41.25716767273843" lon="1.9103399198502302">
        <ele>72.57</ele>
      </trkpt>
      <trkpt lat="41.25707387924194" lon="1.9101619720458984">
        <ele>69.73</ele>
      </trkpt>
      <trkpt lat="41.257030963897705" lon="1.909925937652588">
        <ele>66.92</ele>
      </trkpt>
      <trkpt lat="41.256794929504395" lon="1.9098615646362305">
        <ele>63.65</ele>
      </trkpt>
      <trkpt lat="41.25654833391309" lon="1.9097329024225473">
        <ele>60.51</ele>
      </trkpt>
      <trkpt lat="41.256301403045654" lon="1.9096040725708008">
        <ele>57.79</ele>
      </trkpt>
      <trkpt lat="41.25621557235718" lon="1.9095182418823242">
        <ele>55.47</ele>
      </trkpt>
      <trkpt lat="41.25619411468506" lon="1.9094109535217285">
        <ele>53.36</ele>
      </trkpt>
      <trkpt lat="41.25617265701294" lon="1.9092178344726562">
        <ele>51.33</ele>
      </trkpt>
      <trkpt lat="41.25619411468506" lon="1.9090890884399414">
        <ele>49.5</ele>
      </trkpt>
      <trkpt lat="41.256258487701416" lon="1.9090461730957031">
        <ele>47.95</ele>
      </trkpt>
      <trkpt lat="41.25645160675049" lon="1.909024715423584">
        <ele>46.69</ele>
      </trkpt>
      <trkpt lat="41.256558895111084" lon="1.9089174270629883">
        <ele>45.36</ele>
      </trkpt>
      <trkpt lat="41.25660181045532" lon="1.908724308013916">
        <ele>44.13</ele>
      </trkpt>
      <trkpt lat="41.25649435445666" lon="1.9084341265261173">
        <ele>42.62</ele>
      </trkpt>
      <trkpt lat="41.25638723373413" lon="1.9081449508666992">
        <ele>41.31</ele>
      </trkpt>
      <trkpt lat="41.25638723373413" lon="1.9077372550964355">
        <ele>40.37</ele>
      </trkpt>
      <trkpt lat="41.25633342191577" lon="1.9075329881161451">
        <ele>39.08</ele>
      </trkpt>
      <trkpt lat="41.256279945373535" lon="1.9073295593261719">
        <ele>37.76</ele>
      </trkpt>
      <trkpt lat="41.2561815418303" lon="1.90707977861166">
        <ele>36.13</ele>
      </trkpt>
      <trkpt lat="41.25608389265835" lon="1.9068319257348776">
        <ele>34.48</ele>
      </trkpt>
      <trkpt lat="41.256083473563194" lon="1.9068308360874653">
        <ele>33.21</ele>
      </trkpt>
      <trkpt lat="41.256000995635986" lon="1.9066214561462402">
        <ele>31.67</ele>
      </trkpt>
      <trkpt lat="41.25593662261963" lon="1.9063425064086914">
        <ele>30.15</ele>
      </trkpt>
      <trkpt lat="41.25595808029175" lon="1.9062566757202148">
        <ele>28.96</ele>
      </trkpt>
      <trkpt lat="41.2560760974884" lon="1.9060741178691387">
        <ele>27.82</ele>
      </trkpt>
      <trkpt lat="41.25619411468506" lon="1.9058918952941895">
        <ele>26.63</ele>
      </trkpt>
      <trkpt lat="41.25641564838588" lon="1.9057417754083872">
        <ele>25.74</ele>
      </trkpt>
      <trkpt lat="41.256637182086706" lon="1.905591655522585">
        <ele>24.82</ele>
      </trkpt>
      <trkpt lat="41.25685930252075" lon="1.9054412841796875">
        <ele>24.01</ele>
      </trkpt>
      <trkpt lat="41.25685930252075" lon="1.905355453491211">
        <ele>23.23</ele>
      </trkpt>
      <trkpt lat="41.25696659088135" lon="1.9051837921142578">
        <ele>22.59</ele>
      </trkpt>
      <trkpt lat="41.257170187309384" lon="1.9050765875726938">
        <ele>22.24</ele>
      </trkpt>
      <trkpt lat="41.25737428665161" lon="1.9049692153930664">
        <ele>22.0</ele>
      </trkpt>
      <trkpt lat="41.25741720199585" lon="1.9047760963439941">
        <ele>21.59</ele>
      </trkpt>
      <trkpt lat="41.257503032684326" lon="1.904754638671875">
        <ele>21.54</ele>
      </trkpt>
      <trkpt lat="41.257503032684326" lon="1.9046688079833984">
        <ele>21.48</ele>
      </trkpt>
      <trkpt lat="41.2575888633728" lon="1.904454231262207">
        <ele>21.59</ele>
      </trkpt>
      <trkpt lat="41.25763177871704" lon="1.9040894508361816">
        <ele>21.87</ele>
      </trkpt>
      <trkpt lat="41.257567489519715" lon="1.9040465354919434">
        <ele>22.06</ele>
      </trkpt>
      <trkpt lat="41.257524490356445" lon="1.9037890434265137">
        <ele>22.44</ele>
      </trkpt>
      <trkpt lat="41.25743865966797" lon="1.9035959243774414">
        <ele>22.83</ele>
      </trkpt>
      <trkpt lat="41.257266998291016" lon="1.9034242630004883">
        <ele>23.44</ele>
      </trkpt>
      <trkpt lat="41.25711679458618" lon="1.9033169746398926">
        <ele>24.04</ele>
      </trkpt>
      <trkpt lat="41.25694178044796" lon="1.9033168908208609">
        <ele>24.51</ele>
      </trkpt>
      <trkpt lat="41.25676785595715" lon="1.9033168908208609">
        <ele>24.86</ele>
      </trkpt>
      <trkpt lat="41.25676634721458" lon="1.9033169746398926">
        <ele>25.13</ele>
      </trkpt>
      <trkpt lat="41.25664472579956" lon="1.9033169746398926">
        <ele>25.35</ele>
      </trkpt>
      <trkpt lat="41.25648396089673" lon="1.9033276196569204">
        <ele>25.47</ele>
      </trkpt>
      <trkpt lat="41.25632286071777" lon="1.9033384323120117">
        <ele>25.53</ele>
      </trkpt>
      <trkpt lat="41.25610828399658" lon="1.9032955169677734">
        <ele>25.55</ele>
      </trkpt>
      <trkpt lat="41.256065368652344" lon="1.9033384323120117">
        <ele>25.52</ele>
      </trkpt>
      <trkpt lat="41.25591516494751" lon="1.9033598899841309">
        <ele>25.38</ele>
      </trkpt>
      <trkpt lat="41.25571156851947" lon="1.9033919926732779">
        <ele>25.2</ele>
      </trkpt>
      <trkpt lat="41.255507469177246" lon="1.9034242630004883">
        <ele>24.98</ele>
      </trkpt>
      <trkpt lat="41.255292892456055" lon="1.90338134765625">
        <ele>24.72</ele>
      </trkpt>
      <trkpt lat="41.25518560409546" lon="1.9032955169677734">
        <ele>24.45</ele>
      </trkpt>
      <trkpt lat="41.25504596158862" lon="1.9030269607901573">
        <ele>24.09</ele>
      </trkpt>
      <trkpt lat="41.25490665435791" lon="1.902759075164795">
        <ele>23.74</ele>
      </trkpt>
      <trkpt lat="41.254756450653076" lon="1.9025230407714844">
        <ele>23.35</ele>
      </trkpt>
      <trkpt lat="41.25460624694824" lon="1.9026517868041992">
        <ele>22.62</ele>
      </trkpt>
      <trkpt lat="41.2545205000788" lon="1.9027161598205566">
        <ele>22.04</ele>
      </trkpt>
      <trkpt lat="41.25449895858765" lon="1.902759075164795">
        <ele>21.56</ele>
      </trkpt>
      <trkpt lat="41.25432729721069" lon="1.9024372100830078">
        <ele>21.16</ele>
      </trkpt>
      <trkpt lat="41.25437021255493" lon="1.9023942947387695">
        <ele>20.69</ele>
      </trkpt>
      <trkpt lat="41.25437021255493" lon="1.9023728370666504">
        <ele>20.1</ele>
      </trkpt>
      <trkpt lat="41.25432729721069" lon="1.902329921722412">
        <ele>19.45</ele>
      </trkpt>
      <trkpt lat="41.254026889801025" lon="1.9024372100830078">
        <ele>18.56</ele>
      </trkpt>
      <trkpt lat="41.25402697362006" lon="1.902458667755127">
        <ele>18.02</ele>
      </trkpt>
      <trkpt lat="41.254005432128906" lon="1.9025015830993652">
        <ele>17.51</ele>
      </trkpt>
      <trkpt lat="41.25396251678467" lon="1.9025444984436035">
        <ele>17.08</ele>
      </trkpt>
      <trkpt lat="41.25398397445679" lon="1.9025874137878418">
        <ele>16.76</ele>
      </trkpt>
      <trkpt lat="41.25391960144043" lon="1.902608871459961">
        <ele>16.59</ele>
      </trkpt>
      <trkpt lat="41.25391960144043" lon="1.90263032913208">
        <ele>16.56</ele>
      </trkpt>
      <trkpt lat="41.25368356704712" lon="1.902480125427246">
        <ele>16.79</ele>
      </trkpt>
      <trkpt lat="41.25359773635864" lon="1.9024372100830078">
        <ele>16.83</ele>
      </trkpt>
      <trkpt lat="41.253383411094546" lon="1.902372920885682">
        <ele>16.85</ele>
      </trkpt>
      <trkpt lat="41.25316908583045" lon="1.9023086316883564">
        <ele>16.87</ele>
      </trkpt>
      <trkpt lat="41.25295400619507" lon="1.9022440910339355">
        <ele>16.9</ele>
      </trkpt>
      <trkpt lat="41.25281092710793" lon="1.9022020138800144">
        <ele>16.94</ele>
      </trkpt>
    </trkseg>
  </trk>
</gpx>
