<?xml version="1.0" encoding="UTF-8"?>
<gpx creator="Garmin Connect" version="1.1"
  xsi:schemaLocation="http://www.topografix.com/GPX/1/1 http://www.topografix.com/GPX/11.xsd"
  xmlns:ns3="http://www.garmin.com/xmlschemas/TrackPointExtension/v1"
  xmlns="http://www.topografix.com/GPX/1/1"
  xmlns:xsi="http://www.w3.org/2001/XMLSchema-instance" xmlns:ns2="http://www.garmin.com/xmlschemas/GpxExtensions/v3">
  <metadata>
    <name>GR92 Etappi 20: Sant Vicenç dels Hort - Bruguers</name>
    <link href="connect.garmin.com">
      <text>Garmin Connect</text>
    </link>
    <time>2026-09-13T10:55:01.000Z</time>
  </metadata>
  <trk>
    <name>GR92 Etappi 20: Sant Vicenç dels Hort - Bruguers</name>
    <trkseg>
      <trkpt lat="41.39350418932736" lon="2.009237492457032">
        <ele>33.76</ele>
      </trkpt>
      <trkpt lat="41.39341592788696" lon="2.0092320442199707">
        <ele>33.67</ele>
      </trkpt>
      <trkpt lat="41.393351554870605" lon="2.0092320442199707">
        <ele>33.56</ele>
      </trkpt>
      <trkpt lat="41.39307260513306" lon="2.0093607902526855">
        <ele>33.17</ele>
      </trkpt>
      <trkpt lat="41.39281528070569" lon="2.0095215551555157">
        <ele>32.98</ele>
      </trkpt>
      <trkpt lat="41.39255770482123" lon="2.0096826553344727">
        <ele>33.15</ele>
      </trkpt>
      <trkpt lat="41.392418229952455" lon="2.0097898598760366">
        <ele>33.25</ele>
      </trkpt>
      <trkpt lat="41.39227875508368" lon="2.009897232055664">
        <ele>33.21</ele>
      </trkpt>
      <trkpt lat="41.39227867126465" lon="2.009897232055664">
        <ele>33.24</ele>
      </trkpt>
      <trkpt lat="41.392192924395204" lon="2.0099401473999023">
        <ele>33.24</ele>
      </trkpt>
      <trkpt lat="41.39191430993378" lon="2.0099401473999023">
        <ele>33.4</ele>
      </trkpt>
      <trkpt lat="41.391634941101074" lon="2.0099401473999023">
        <ele>33.65</ele>
      </trkpt>
      <trkpt lat="41.391355991363525" lon="2.0098114013671875">
        <ele>33.85</ele>
      </trkpt>
      <trkpt lat="41.39120587147772" lon="2.0098328590393066">
        <ele>33.92</ele>
      </trkpt>
      <trkpt lat="41.39101275242865" lon="2.0099616050720215">
        <ele>33.91</ele>
      </trkpt>
      <trkpt lat="41.39094829559326" lon="2.0100045204162598">
        <ele>33.94</ele>
      </trkpt>
      <trkpt lat="41.39074981212616" lon="2.010176097974181">
        <ele>33.95</ele>
      </trkpt>
      <trkpt lat="41.39055141247809" lon="2.0103476755321026">
        <ele>33.95</ele>
      </trkpt>
      <trkpt lat="41.39035301283002" lon="2.010519253090024">
        <ele>33.78</ele>
      </trkpt>
      <trkpt lat="41.39015436172485" lon="2.0106911659240723">
        <ele>33.65</ele>
      </trkpt>
      <trkpt lat="41.390111446380615" lon="2.0108413696289062">
        <ele>33.46</ele>
      </trkpt>
      <trkpt lat="41.389918411150575" lon="2.011002218350768">
        <ele>33.39</ele>
      </trkpt>
      <trkpt lat="41.3897252921015" lon="2.0111632347106934">
        <ele>33.46</ele>
      </trkpt>
      <trkpt lat="41.38955363072455" lon="2.011302625760436">
        <ele>33.46</ele>
      </trkpt>
      <trkpt lat="41.389381969347596" lon="2.011442184448242">
        <ele>33.5</ele>
      </trkpt>
      <trkpt lat="41.389381885528564" lon="2.011442184448242">
        <ele>33.52</ele>
      </trkpt>
      <trkpt lat="41.38921030797064" lon="2.011581575497985">
        <ele>33.54</ele>
      </trkpt>
      <trkpt lat="41.38903864659369" lon="2.011721134185791">
        <ele>33.51</ele>
      </trkpt>
      <trkpt lat="41.38903856277466" lon="2.011721134185791">
        <ele>33.49</ele>
      </trkpt>
      <trkpt lat="41.38882398605347" lon="2.0119141694158316">
        <ele>33.4</ele>
      </trkpt>
      <trkpt lat="41.388609409332275" lon="2.0121073722839355">
        <ele>33.28</ele>
      </trkpt>
      <trkpt lat="41.38849130831659" lon="2.012268304824829">
        <ele>33.12</ele>
      </trkpt>
      <trkpt lat="41.388373374938965" lon="2.0124292373657227">
        <ele>33.01</ele>
      </trkpt>
      <trkpt lat="41.38815879821777" lon="2.012665271759033">
        <ele>32.93</ele>
      </trkpt>
      <trkpt lat="41.388094425201416" lon="2.0125365257263184">
        <ele>32.82</ele>
      </trkpt>
      <trkpt lat="41.3880729675293" lon="2.012515068054199">
        <ele>32.67</ele>
      </trkpt>
      <trkpt lat="41.3879656791687" lon="2.012321949005127">
        <ele>32.5</ele>
      </trkpt>
      <trkpt lat="41.38794422149658" lon="2.012300491333008">
        <ele>32.27</ele>
      </trkpt>
      <trkpt lat="41.38798713684082" lon="2.0122361183166504">
        <ele>31.99</ele>
      </trkpt>
      <trkpt lat="41.38794422149658" lon="2.0122790336608887">
        <ele>31.68</ele>
      </trkpt>
      <trkpt lat="41.38792276382446" lon="2.0122361183166504">
        <ele>31.32</ele>
      </trkpt>
      <trkpt lat="41.38771891593933" lon="2.0124184247106314">
        <ele>30.99</ele>
      </trkpt>
      <trkpt lat="41.3875150680542" lon="2.012600898742676">
        <ele>30.51</ele>
      </trkpt>
      <trkpt lat="41.38732203282416" lon="2.012751018628478">
        <ele>29.95</ele>
      </trkpt>
      <trkpt lat="41.38712899759412" lon="2.0129011385142803">
        <ele>29.43</ele>
      </trkpt>
      <trkpt lat="41.38693571090698" lon="2.0130515098571777">
        <ele>28.89</ele>
      </trkpt>
      <trkpt lat="41.38693571090698" lon="2.0131802558898926">
        <ele>28.33</ele>
      </trkpt>
      <trkpt lat="41.386871337890625" lon="2.013266086578369">
        <ele>27.75</ele>
      </trkpt>
      <trkpt lat="41.38666405342519" lon="2.013401873409748">
        <ele>27.08</ele>
      </trkpt>
      <trkpt lat="41.38645676895976" lon="2.013537660241127">
        <ele>26.46</ele>
      </trkpt>
      <trkpt lat="41.38624906539917" lon="2.013673782348633">
        <ele>25.88</ele>
      </trkpt>
      <trkpt lat="41.3860559463501" lon="2.0138025283813477">
        <ele>25.33</ele>
      </trkpt>
      <trkpt lat="41.38584153726697" lon="2.013931106775999">
        <ele>24.88</ele>
      </trkpt>
      <trkpt lat="41.38562712818384" lon="2.014059768989682">
        <ele>24.46</ele>
      </trkpt>
      <trkpt lat="41.38541221618652" lon="2.014188766479492">
        <ele>24.08</ele>
      </trkpt>
      <trkpt lat="41.385176349431276" lon="2.0143388025462627">
        <ele>23.85</ele>
      </trkpt>
      <trkpt lat="41.3849401473999" lon="2.01448917388916">
        <ele>23.86</ele>
      </trkpt>
      <trkpt lat="41.38475784100592" lon="2.0145962946116924">
        <ele>24.06</ele>
      </trkpt>
      <trkpt lat="41.38457536697388" lon="2.0147037506103516">
        <ele>24.34</ele>
      </trkpt>
      <trkpt lat="41.3844895362854" lon="2.0146608352661133">
        <ele>24.67</ele>
      </trkpt>
      <trkpt lat="41.38427495956421" lon="2.01474666595459">
        <ele>25.2</ele>
      </trkpt>
      <trkpt lat="41.3840542640537" lon="2.0148889906704426">
        <ele>25.84</ele>
      </trkpt>
      <trkpt lat="41.383833484724164" lon="2.015031399205327">
        <ele>26.6</ele>
      </trkpt>
      <trkpt lat="41.3838333170861" lon="2.0150314830243587">
        <ele>27.5</ele>
      </trkpt>
      <trkpt lat="41.3838333170861" lon="2.0150315668433905">
        <ele>28.55</ele>
      </trkpt>
      <trkpt lat="41.383609771728516" lon="2.0151758193969727">
        <ele>29.72</ele>
      </trkpt>
      <trkpt lat="41.383395195007324" lon="2.015261650085449">
        <ele>31.2</ele>
      </trkpt>
      <trkpt lat="41.38318061828613" lon="2.015261650085449">
        <ele>32.83</ele>
      </trkpt>
      <trkpt lat="41.383094787597656" lon="2.015197277069092">
        <ele>34.63</ele>
      </trkpt>
      <trkpt lat="41.38300895690918" lon="2.0150041580200195">
        <ele>36.73</ele>
      </trkpt>
      <trkpt lat="41.38296604156494" lon="2.0148110389709473">
        <ele>38.98</ele>
      </trkpt>
      <trkpt lat="41.38298749923706" lon="2.014467716217041">
        <ele>41.43</ele>
      </trkpt>
      <trkpt lat="41.38305187225342" lon="2.0144033432006836">
        <ele>43.81</ele>
      </trkpt>
      <trkpt lat="41.38322353363037" lon="2.01448917388916">
        <ele>46.15</ele>
      </trkpt>
      <trkpt lat="41.383352279663086" lon="2.0144033432006836">
        <ele>48.77</ele>
      </trkpt>
      <trkpt lat="41.38341665267944" lon="2.014296054840088">
        <ele>51.56</ele>
      </trkpt>
      <trkpt lat="41.383409444242716" lon="2.0139948930591345">
        <ele>54.67</ele>
      </trkpt>
      <trkpt lat="41.38340223580599" lon="2.013693815097213">
        <ele>58.01</ele>
      </trkpt>
      <trkpt lat="41.383395195007324" lon="2.013394832611084">
        <ele>61.36</ele>
      </trkpt>
      <trkpt lat="41.38345956802368" lon="2.0131802558898926">
        <ele>64.54</ele>
      </trkpt>
      <trkpt lat="41.383352279663086" lon="2.013094425201416">
        <ele>67.41</ele>
      </trkpt>
      <trkpt lat="41.383352279663086" lon="2.012794017791748">
        <ele>70.38</ele>
      </trkpt>
      <trkpt lat="41.38327340595424" lon="2.012493023648858">
        <ele>73.34</ele>
      </trkpt>
      <trkpt lat="41.38319461606443" lon="2.012192029505968">
        <ele>76.37</ele>
      </trkpt>
      <trkpt lat="41.383116245269775" lon="2.011892795562744">
        <ele>79.26</ele>
      </trkpt>
      <trkpt lat="41.383094787597656" lon="2.011699676513672">
        <ele>81.98</ele>
      </trkpt>
      <trkpt lat="41.3830304145813" lon="2.0115280151367188">
        <ele>84.66</ele>
      </trkpt>
      <trkpt lat="41.3829231262207" lon="2.011442184448242">
        <ele>87.29</ele>
      </trkpt>
      <trkpt lat="41.38279438018799" lon="2.011227607727051">
        <ele>89.9</ele>
      </trkpt>
      <trkpt lat="41.38266563415527" lon="2.011098861694336">
        <ele>92.27</ele>
      </trkpt>
      <trkpt lat="41.382525907829404" lon="2.0107980351895094">
        <ele>94.55</ele>
      </trkpt>
      <trkpt lat="41.382386684417725" lon="2.010498046875">
        <ele>96.74</ele>
      </trkpt>
      <trkpt lat="41.38217210769653" lon="2.010476589202881">
        <ele>98.61</ele>
      </trkpt>
      <trkpt lat="41.38208636082709" lon="2.0104122161865234">
        <ele>100.35</ele>
      </trkpt>
      <trkpt lat="41.381907323375344" lon="2.0101258903741837">
        <ele>102.04</ele>
      </trkpt>
      <trkpt lat="41.38172836974263" lon="2.009839564561844">
        <ele>103.72</ele>
      </trkpt>
      <trkpt lat="41.38154983520508" lon="2.009553909301758">
        <ele>105.36</ele>
      </trkpt>
      <trkpt lat="41.38150457292795" lon="2.0094783883541822">
        <ele>106.68</ele>
      </trkpt>
      <trkpt lat="41.38148546218872" lon="2.009446620941162">
        <ele>108.91</ele>
      </trkpt>
      <trkpt lat="41.38133525848389" lon="2.0093822479248047">
        <ele>109.97</ele>
      </trkpt>
      <trkpt lat="41.38127088546753" lon="2.009274959564209">
        <ele>110.9</ele>
      </trkpt>
      <trkpt lat="41.38118505477905" lon="2.0089101791381836">
        <ele>111.93</ele>
      </trkpt>
      <trkpt lat="41.38107776641846" lon="2.008695602416992">
        <ele>112.83</ele>
      </trkpt>
      <trkpt lat="41.380906105041504" lon="2.008352279663086">
        <ele>113.61</ele>
      </trkpt>
      <trkpt lat="41.38077735900879" lon="2.0082449913024902">
        <ele>114.36</ele>
      </trkpt>
      <trkpt lat="41.38068415224552" lon="2.007987080141902">
        <ele>115.11</ele>
      </trkpt>
      <trkpt lat="41.380591029301286" lon="2.0077291689813137">
        <ele>115.92</ele>
      </trkpt>
      <trkpt lat="41.38049840927124" lon="2.007472515106201">
        <ele>116.82</ele>
      </trkpt>
      <trkpt lat="41.38047695159912" lon="2.0073866844177246">
        <ele>117.85</ele>
      </trkpt>
      <trkpt lat="41.38043403625488" lon="2.0073652267456055">
        <ele>118.96</ele>
      </trkpt>
      <trkpt lat="41.38024074956775" lon="2.007069932296872">
        <ele>120.15</ele>
      </trkpt>
      <trkpt lat="41.38004746288061" lon="2.0067747216671705">
        <ele>121.58</ele>
      </trkpt>
      <trkpt lat="41.37985426001251" lon="2.006479427218437">
        <ele>123.15</ele>
      </trkpt>
      <trkpt lat="41.379661560058594" lon="2.0061850547790527">
        <ele>124.8</ele>
      </trkpt>
      <trkpt lat="41.37954689562321" lon="2.005912810564041">
        <ele>126.68</ele>
      </trkpt>
      <trkpt lat="41.37943231500685" lon="2.0056406501680613">
        <ele>128.62</ele>
      </trkpt>
      <trkpt lat="41.37931823730469" lon="2.0053696632385254">
        <ele>130.67</ele>
      </trkpt>
      <trkpt lat="41.37918949127197" lon="2.005155086517334">
        <ele>132.67</ele>
      </trkpt>
      <trkpt lat="41.379125118255615" lon="2.005155086517334">
        <ele>134.43</ele>
      </trkpt>
      <trkpt lat="41.37895345687866" lon="2.0050907135009766">
        <ele>136.16</ele>
      </trkpt>
      <trkpt lat="41.37869596481323" lon="2.004876136779785">
        <ele>137.96</ele>
      </trkpt>
      <trkpt lat="41.378610134124756" lon="2.004554271697998">
        <ele>139.84</ele>
      </trkpt>
      <trkpt lat="41.378567051142454" lon="2.004306921735406">
        <ele>141.53</ele>
      </trkpt>
      <trkpt lat="41.37852430343628" lon="2.004060745239258">
        <ele>142.98</ele>
      </trkpt>
      <trkpt lat="41.37845213524997" lon="2.003891095519066">
        <ele>144.24</ele>
      </trkpt>
      <trkpt lat="41.37845213524997" lon="2.003891011700034">
        <ele>145.26</ele>
      </trkpt>
      <trkpt lat="41.378452219069004" lon="2.003891095519066">
        <ele>146.14</ele>
      </trkpt>
      <trkpt lat="41.378305619582534" lon="2.0035462640225887">
        <ele>147.03</ele>
      </trkpt>
      <trkpt lat="41.378159523010254" lon="2.003202438354492">
        <ele>147.61</ele>
      </trkpt>
      <trkpt lat="41.37805223464966" lon="2.00300931930542">
        <ele>148.07</ele>
      </trkpt>
      <trkpt lat="41.377859115600586" lon="2.0028162002563477">
        <ele>148.39</ele>
      </trkpt>
      <trkpt lat="41.377665996551514" lon="2.0026230812072754">
        <ele>148.63</ele>
      </trkpt>
      <trkpt lat="41.37747287750244" lon="2.002429962158203">
        <ele>148.73</ele>
      </trkpt>
      <trkpt lat="41.37727975845337" lon="2.002236843109131">
        <ele>148.72</ele>
      </trkpt>
      <trkpt lat="41.377108097076416" lon="2.0020651817321777">
        <ele>148.74</ele>
      </trkpt>
      <trkpt lat="41.37702226638794" lon="2.0018720626831055">
        <ele>148.77</ele>
      </trkpt>
      <trkpt lat="41.37693643569946" lon="2.0017647743225098">
        <ele>148.86</ele>
      </trkpt>
      <trkpt lat="41.376850605010986" lon="2.0017647743225098">
        <ele>149.1</ele>
      </trkpt>
      <trkpt lat="41.37674331665039" lon="2.001807689666748">
        <ele>149.44</ele>
      </trkpt>
      <trkpt lat="41.37655019760132" lon="2.0020222663879395">
        <ele>149.8</ele>
      </trkpt>
      <trkpt lat="41.37627124786377" lon="2.0020008087158203">
        <ele>150.22</ele>
      </trkpt>
      <trkpt lat="41.37607821263373" lon="2.0020008087158203">
        <ele>150.86</ele>
      </trkpt>
      <trkpt lat="41.375885009765625" lon="2.001957893371582">
        <ele>151.84</ele>
      </trkpt>
      <trkpt lat="41.37562776915729" lon="2.001829231157899">
        <ele>153.13</ele>
      </trkpt>
      <trkpt lat="41.375370025634766" lon="2.0017004013061523">
        <ele>154.9</ele>
      </trkpt>
      <trkpt lat="41.375305484980345" lon="2.0014638639986515">
        <ele>156.74</ele>
      </trkpt>
      <trkpt lat="41.37524127960205" lon="2.0012283325195312">
        <ele>158.54</ele>
      </trkpt>
      <trkpt lat="41.375104235485196" lon="2.000892721116543">
        <ele>160.43</ele>
      </trkpt>
      <trkpt lat="41.37496769428253" lon="2.0005581993609667">
        <ele>162.46</ele>
      </trkpt>
      <trkpt lat="41.37496752664447" lon="2.000557780265808">
        <ele>164.26</ele>
      </trkpt>
      <trkpt lat="41.37496769428253" lon="2.000558115541935">
        <ele>166.08</ele>
      </trkpt>
      <trkpt lat="41.374889742583036" lon="2.0003671757876873">
        <ele>168.08</ele>
      </trkpt>
      <trkpt lat="41.37481212615967" lon="2.0001769065856934">
        <ele>170.04</ele>
      </trkpt>
      <trkpt lat="41.37474775314331" lon="2.000112533569336">
        <ele>171.85</ele>
      </trkpt>
      <trkpt lat="41.37453317642212" lon="2.000091075897217">
        <ele>174.14</ele>
      </trkpt>
      <trkpt lat="41.37425422668457" lon="1.999983787536621">
        <ele>176.43</ele>
      </trkpt>
      <trkpt lat="41.37425422668457" lon="2.0000696182250977">
        <ele>178.48</ele>
      </trkpt>
      <trkpt lat="41.37431859970093" lon="2.0001769065856934">
        <ele>180.67</ele>
      </trkpt>
      <trkpt lat="41.37445799075067" lon="2.000316297635436">
        <ele>182.28</ele>
      </trkpt>
      <trkpt lat="41.37459754943848" lon="2.000455856323242">
        <ele>183.87</ele>
      </trkpt>
      <trkpt lat="41.37461137957871" lon="2.0005671679973602">
        <ele>185.66</ele>
      </trkpt>
      <trkpt lat="41.37461154721677" lon="2.0005683414638042">
        <ele>187.49</ele>
      </trkpt>
      <trkpt lat="41.374611631035805" lon="2.000568425282836">
        <ele>189.31</ele>
      </trkpt>
      <trkpt lat="41.37429714202881" lon="2.000539842993021">
        <ele>191.74</ele>
      </trkpt>
      <trkpt lat="41.37408130802214" lon="2.0005203131586313">
        <ele>194.04</ele>
      </trkpt>
      <trkpt lat="41.37408038601279" lon="2.0005202293395996">
        <ele>195.86</ele>
      </trkpt>
      <trkpt lat="41.3740798830986" lon="2.0005202293395996">
        <ele>197.68</ele>
      </trkpt>
      <trkpt lat="41.3740611076355" lon="2.0005416870117188">
        <ele>199.52</ele>
      </trkpt>
      <trkpt lat="41.3740611076355" lon="2.0006704330444336">
        <ele>201.25</ele>
      </trkpt>
      <trkpt lat="41.37397527694702" lon="2.00075626373291">
        <ele>203.12</ele>
      </trkpt>
      <trkpt lat="41.37393236160278" lon="2.000734806060791">
        <ele>205.1</ele>
      </trkpt>
      <trkpt lat="41.37393236160278" lon="2.000584602355957">
        <ele>207.16</ele>
      </trkpt>
      <trkpt lat="41.373889446258545" lon="2.000455856323242">
        <ele>209.29</ele>
      </trkpt>
      <trkpt lat="41.37371778488159" lon="2.0002949237823486">
        <ele>211.65</ele>
      </trkpt>
      <trkpt lat="41.37354612350464" lon="2.000133991241455">
        <ele>213.93</ele>
      </trkpt>
      <trkpt lat="41.37348652817309" lon="2.0000348333269358">
        <ele>216.05</ele>
      </trkpt>
      <trkpt lat="41.37348594143987" lon="2.000033827498555">
        <ele>218.13</ele>
      </trkpt>
      <trkpt lat="41.37348594143987" lon="2.0000337436795235">
        <ele>220.25</ele>
      </trkpt>
      <trkpt lat="41.373417377471924" lon="1.9999194145202637">
        <ele>222.5</ele>
      </trkpt>
      <trkpt lat="41.37331008911133" lon="1.9996833801269531">
        <ele>224.88</ele>
      </trkpt>
      <trkpt lat="41.37328863143921" lon="1.9993185997009277">
        <ele>227.17</ele>
      </trkpt>
      <trkpt lat="41.373138427734375" lon="1.999211311340332">
        <ele>229.97</ele>
      </trkpt>
      <trkpt lat="41.372902393341064" lon="1.9991683959960938">
        <ele>232.99</ele>
      </trkpt>
      <trkpt lat="41.3729453086853" lon="1.9989538192749023">
        <ele>235.26</ele>
      </trkpt>
      <trkpt lat="41.372859477996826" lon="1.9986534118652344">
        <ele>237.83</ele>
      </trkpt>
      <trkpt lat="41.37283802032471" lon="1.9983315467834473">
        <ele>240.29</ele>
      </trkpt>
      <trkpt lat="41.37286928482354" lon="1.9981595501303673">
        <ele>242.69</ele>
      </trkpt>
      <trkpt lat="41.37286953628063" lon="1.9981583766639233">
        <ele>245.18</ele>
      </trkpt>
      <trkpt lat="41.37286953628063" lon="1.998158460482955">
        <ele>247.73</ele>
      </trkpt>
      <trkpt lat="41.3728694524616" lon="1.998158460482955">
        <ele>250.37</ele>
      </trkpt>
      <trkpt lat="41.372923851013184" lon="1.9978594779968262">
        <ele>252.93</ele>
      </trkpt>
      <trkpt lat="41.37275218963623" lon="1.9979667663574219">
        <ele>255.9</ele>
      </trkpt>
      <trkpt lat="41.37255907058716" lon="1.9982671737670898">
        <ele>258.97</ele>
      </trkpt>
      <trkpt lat="41.372451866045594" lon="1.9985032081604004">
        <ele>262.27</ele>
      </trkpt>
      <trkpt lat="41.372408866882324" lon="1.9986963272094727">
        <ele>265.44</ele>
      </trkpt>
      <trkpt lat="41.37232303619385" lon="1.9989323616027832">
        <ele>268.89</ele>
      </trkpt>
      <trkpt lat="41.37225866317749" lon="1.999189853668213">
        <ele>272.47</ele>
      </trkpt>
      <trkpt lat="41.37221574783325" lon="1.9993400573730469">
        <ele>275.9</ele>
      </trkpt>
      <trkpt lat="41.372172916308045" lon="1.999361515045166">
        <ele>279.15</ele>
      </trkpt>
      <trkpt lat="41.372129917144775" lon="1.9995546340942383">
        <ele>282.62</ele>
      </trkpt>
      <trkpt lat="41.37206554412842" lon="1.9996833801269531">
        <ele>285.98</ele>
      </trkpt>
      <trkpt lat="41.37206562794745" lon="1.9996833801269531">
        <ele>289.02</ele>
      </trkpt>
      <trkpt lat="41.37178659439087" lon="1.9998764991760254">
        <ele>292.47</ele>
      </trkpt>
      <trkpt lat="41.371614933013916" lon="1.9998550415039062">
        <ele>295.46</ele>
      </trkpt>
      <trkpt lat="41.37157201766968" lon="1.9998979568481445">
        <ele>298.3</ele>
      </trkpt>
      <trkpt lat="41.37146456167102" lon="2.0000912435352802">
        <ele>301.23</ele>
      </trkpt>
      <trkpt lat="41.371357440948486" lon="2.000284194946289">
        <ele>304.37</ele>
      </trkpt>
      <trkpt lat="41.371278651058674" lon="2.0003965124487877">
        <ele>307.02</ele>
      </trkpt>
      <trkpt lat="41.37127798050642" lon="2.0003976020962">
        <ele>309.52</ele>
      </trkpt>
      <trkpt lat="41.37127789668739" lon="2.000397853553295">
        <ele>311.92</ele>
      </trkpt>
      <trkpt lat="41.37127789668739" lon="2.0003977697342634">
        <ele>314.24</ele>
      </trkpt>
      <trkpt lat="41.37120723724365" lon="2.0004987716674805">
        <ele>316.45</ele>
      </trkpt>
      <trkpt lat="41.37105703353882" lon="2.000863552093506">
        <ele>318.86</ele>
      </trkpt>
      <trkpt lat="41.37101411819458" lon="2.000885009765625">
        <ele>320.87</ele>
      </trkpt>
      <trkpt lat="41.37097120285034" lon="2.0011425018310547">
        <ele>322.97</ele>
      </trkpt>
      <trkpt lat="41.37084245681763" lon="2.0012283325195312">
        <ele>325.04</ele>
      </trkpt>
      <trkpt lat="41.37079954147339" lon="2.0012927055358887">
        <ele>326.98</ele>
      </trkpt>
      <trkpt lat="41.37077808380127" lon="2.0014214515686035">
        <ele>328.83</ele>
      </trkpt>
      <trkpt lat="41.370606422424316" lon="2.0017004013061523">
        <ele>330.7</ele>
      </trkpt>
      <trkpt lat="41.37054204940796" lon="2.001957893371582">
        <ele>332.6</ele>
      </trkpt>
      <trkpt lat="41.370413303375244" lon="2.0020222663879395">
        <ele>334.34</ele>
      </trkpt>
      <trkpt lat="41.370370388031006" lon="2.0021510124206543">
        <ele>335.95</ele>
      </trkpt>
      <trkpt lat="41.37026309967041" lon="2.0023012161254883">
        <ele>337.57</ele>
      </trkpt>
      <trkpt lat="41.370134353637695" lon="2.002408504486084">
        <ele>338.91</ele>
      </trkpt>
      <trkpt lat="41.36998414993286" lon="2.0024728775024414">
        <ele>340.08</ele>
      </trkpt>
      <trkpt lat="41.369981383904815" lon="2.002476816996932">
        <ele>340.9</ele>
      </trkpt>
      <trkpt lat="41.36998071335256" lon="2.002477990463376">
        <ele>341.51</ele>
      </trkpt>
      <trkpt lat="41.3699805457145" lon="2.002478325739503">
        <ele>341.89</ele>
      </trkpt>
      <trkpt lat="41.3699805457145" lon="2.002478241920471">
        <ele>342.04</ele>
      </trkpt>
      <trkpt lat="41.36994123458862" lon="2.002537250518799">
        <ele>342.01</ele>
      </trkpt>
      <trkpt lat="41.369876861572266" lon="2.002580165863037">
        <ele>341.66</ele>
      </trkpt>
      <trkpt lat="41.36981248855591" lon="2.0027518272399902">
        <ele>341.01</ele>
      </trkpt>
      <trkpt lat="41.36968374252319" lon="2.002859115600586">
        <ele>340.29</ele>
      </trkpt>
      <trkpt lat="41.369619369506836" lon="2.002987861633301">
        <ele>339.06</ele>
      </trkpt>
      <trkpt lat="41.36944770812988" lon="2.003202438354492">
        <ele>337.6</ele>
      </trkpt>
      <trkpt lat="41.369426250457764" lon="2.0032882690429688">
        <ele>335.88</ele>
      </trkpt>
      <trkpt lat="41.369619369506836" lon="2.0032668113708496">
        <ele>333.84</ele>
      </trkpt>
      <trkpt lat="41.36986579746008" lon="2.003170335665345">
        <ele>331.57</ele>
      </trkpt>
      <trkpt lat="41.370112895965576" lon="2.0030736923217773">
        <ele>328.99</ele>
      </trkpt>
      <trkpt lat="41.370155811309814" lon="2.0031380653381348">
        <ele>326.24</ele>
      </trkpt>
      <trkpt lat="41.370134353637695" lon="2.0032453536987305">
        <ele>323.35</ele>
      </trkpt>
      <trkpt lat="41.36998414993286" lon="2.0033740997314453">
        <ele>320.45</ele>
      </trkpt>
      <trkpt lat="41.369866048917174" lon="2.0035565737634897">
        <ele>317.28</ele>
      </trkpt>
      <trkpt lat="41.36974811553955" lon="2.0037388801574707">
        <ele>313.99</ele>
      </trkpt>
      <trkpt lat="41.369640827178955" lon="2.0038461685180664">
        <ele>310.67</ele>
      </trkpt>
      <trkpt lat="41.36955499649048" lon="2.0040178298950195">
        <ele>307.08</ele>
      </trkpt>
      <trkpt lat="41.369372522458434" lon="2.004253948107362">
        <ele>303.39</ele>
      </trkpt>
      <trkpt lat="41.36919021606445" lon="2.0044898986816406">
        <ele>299.57</ele>
      </trkpt>
      <trkpt lat="41.36918359436095" lon="2.004502471536398">
        <ele>296.2</ele>
      </trkpt>
      <trkpt lat="41.369183007627726" lon="2.004503645002842">
        <ele>292.9</ele>
      </trkpt>
      <trkpt lat="41.36918283998966" lon="2.0045040640980005">
        <ele>289.67</ele>
      </trkpt>
      <trkpt lat="41.36906834319234" lon="2.004722496494651">
        <ele>286.06</ele>
      </trkpt>
      <trkpt lat="41.36895418167114" lon="2.0049405097961426">
        <ele>282.72</ele>
      </trkpt>
      <trkpt lat="41.368825268000364" lon="2.005144441500306">
        <ele>279.61</ele>
      </trkpt>
      <trkpt lat="41.36869668960571" lon="2.0053482055664062">
        <ele>276.6</ele>
      </trkpt>
      <trkpt lat="41.36861069127917" lon="2.0051224809139967">
        <ele>274.02</ele>
      </trkpt>
      <trkpt lat="41.36852502822876" lon="2.0048975944519043">
        <ele>271.44</ele>
      </trkpt>
      <trkpt lat="41.3684175722301" lon="2.0046934951096773">
        <ele>269.0</ele>
      </trkpt>
      <trkpt lat="41.36831045150757" lon="2.0044898986816406">
        <ele>266.76</ele>
      </trkpt>
      <trkpt lat="41.36826736852527" lon="2.004124280065298">
        <ele>264.96</ele>
      </trkpt>
      <trkpt lat="41.36822462081909" lon="2.00376033782959">
        <ele>263.3</ele>
      </trkpt>
      <trkpt lat="41.368175921961665" lon="2.0036579109728336">
        <ele>261.71</ele>
      </trkpt>
      <trkpt lat="41.36817533522844" lon="2.0036567375063896">
        <ele>260.42</ele>
      </trkpt>
      <trkpt lat="41.36817516759038" lon="2.0036564022302628">
        <ele>259.29</ele>
      </trkpt>
      <trkpt lat="41.3680100440979" lon="2.003309726715088">
        <ele>258.11</ele>
      </trkpt>
      <trkpt lat="41.36781692504883" lon="2.003052234649658">
        <ele>257.17</ele>
      </trkpt>
      <trkpt lat="41.36772371828556" lon="2.002772781997919">
        <ele>256.59</ele>
      </trkpt>
      <trkpt lat="41.367630595341325" lon="2.00249332934618">
        <ele>256.08</ele>
      </trkpt>
      <trkpt lat="41.36753797531128" lon="2.0022153854370117">
        <ele>255.58</ele>
      </trkpt>
      <trkpt lat="41.36751651763916" lon="2.0021724700927734">
        <ele>255.24</ele>
      </trkpt>
      <trkpt lat="41.3674521446228" lon="2.0021724700927734">
        <ele>254.93</ele>
      </trkpt>
      <trkpt lat="41.367344688624144" lon="2.001979099586606">
        <ele>254.81</ele>
      </trkpt>
      <trkpt lat="41.36723756790161" lon="2.001786231994629">
        <ele>254.7</ele>
      </trkpt>
      <trkpt lat="41.367173194885254" lon="2.0017433166503906">
        <ele>254.64</ele>
      </trkpt>
      <trkpt lat="41.367001784965396" lon="2.001732587814331">
        <ele>254.6</ele>
      </trkpt>
      <trkpt lat="41.36682987213135" lon="2.0017218589782715">
        <ele>254.6</ele>
      </trkpt>
      <trkpt lat="41.366636753082275" lon="2.001636028289795">
        <ele>254.6</ele>
      </trkpt>
      <trkpt lat="41.36646509170532" lon="2.001357078552246">
        <ele>254.78</ele>
      </trkpt>
      <trkpt lat="41.366375321522355" lon="2.001052061095834">
        <ele>254.65</ele>
      </trkpt>
      <trkpt lat="41.36637498624623" lon="2.0010507199913263">
        <ele>254.46</ele>
      </trkpt>
      <trkpt lat="41.36631262488663" lon="2.0008386578410864">
        <ele>254.08</ele>
      </trkpt>
      <trkpt lat="41.36625051498413" lon="2.0006275177001953">
        <ele>253.55</ele>
      </trkpt>
      <trkpt lat="41.366143226623535" lon="2.000455856323242">
        <ele>253.02</ele>
      </trkpt>
      <trkpt lat="41.36614331044257" lon="2.000455856323242">
        <ele>252.63</ele>
      </trkpt>
      <trkpt lat="41.36607885360718" lon="2.0003914833068848">
        <ele>252.15</ele>
      </trkpt>
      <trkpt lat="41.365928649902344" lon="2.0003914833068848">
        <ele>251.63</ele>
      </trkpt>
      <trkpt lat="41.36567140929401" lon="2.0005129370838404">
        <ele>251.3</ele>
      </trkpt>
      <trkpt lat="41.365414168685675" lon="2.000634390860796">
        <ele>250.71</ele>
      </trkpt>
      <trkpt lat="41.365156173706055" lon="2.00075626373291">
        <ele>249.99</ele>
      </trkpt>
      <trkpt lat="41.36502742767334" lon="2.0007777214050293">
        <ele>249.33</ele>
      </trkpt>
      <trkpt lat="41.36494159698486" lon="2.000734806060791">
        <ele>248.69</ele>
      </trkpt>
      <trkpt lat="41.36479139328003" lon="2.0006275177001953">
        <ele>248.17</ele>
      </trkpt>
      <trkpt lat="41.36456625536084" lon="2.0005203131586313">
        <ele>247.68</ele>
      </trkpt>
      <trkpt lat="41.36434078216553" lon="2.000412940979004">
        <ele>247.31</ele>
      </trkpt>
      <trkpt lat="41.36413701809943" lon="2.0002628210932016">
        <ele>247.14</ele>
      </trkpt>
      <trkpt lat="41.363933086395264" lon="2.000112533569336">
        <ele>247.47</ele>
      </trkpt>
      <trkpt lat="41.363718593493104" lon="2.0000267028808594">
        <ele>247.1</ele>
      </trkpt>
      <trkpt lat="41.36361415497959" lon="1.999817993491888">
        <ele>246.95</ele>
      </trkpt>
      <trkpt lat="41.363613568246365" lon="1.999816820025444">
        <ele>246.9</ele>
      </trkpt>
      <trkpt lat="41.3636134006083" lon="1.9998164847493172">
        <ele>246.87</ele>
      </trkpt>
      <trkpt lat="41.36361122131348" lon="1.999812126159668">
        <ele>246.88</ele>
      </trkpt>
      <trkpt lat="41.36361122131348" lon="1.9995217770338058">
        <ele>247.1</ele>
      </trkpt>
      <trkpt lat="41.36361122131348" lon="1.9992327690124512">
        <ele>247.4</ele>
      </trkpt>
      <trkpt lat="41.36354684829712" lon="1.9990825653076172">
        <ele>247.56</ele>
      </trkpt>
      <trkpt lat="41.363418102264404" lon="1.9989967346191406">
        <ele>247.65</ele>
      </trkpt>
      <trkpt lat="41.363160610198975" lon="1.9990181922912598">
        <ele>247.57</ele>
      </trkpt>
      <trkpt lat="41.362989116460085" lon="1.9989430904388428">
        <ele>247.59</ele>
      </trkpt>
      <trkpt lat="41.36281728744507" lon="1.9988679885864258">
        <ele>247.51</ele>
      </trkpt>
      <trkpt lat="41.36264570988715" lon="1.9987715128809214">
        <ele>247.38</ele>
      </trkpt>
      <trkpt lat="41.36247396469116" lon="1.9986748695373535">
        <ele>247.16</ele>
      </trkpt>
      <trkpt lat="41.36231319978833" lon="1.9986319541931152">
        <ele>246.85</ele>
      </trkpt>
      <trkpt lat="41.362152099609375" lon="1.998589038848877">
        <ele>246.56</ele>
      </trkpt>
      <trkpt lat="41.362073477357626" lon="1.998484181240201">
        <ele>246.43</ele>
      </trkpt>
      <trkpt lat="41.36207272298634" lon="1.9984831754118204">
        <ele>246.38</ele>
      </trkpt>
      <trkpt lat="41.362072387710214" lon="1.9984827563166618">
        <ele>246.38</ele>
      </trkpt>
      <trkpt lat="41.36202335357666" lon="1.9984173774719238">
        <ele>246.41</ele>
      </trkpt>
      <trkpt lat="41.3619589805603" lon="1.9983100891113281">
        <ele>246.5</ele>
      </trkpt>
      <trkpt lat="41.361894607543945" lon="1.9983530044555664">
        <ele>246.62</ele>
      </trkpt>
      <trkpt lat="41.361894607543945" lon="1.9981169700622559">
        <ele>246.99</ele>
      </trkpt>
      <trkpt lat="41.36168028227985" lon="1.9981919042766094">
        <ele>247.24</ele>
      </trkpt>
      <trkpt lat="41.36146545410156" lon="1.9982671737670898">
        <ele>247.62</ele>
      </trkpt>
      <trkpt lat="41.36125087738037" lon="1.998438835144043">
        <ele>248.28</ele>
      </trkpt>
      <trkpt lat="41.361122131347656" lon="1.9984817504882812">
        <ele>249.16</ele>
      </trkpt>
      <trkpt lat="41.36092926375568" lon="1.998438835144043">
        <ele>250.11</ele>
      </trkpt>
      <trkpt lat="41.36073589324951" lon="1.9983959197998047">
        <ele>251.16</ele>
      </trkpt>
      <trkpt lat="41.36050019413233" lon="1.9984065648168325">
        <ele>252.66</ele>
      </trkpt>
      <trkpt lat="41.36026382446289" lon="1.9984173774719238">
        <ele>253.93</ele>
      </trkpt>
      <trkpt lat="41.36000633239746" lon="1.998589038848877">
        <ele>255.33</ele>
      </trkpt>
      <trkpt lat="41.3599731400609" lon="1.9986294396221638">
        <ele>256.53</ele>
      </trkpt>
      <trkpt lat="41.359972385689616" lon="1.9986304454505444">
        <ele>257.71</ele>
      </trkpt>
      <trkpt lat="41.35997196659446" lon="1.9986310321837664">
        <ele>258.88</ele>
      </trkpt>
      <trkpt lat="41.35981329716742" lon="1.9988250732421875">
        <ele>260.21</ele>
      </trkpt>
      <trkpt lat="41.35970592498779" lon="1.9988679885864258">
        <ele>261.26</ele>
      </trkpt>
      <trkpt lat="41.35955572128296" lon="1.9988679885864258">
        <ele>262.49</ele>
      </trkpt>
      <trkpt lat="41.35946989059448" lon="1.9988250732421875">
        <ele>263.65</ele>
      </trkpt>
      <trkpt lat="41.35934089310467" lon="1.9984596222639084">
        <ele>264.84</ele>
      </trkpt>
      <trkpt lat="41.35921239852905" lon="1.9980955123901367">
        <ele>265.69</ele>
      </trkpt>
      <trkpt lat="41.35908365249634" lon="1.997816562652588">
        <ele>266.34</ele>
      </trkpt>
      <trkpt lat="41.35886907577515" lon="1.9976234436035156">
        <ele>266.98</ele>
      </trkpt>
      <trkpt lat="41.35861694812775" lon="1.9973820447921753">
        <ele>267.5</ele>
      </trkpt>
      <trkpt lat="41.35836490429938" lon="1.9971407297998667">
        <ele>267.89</ele>
      </trkpt>
      <trkpt lat="41.35811277665198" lon="1.9968993309885263">
        <ele>268.28</ele>
      </trkpt>
      <trkpt lat="41.35786056518555" lon="1.9966578483581543">
        <ele>268.81</ele>
      </trkpt>
      <trkpt lat="41.357688903808594" lon="1.9963788986206055">
        <ele>269.27</ele>
      </trkpt>
      <trkpt lat="41.35765898041427" lon="1.9962516613304615">
        <ele>269.49</ele>
      </trkpt>
      <trkpt lat="41.357658645138144" lon="1.9962502364069223">
        <ele>269.63</ele>
      </trkpt>
      <trkpt lat="41.35765856131911" lon="1.996249733492732">
        <ele>269.69</ele>
      </trkpt>
      <trkpt lat="41.35765847750008" lon="1.996249733492732">
        <ele>269.67</ele>
      </trkpt>
      <trkpt lat="41.35760307312012" lon="1.99601411819458">
        <ele>269.68</ele>
      </trkpt>
      <trkpt lat="41.357581531628966" lon="1.9957990385591984">
        <ele>269.53</ele>
      </trkpt>
      <trkpt lat="41.35756024159491" lon="1.9955849647521973">
        <ele>269.28</ele>
      </trkpt>
      <trkpt lat="41.35756015777588" lon="1.9955849647521973">
        <ele>268.98</ele>
      </trkpt>
      <trkpt lat="41.35750634595752" lon="1.9953268859535456">
        <ele>268.65</ele>
      </trkpt>
      <trkpt lat="41.35745286941528" lon="1.995069980621338">
        <ele>268.19</ele>
      </trkpt>
      <trkpt lat="41.35751724243164" lon="1.9946837425231934">
        <ele>267.5</ele>
      </trkpt>
      <trkpt lat="41.3574743270874" lon="1.994619369506836">
        <ele>267.03</ele>
      </trkpt>
      <trkpt lat="41.357409954071045" lon="1.9945764541625977">
        <ele>266.52</ele>
      </trkpt>
      <trkpt lat="41.35719537734985" lon="1.994490623474121">
        <ele>265.88</ele>
      </trkpt>
      <trkpt lat="41.35708808898926" lon="1.9944047927856445">
        <ele>265.19</ele>
      </trkpt>
      <trkpt lat="41.35695934295654" lon="1.9943833351135254">
        <ele>264.65</ele>
      </trkpt>
      <trkpt lat="41.356873512268066" lon="1.9944047927856445">
        <ele>264.25</ele>
      </trkpt>
      <trkpt lat="41.356637477874756" lon="1.9944047927856445">
        <ele>263.7</ele>
      </trkpt>
      <trkpt lat="41.35655164718628" lon="1.9943833351135254">
        <ele>263.11</ele>
      </trkpt>
      <trkpt lat="41.356401443481445" lon="1.9942331314086914">
        <ele>262.26</ele>
      </trkpt>
      <trkpt lat="41.35631561279297" lon="1.9942331314086914">
        <ele>261.79</ele>
      </trkpt>
      <trkpt lat="41.356165409088135" lon="1.994318962097168">
        <ele>261.58</ele>
      </trkpt>
      <trkpt lat="41.35592962615192" lon="1.9943617936223745">
        <ele>261.37</ele>
      </trkpt>
      <trkpt lat="41.355693340301514" lon="1.9944047927856445">
        <ele>261.1</ele>
      </trkpt>
      <trkpt lat="41.35550022125244" lon="1.9942545890808105">
        <ele>260.28</ele>
      </trkpt>
      <trkpt lat="41.355414390563965" lon="1.9942545890808105">
        <ele>259.53</ele>
      </trkpt>
      <trkpt lat="41.355392932891846" lon="1.9942331314086914">
        <ele>258.78</ele>
      </trkpt>
      <trkpt lat="41.35532855987549" lon="1.9942545890808105">
        <ele>257.95</ele>
      </trkpt>
      <trkpt lat="41.35509252548218" lon="1.9944477081298828">
        <ele>257.06</ele>
      </trkpt>
      <trkpt lat="41.35483503341675" lon="1.9944262504577637">
        <ele>255.97</ele>
      </trkpt>
      <trkpt lat="41.354684913530946" lon="1.994522726163268">
        <ele>255.02</ele>
      </trkpt>
      <trkpt lat="41.35453462600708" lon="1.994619369506836">
        <ele>253.89</ele>
      </trkpt>
      <trkpt lat="41.354358438402414" lon="1.9946033600717783">
        <ele>252.49</ele>
      </trkpt>
      <trkpt lat="41.354357348755" lon="1.9946032762527466">
        <ele>251.1</ele>
      </trkpt>
      <trkpt lat="41.35435642674565" lon="1.9946031924337149">
        <ele>249.57</ele>
      </trkpt>
      <trkpt lat="41.35429859161377" lon="1.9945979118347168">
        <ele>247.85</ele>
      </trkpt>
      <trkpt lat="41.354191303253174" lon="1.994469165802002">
        <ele>245.92</ele>
      </trkpt>
      <trkpt lat="41.354148387908936" lon="1.9942760467529297">
        <ele>243.88</ele>
      </trkpt>
      <trkpt lat="41.35401964187622" lon="1.994469165802002">
        <ele>241.77</ele>
      </trkpt>
      <trkpt lat="41.35393364354968" lon="1.9946625363081694">
        <ele>239.23</ele>
      </trkpt>
      <trkpt lat="41.35384798049927" lon="1.9948554039001465">
        <ele>236.44</ele>
      </trkpt>
      <trkpt lat="41.35374069213867" lon="1.9949841499328613">
        <ele>233.6</ele>
      </trkpt>
      <trkpt lat="41.35359048843384" lon="1.9948983192443848">
        <ele>230.88</ele>
      </trkpt>
      <trkpt lat="41.35341899469495" lon="1.994844675064087">
        <ele>228.05</ele>
      </trkpt>
      <trkpt lat="41.35324716567993" lon="1.994791030883789">
        <ele>225.17</ele>
      </trkpt>
      <trkpt lat="41.35305404663086" lon="1.9946837425231934">
        <ele>222.27</ele>
      </trkpt>
      <trkpt lat="41.35287190787494" lon="1.9947051163762808">
        <ele>219.23</ele>
      </trkpt>
      <trkpt lat="41.352689266204834" lon="1.9947266578674316">
        <ele>216.25</ele>
      </trkpt>
      <trkpt lat="41.352485502138734" lon="1.994855236262083">
        <ele>212.99</ele>
      </trkpt>
      <trkpt lat="41.35228157043457" lon="1.9949841499328613">
        <ele>209.51</ele>
      </trkpt>
      <trkpt lat="41.35209934785962" lon="1.995048439130187">
        <ele>206.26</ele>
      </trkpt>
      <trkpt lat="41.351916790008545" lon="1.9951128959655762">
        <ele>203.06</ele>
      </trkpt>
      <trkpt lat="41.35172367095947" lon="1.995069980621338">
        <ele>200.01</ele>
      </trkpt>
      <trkpt lat="41.35146416723728" lon="1.9948651269078255">
        <ele>197.17</ele>
      </trkpt>
      <trkpt lat="41.35146324522793" lon="1.99486437253654">
        <ele>194.49</ele>
      </trkpt>
      <trkpt lat="41.35146257467568" lon="1.9948638696223497">
        <ele>191.88</ele>
      </trkpt>
      <trkpt lat="41.35131605900824" lon="1.9947481155395508">
        <ele>189.31</ele>
      </trkpt>
      <trkpt lat="41.351144313812256" lon="1.994640827178955">
        <ele>186.79</ele>
      </trkpt>
      <trkpt lat="41.35086536407471" lon="1.994640827178955">
        <ele>183.97</ele>
      </trkpt>
      <trkpt lat="41.35065095499158" lon="1.9945228938013315">
        <ele>181.55</ele>
      </trkpt>
      <trkpt lat="41.350436210632324" lon="1.9944047927856445">
        <ele>179.33</ele>
      </trkpt>
      <trkpt lat="41.350207636132836" lon="1.9944332912564278">
        <ele>176.95</ele>
      </trkpt>
      <trkpt lat="41.34997906163335" lon="1.9944618735462427">
        <ele>174.77</ele>
      </trkpt>
      <trkpt lat="41.34974956512451" lon="1.994490623474121">
        <ele>172.64</ele>
      </trkpt>
      <trkpt lat="41.34947061538696" lon="1.9943833351135254">
        <ele>170.77</ele>
      </trkpt>
      <trkpt lat="41.34934195317328" lon="1.9943833351135254">
        <ele>168.62</ele>
      </trkpt>
      <trkpt lat="41.34934186935425" lon="1.9943833351135254">
        <ele>166.57</ele>
      </trkpt>
      <trkpt lat="41.349106170237064" lon="1.994426166638732">
        <ele>164.13</ele>
      </trkpt>
      <trkpt lat="41.34886988438666" lon="1.994469165802002">
        <ele>161.84</ele>
      </trkpt>
      <trkpt lat="41.348626809194684" lon="1.9946478679776192">
        <ele>159.57</ele>
      </trkpt>
      <trkpt lat="41.34838373400271" lon="1.9948265701532364">
        <ele>157.43</ele>
      </trkpt>
      <trkpt lat="41.348140239715576" lon="1.9950056076049805">
        <ele>155.39</ele>
      </trkpt>
      <trkpt lat="41.34788274765015" lon="1.9951343536376953">
        <ele>153.45</ele>
      </trkpt>
      <trkpt lat="41.34760388173163" lon="1.9951772689819336">
        <ele>151.58</ele>
      </trkpt>
      <trkpt lat="41.34729316458106" lon="1.9951771851629019">
        <ele>149.56</ele>
      </trkpt>
      <trkpt lat="41.346981609240174" lon="1.9951772689819336">
        <ele>147.55</ele>
      </trkpt>
      <trkpt lat="41.346895694732666" lon="1.9951558113098145">
        <ele>145.86</ele>
      </trkpt>
      <trkpt lat="41.34669050574303" lon="1.9950847327709198">
        <ele>144.18</ele>
      </trkpt>
      <trkpt lat="41.346689499914646" lon="1.995084397494793">
        <ele>142.66</ele>
      </trkpt>
      <trkpt lat="41.3466885779053" lon="1.9950841460376978">
        <ele>141.21</ele>
      </trkpt>
      <trkpt lat="41.34651339612901" lon="1.9950234610587358">
        <ele>139.67</ele>
      </trkpt>
      <trkpt lat="41.34633779525757" lon="1.9949626922607422">
        <ele>138.18</ele>
      </trkpt>
      <trkpt lat="41.346144676208496" lon="1.9949626922607422">
        <ele>136.75</ele>
      </trkpt>
      <trkpt lat="41.345951557159424" lon="1.99476957321167">
        <ele>135.81</ele>
      </trkpt>
      <trkpt lat="41.34586572647095" lon="1.994791030883789">
        <ele>134.72</ele>
      </trkpt>
      <trkpt lat="41.34560823440552" lon="1.9950056076049805">
        <ele>133.51</ele>
      </trkpt>
      <trkpt lat="41.345415115356445" lon="1.995091438293457">
        <ele>132.68</ele>
      </trkpt>
      <trkpt lat="41.345243621617556" lon="1.9951557274907827">
        <ele>132.0</ele>
      </trkpt>
      <trkpt lat="41.34507179260254" lon="1.9952201843261719">
        <ele>131.52</ele>
      </trkpt>
      <trkpt lat="41.34479317814112" lon="1.9952843897044659">
        <ele>131.2</ele>
      </trkpt>
      <trkpt lat="41.34451389312744" lon="1.9953489303588867">
        <ele>130.57</ele>
      </trkpt>
      <trkpt lat="41.344331754371524" lon="1.9953703042119741">
        <ele>129.99</ele>
      </trkpt>
      <trkpt lat="41.344149112701416" lon="1.995391845703125">
        <ele>129.43</ele>
      </trkpt>
      <trkpt lat="41.343977618962526" lon="1.9953596591949463">
        <ele>129.13</ele>
      </trkpt>
      <trkpt lat="41.34380578994751" lon="1.9953274726867676">
        <ele>128.84</ele>
      </trkpt>
      <trkpt lat="41.34363429620862" lon="1.9952630996704102">
        <ele>128.55</ele>
      </trkpt>
      <trkpt lat="41.3434624671936" lon="1.9951987266540527">
        <ele>128.3</ele>
      </trkpt>
      <trkpt lat="41.34329080581665" lon="1.995091438293457">
        <ele>128.09</ele>
      </trkpt>
      <trkpt lat="41.343204975128174" lon="1.9947266578674316">
        <ele>128.26</ele>
      </trkpt>
      <trkpt lat="41.343204975128174" lon="1.9945335388183594">
        <ele>128.31</ele>
      </trkpt>
      <trkpt lat="41.343162059783936" lon="1.9944477081298828">
        <ele>128.21</ele>
      </trkpt>
      <trkpt lat="41.34307622909546" lon="1.994490623474121">
        <ele>127.98</ele>
      </trkpt>
      <trkpt lat="41.3429687730968" lon="1.994705367833376">
        <ele>127.63</ele>
      </trkpt>
      <trkpt lat="41.34286165237427" lon="1.994919776916504">
        <ele>127.31</ele>
      </trkpt>
      <trkpt lat="41.34260416030884" lon="1.9951128959655762">
        <ele>126.82</ele>
      </trkpt>
      <trkpt lat="41.342411041259766" lon="1.9951343536376953">
        <ele>126.51</ele>
      </trkpt>
      <trkpt lat="41.3421431556344" lon="1.995091438293457">
        <ele>126.25</ele>
      </trkpt>
      <trkpt lat="41.34187459945679" lon="1.9950485229492188">
        <ele>125.76</ele>
      </trkpt>
      <trkpt lat="41.34178876876831" lon="1.995091438293457">
        <ele>125.01</ele>
      </trkpt>
      <trkpt lat="41.34159564971924" lon="1.9952201843261719">
        <ele>124.1</ele>
      </trkpt>
      <trkpt lat="41.34144050069153" lon="1.9954528659582138">
        <ele>122.78</ele>
      </trkpt>
      <trkpt lat="41.341286692768335" lon="1.9956835359334946">
        <ele>121.44</ele>
      </trkpt>
      <trkpt lat="41.34128602221608" lon="1.9956846255809069">
        <ele>120.33</ele>
      </trkpt>
      <trkpt lat="41.34128560312092" lon="1.9956852961331606">
        <ele>119.12</ele>
      </trkpt>
      <trkpt lat="41.341209495440125" lon="1.9957995414733887">
        <ele>117.65</ele>
      </trkpt>
      <trkpt lat="41.34105920791626" lon="1.9959068298339844">
        <ele>116.14</ele>
      </trkpt>
      <trkpt lat="41.340909004211426" lon="1.9959497451782227">
        <ele>114.64</ele>
      </trkpt>
      <trkpt lat="41.34080171585083" lon="1.9959497451782227">
        <ele>113.15</ele>
      </trkpt>
      <trkpt lat="41.34063022211194" lon="1.9958425406366587">
        <ele>111.61</ele>
      </trkpt>
      <trkpt lat="41.340458476915956" lon="1.9957351684570312">
        <ele>109.99</ele>
      </trkpt>
      <trkpt lat="41.34030818939209" lon="1.9956707954406738">
        <ele>108.23</ele>
      </trkpt>
      <trkpt lat="41.34007223881781" lon="1.9956278800964355">
        <ele>106.34</ele>
      </trkpt>
      <trkpt lat="41.33979320526123" lon="1.9956493377685547">
        <ele>104.41</ele>
      </trkpt>
      <trkpt lat="41.33975028991699" lon="1.9956278800964355">
        <ele>102.64</ele>
      </trkpt>
      <trkpt lat="41.339664459228516" lon="1.9957566261291504">
        <ele>100.72</ele>
      </trkpt>
      <trkpt lat="41.33957862854004" lon="1.9957780838012695">
        <ele>98.88</ele>
      </trkpt>
      <trkpt lat="41.33937142789364" lon="1.9957280438393354">
        <ele>97.04</ele>
      </trkpt>
      <trkpt lat="41.33916431106627" lon="1.9956780038774014">
        <ele>95.12</ele>
      </trkpt>
      <trkpt lat="41.338956356048584" lon="1.9956278800964355">
        <ele>93.24</ele>
      </trkpt>
      <trkpt lat="41.338795591145754" lon="1.9956599827855825">
        <ele>91.38</ele>
      </trkpt>
      <trkpt lat="41.3386344909668" lon="1.995692253112793">
        <ele>89.58</ele>
      </trkpt>
      <trkpt lat="41.338419914245605" lon="1.995692253112793">
        <ele>87.69</ele>
      </trkpt>
      <trkpt lat="41.338153621181846" lon="1.9955982081592083">
        <ele>85.8</ele>
      </trkpt>
      <trkpt lat="41.33815253153443" lon="1.9955978728830814">
        <ele>84.19</ele>
      </trkpt>
      <trkpt lat="41.33815144188702" lon="1.9955975376069546">
        <ele>82.65</ele>
      </trkpt>
      <trkpt lat="41.33805513381958" lon="1.9955635070800781">
        <ele>81.12</ele>
      </trkpt>
      <trkpt lat="41.33799076080322" lon="1.9955849647521973">
        <ele>79.68</ele>
      </trkpt>
      <trkpt lat="41.33788347244263" lon="1.9957780838012695">
        <ele>78.2</ele>
      </trkpt>
      <trkpt lat="41.33762606419623" lon="1.995542049407959">
        <ele>77.04</ele>
      </trkpt>
      <trkpt lat="41.33758306503296" lon="1.9955635070800781">
        <ele>75.94</ele>
      </trkpt>
      <trkpt lat="41.33754014968872" lon="1.9956064224243164">
        <ele>74.95</ele>
      </trkpt>
      <trkpt lat="41.337508046999574" lon="1.9957666005939245">
        <ele>74.03</ele>
      </trkpt>
      <trkpt lat="41.33750779554248" lon="1.9957680255174637">
        <ele>73.35</ele>
      </trkpt>
      <trkpt lat="41.33750771172345" lon="1.9957687798887491">
        <ele>72.83</ele>
      </trkpt>
      <trkpt lat="41.337432861328125" lon="1.996142864227295">
        <ele>72.32</ele>
      </trkpt>
      <trkpt lat="41.33728265762329" lon="1.9963788986206055">
        <ele>72.1</ele>
      </trkpt>
      <trkpt lat="41.337239826098084" lon="1.996464729309082">
        <ele>72.08</ele>
      </trkpt>
      <trkpt lat="41.337218284606934" lon="1.9965291023254395">
        <ele>72.23</ele>
      </trkpt>
      <trkpt lat="41.33716941811144" lon="1.9965291023254395">
        <ele>72.56</ele>
      </trkpt>
      <trkpt lat="41.33716832846403" lon="1.9965291023254395">
        <ele>73.05</ele>
      </trkpt>
      <trkpt lat="41.33716740645468" lon="1.9965291023254395">
        <ele>73.72</ele>
      </trkpt>
      <trkpt lat="41.33713245391846" lon="1.9965291023254395">
        <ele>74.59</ele>
      </trkpt>
      <trkpt lat="41.336960792541504" lon="1.9964218139648438">
        <ele>75.74</ele>
      </trkpt>
      <trkpt lat="41.33679986000061" lon="1.9962823390960693">
        <ele>77.03</ele>
      </trkpt>
      <trkpt lat="41.33663892745972" lon="1.996142864227295">
        <ele>78.52</ele>
      </trkpt>
      <trkpt lat="41.33640297688544" lon="1.995982015505433">
        <ele>80.14</ele>
      </trkpt>
      <trkpt lat="41.336166858673096" lon="1.9958209991455078">
        <ele>81.91</ele>
      </trkpt>
      <trkpt lat="41.335952365770936" lon="1.995692253112793">
        <ele>83.85</ele>
      </trkpt>
      <trkpt lat="41.33582353591919" lon="1.9956278800964355">
        <ele>85.89</ele>
      </trkpt>
      <trkpt lat="41.335673332214355" lon="1.9956493377685547">
        <ele>88.1</ele>
      </trkpt>
      <trkpt lat="41.335576605051756" lon="1.9954559672623873">
        <ele>90.38</ele>
      </trkpt>
      <trkpt lat="41.33548021316528" lon="1.9952630996704102">
        <ele>92.72</ele>
      </trkpt>
      <trkpt lat="41.33537292480469" lon="1.9951128959655762">
        <ele>95.18</ele>
      </trkpt>
      <trkpt lat="41.335323471575975" lon="1.9950757641345263">
        <ele>97.69</ele>
      </trkpt>
      <trkpt lat="41.33532254956663" lon="1.9950750935822725">
        <ele>100.24</ele>
      </trkpt>
      <trkpt lat="41.33532171137631" lon="1.9950745068490505">
        <ele>102.86</ele>
      </trkpt>
      <trkpt lat="41.335201263427734" lon="1.9949841499328613">
        <ele>105.65</ele>
      </trkpt>
      <trkpt lat="41.334965229034424" lon="1.994919776916504">
        <ele>108.6</ele>
      </trkpt>
      <trkpt lat="41.33472919464111" lon="1.9947481155395508">
        <ele>111.51</ele>
      </trkpt>
      <trkpt lat="41.334621822461486" lon="1.9945762865245342">
        <ele>114.37</ele>
      </trkpt>
      <trkpt lat="41.334514701738954" lon="1.9944047927856445">
        <ele>117.33</ele>
      </trkpt>
      <trkpt lat="41.33451461791992" lon="1.9944047927856445">
        <ele>120.11</ele>
      </trkpt>
      <trkpt lat="41.33440716192126" lon="1.994189964607358">
        <ele>123.04</ele>
      </trkpt>
      <trkpt lat="41.33430004119873" lon="1.9939756393432617">
        <ele>126.02</ele>
      </trkpt>
      <trkpt lat="41.33422477170825" lon="1.9937283731997013">
        <ele>128.88</ele>
      </trkpt>
      <trkpt lat="41.3341498374939" lon="1.9934821128845215">
        <ele>131.64</ele>
      </trkpt>
      <trkpt lat="41.33406400680542" lon="1.9933319091796875">
        <ele>134.21</ele>
      </trkpt>
      <trkpt lat="41.33406409062445" lon="1.9933533668518066">
        <ele>136.28</ele>
      </trkpt>
      <trkpt lat="41.33402109146118" lon="1.993396282196045">
        <ele>138.19</ele>
      </trkpt>
      <trkpt lat="41.333956802263856" lon="1.9933748245239258">
        <ele>139.97</ele>
      </trkpt>
      <trkpt lat="41.333935260772705" lon="1.9932889938354492">
        <ele>141.45</ele>
      </trkpt>
      <trkpt lat="41.333677768707275" lon="1.9931387901306152">
        <ele>142.89</ele>
      </trkpt>
      <trkpt lat="41.33357048034668" lon="1.9929242134094238">
        <ele>143.89</ele>
      </trkpt>
      <trkpt lat="41.33355086669326" lon="1.9929118920117617">
        <ele>144.38</ele>
      </trkpt>
      <trkpt lat="41.33354986086488" lon="1.9929113052785397">
        <ele>144.57</ele>
      </trkpt>
      <trkpt lat="41.33354893885553" lon="1.9929108023643494">
        <ele>144.43</ele>
      </trkpt>
      <trkpt lat="41.3333881739527" lon="1.992810219526291">
        <ele>143.86</ele>
      </trkpt>
      <trkpt lat="41.33322715759277" lon="1.9927096366882324">
        <ele>142.94</ele>
      </trkpt>
      <trkpt lat="41.333119701594114" lon="1.992516266182065">
        <ele>141.81</ele>
      </trkpt>
      <trkpt lat="41.33301258087158" lon="1.992323398590088">
        <ele>140.39</ele>
      </trkpt>
      <trkpt lat="41.33285181596875" lon="1.9923126697540283">
        <ele>138.52</ele>
      </trkpt>
      <trkpt lat="41.332690715789795" lon="1.9923019409179688">
        <ele>136.42</ele>
      </trkpt>
      <trkpt lat="41.3324761390686" lon="1.9922161102294922">
        <ele>134.2</ele>
      </trkpt>
      <trkpt lat="41.33224035613239" lon="1.9922803156077862">
        <ele>131.7</ele>
      </trkpt>
      <trkpt lat="41.33200407028198" lon="1.992344856262207">
        <ele>129.11</ele>
      </trkpt>
      <trkpt lat="41.331789745017886" lon="1.9923555012792349">
        <ele>126.43</ele>
      </trkpt>
      <trkpt lat="41.3315749168396" lon="1.9923663139343262">
        <ele>123.67</ele>
      </trkpt>
      <trkpt lat="41.33140325546265" lon="1.992344856262207">
        <ele>120.79</ele>
      </trkpt>
      <trkpt lat="41.33112195879221" lon="1.9922322873026133">
        <ele>117.83</ele>
      </trkpt>
      <trkpt lat="41.33112095296383" lon="1.9922318682074547">
        <ele>115.01</ele>
      </trkpt>
      <trkpt lat="41.33111961185932" lon="1.9922313652932644">
        <ele>112.17</ele>
      </trkpt>
      <trkpt lat="41.330974102020264" lon="1.992173194885254">
        <ele>109.29</ele>
      </trkpt>
      <trkpt lat="41.33073823526502" lon="1.9920230749994516">
        <ele>106.41</ele>
      </trkpt>
      <trkpt lat="41.33050203323364" lon="1.991872787475586">
        <ele>103.51</ele>
      </trkpt>
      <trkpt lat="41.330223083496094" lon="1.991722583770752">
        <ele>100.39</ele>
      </trkpt>
      <trkpt lat="41.32999802939594" lon="1.9916475657373667">
        <ele>97.31</ele>
      </trkpt>
      <trkpt lat="41.32977247238159" lon="1.991572380065918">
        <ele>94.52</ele>
      </trkpt>
      <trkpt lat="41.329686641693115" lon="1.991572380065918">
        <ele>92.03</ele>
      </trkpt>
      <trkpt lat="41.329507771879435" lon="1.991751166060567">
        <ele>89.79</ele>
      </trkpt>
      <trkpt lat="41.329328985884786" lon="1.9919299520552158">
        <ele>87.61</ele>
      </trkpt>
      <trkpt lat="41.32915019989014" lon="1.9921088218688965">
        <ele>85.31</ele>
      </trkpt>
      <trkpt lat="41.329089514911175" lon="1.9922907091677189">
        <ele>83.39</ele>
      </trkpt>
      <trkpt lat="41.329089095816016" lon="1.9922920502722263">
        <ele>81.7</ele>
      </trkpt>
      <trkpt lat="41.32908876053989" lon="1.9922931399196386">
        <ele>80.16</ele>
      </trkpt>
      <trkpt lat="41.32908582687378" lon="1.9923019409179688">
        <ele>78.78</ele>
      </trkpt>
      <trkpt lat="41.32904291152954" lon="1.9925165176391602">
        <ele>77.52</ele>
      </trkpt>
      <trkpt lat="41.3290536403656" lon="1.9927315134555101">
        <ele>76.44</ele>
      </trkpt>
      <trkpt lat="41.32906436920166" lon="1.992945671081543">
        <ele>75.48</ele>
      </trkpt>
      <trkpt lat="41.32908582687378" lon="1.993117332458496">
        <ele>74.64</ele>
      </trkpt>
      <trkpt lat="41.329193115234375" lon="1.9933533668518066">
        <ele>73.91</ele>
      </trkpt>
      <trkpt lat="41.32912874221802" lon="1.9936323165893555">
        <ele>73.27</ele>
      </trkpt>
      <trkpt lat="41.3291072845459" lon="1.9939541816711426">
        <ele>72.94</ele>
      </trkpt>
      <trkpt lat="41.32906436920166" lon="1.9940185546875">
        <ele>72.82</ele>
      </trkpt>
      <trkpt lat="41.32884979248047" lon="1.9939327239990234">
        <ele>72.94</ele>
      </trkpt>
      <trkpt lat="41.3286566734314" lon="1.9938039779663086">
        <ele>73.42</ele>
      </trkpt>
      <trkpt lat="41.32859230041504" lon="1.993718147277832">
        <ele>73.79</ele>
      </trkpt>
      <trkpt lat="41.32854921743274" lon="1.993406256660819">
        <ele>74.12</ele>
      </trkpt>
      <trkpt lat="41.32850646972656" lon="1.993095874786377">
        <ele>74.48</ele>
      </trkpt>
      <trkpt lat="41.32853656075895" lon="1.9928947929292917">
        <ele>74.9</ele>
      </trkpt>
      <trkpt lat="41.32853681221604" lon="1.9928933680057526">
        <ele>75.52</ele>
      </trkpt>
      <trkpt lat="41.32853697985411" lon="1.992892362177372">
        <ele>76.24</ele>
      </trkpt>
      <trkpt lat="41.32853697985411" lon="1.9928924459964037">
        <ele>77.04</ele>
      </trkpt>
      <trkpt lat="41.32857084274292" lon="1.9926667213439941">
        <ele>77.85</ele>
      </trkpt>
      <trkpt lat="41.32854930125177" lon="1.9923978298902512">
        <ele>78.77</ele>
      </trkpt>
      <trkpt lat="41.32852792739868" lon="1.9921302795410156">
        <ele>79.92</ele>
      </trkpt>
      <trkpt lat="41.32850646972656" lon="1.992044448852539">
        <ele>81.13</ele>
      </trkpt>
      <trkpt lat="41.32854946888983" lon="1.991754099726677">
        <ele>82.42</ele>
      </trkpt>
      <trkpt lat="41.32859230041504" lon="1.9914650917053223">
        <ele>83.73</ele>
      </trkpt>
      <trkpt lat="41.32859238423407" lon="1.9913792610168457">
        <ele>85.0</ele>
      </trkpt>
      <trkpt lat="41.32857084274292" lon="1.9912290573120117">
        <ele>86.37</ele>
      </trkpt>
      <trkpt lat="41.32852792739868" lon="1.9911003112792969">
        <ele>87.76</ele>
      </trkpt>
      <trkpt lat="41.328403959050775" lon="1.9908789452165365">
        <ele>89.28</ele>
      </trkpt>
      <trkpt lat="41.32840337231755" lon="1.9908777717500925">
        <ele>90.64</ele>
      </trkpt>
      <trkpt lat="41.32840278558433" lon="1.990876765921712">
        <ele>92.0</ele>
      </trkpt>
      <trkpt lat="41.328227519989014" lon="1.9905638694763184">
        <ele>93.61</ele>
      </trkpt>
      <trkpt lat="41.328206062316895" lon="1.9902420043945312">
        <ele>94.99</ele>
      </trkpt>
      <trkpt lat="41.328163146972656" lon="1.9901132583618164">
        <ele>96.38</ele>
      </trkpt>
      <trkpt lat="41.32805585861206" lon="1.9898772239685059">
        <ele>97.74</ele>
      </trkpt>
      <trkpt lat="41.32792719639838" lon="1.9897055625915527">
        <ele>99.05</ele>
      </trkpt>
      <trkpt lat="41.327927112579346" lon="1.9897055625915527">
        <ele>100.25</ele>
      </trkpt>
      <trkpt lat="41.32781982421875" lon="1.9896411895751953">
        <ele>101.48</ele>
      </trkpt>
      <trkpt lat="41.327605498954654" lon="1.9896304607391357">
        <ele>102.75</ele>
      </trkpt>
      <trkpt lat="41.32739067077637" lon="1.9896197319030762">
        <ele>103.91</ele>
      </trkpt>
      <trkpt lat="41.327122785151005" lon="1.9895554427057505">
        <ele>104.88</ele>
      </trkpt>
      <trkpt lat="41.32685422897339" lon="1.9894909858703613">
        <ele>105.64</ele>
      </trkpt>
      <trkpt lat="41.3266948889941" lon="1.9895364996045828">
        <ele>106.55</ele>
      </trkpt>
      <trkpt lat="41.32653756067157" lon="1.9895814266055822">
        <ele>107.4</ele>
      </trkpt>
      <trkpt lat="41.326536471024156" lon="1.989581761881709">
        <ele>108.09</ele>
      </trkpt>
      <trkpt lat="41.32653512991965" lon="1.9895821809768677">
        <ele>108.72</ele>
      </trkpt>
      <trkpt lat="41.32625341415405" lon="1.9896626472473145">
        <ele>109.49</ele>
      </trkpt>
      <trkpt lat="41.32609264925122" lon="1.9896626472473145">
        <ele>110.12</ele>
      </trkpt>
      <trkpt lat="41.325931549072266" lon="1.9896626472473145">
        <ele>110.63</ele>
      </trkpt>
      <trkpt lat="41.32586717605591" lon="1.9896411895751953">
        <ele>111.02</ele>
      </trkpt>
      <trkpt lat="41.3256311416626" lon="1.989448070526123">
        <ele>111.16</ele>
      </trkpt>
      <trkpt lat="41.3254239410162" lon="1.989398030564189">
        <ele>111.48</ele>
      </trkpt>
      <trkpt lat="41.32521682418883" lon="1.9893479906022549">
        <ele>111.81</ele>
      </trkpt>
      <trkpt lat="41.32500886917114" lon="1.989297866821289">
        <ele>112.05</ele>
      </trkpt>
      <trkpt lat="41.32479429244995" lon="1.9893836975097656">
        <ele>112.45</ele>
      </trkpt>
      <trkpt lat="41.324622631073" lon="1.9895339012145996">
        <ele>112.9</ele>
      </trkpt>
      <trkpt lat="41.32455825805664" lon="1.9895339012145996">
        <ele>113.26</ele>
      </trkpt>
      <trkpt lat="41.3245153427124" lon="1.9895124435424805">
        <ele>113.61</ele>
      </trkpt>
      <trkpt lat="41.324450969696045" lon="1.989297866821289">
        <ele>113.86</ele>
      </trkpt>
      <trkpt lat="41.32431141100824" lon="1.9890938512980938">
        <ele>114.29</ele>
      </trkpt>
      <trkpt lat="41.324172019958496" lon="1.9888901710510254">
        <ele>114.77</ele>
      </trkpt>
      <trkpt lat="41.32408183068037" lon="1.9888257142156363">
        <ele>115.31</ele>
      </trkpt>
      <trkpt lat="41.32408082485199" lon="1.9888249598443508">
        <ele>115.79</ele>
      </trkpt>
      <trkpt lat="41.32407973520458" lon="1.9888242054730654">
        <ele>116.31</ele>
      </trkpt>
      <trkpt lat="41.32402181625366" lon="1.9887828826904297">
        <ele>116.92</ele>
      </trkpt>
      <trkpt lat="41.323721408843994" lon="1.9886970520019531">
        <ele>117.9</ele>
      </trkpt>
      <trkpt lat="41.32361403666437" lon="1.9885252229869366">
        <ele>118.59</ele>
      </trkpt>
      <trkpt lat="41.3235068321228" lon="1.9883537292480469">
        <ele>119.26</ele>
      </trkpt>
      <trkpt lat="41.32344229146838" lon="1.9881064631044865">
        <ele>119.81</ele>
      </trkpt>
      <trkpt lat="41.32337808609009" lon="1.9878602027893066">
        <ele>120.37</ele>
      </trkpt>
      <trkpt lat="41.32333517074585" lon="1.9878602027893066">
        <ele>121.05</ele>
      </trkpt>
      <trkpt lat="41.323227882385254" lon="1.987602710723877">
        <ele>121.71</ele>
      </trkpt>
      <trkpt lat="41.32303484715521" lon="1.9873881340026855">
        <ele>122.49</ele>
      </trkpt>
      <trkpt lat="41.32299176417291" lon="1.9871730543673038">
        <ele>123.09</ele>
      </trkpt>
      <trkpt lat="41.322948932647705" lon="1.9869589805603027">
        <ele>123.68</ele>
      </trkpt>
      <trkpt lat="41.32286310195923" lon="1.9868087768554688">
        <ele>124.37</ele>
      </trkpt>
      <trkpt lat="41.322759836912155" lon="1.9867055118083954">
        <ele>125.14</ele>
      </trkpt>
      <trkpt lat="41.322758914902806" lon="1.9867045897990465">
        <ele>125.86</ele>
      </trkpt>
      <trkpt lat="41.322757909074426" lon="1.986703583970666">
        <ele>126.62</ele>
      </trkpt>
      <trkpt lat="41.32254132069647" lon="1.9864869117736816">
        <ele>127.49</ele>
      </trkpt>
      <trkpt lat="41.32256269454956" lon="1.9863152503967285">
        <ele>128.34</ele>
      </trkpt>
      <trkpt lat="41.32254123687744" lon="1.9862079620361328">
        <ele>129.29</ele>
      </trkpt>
      <trkpt lat="41.322455406188965" lon="1.9859504699707031">
        <ele>130.36</ele>
      </trkpt>
      <trkpt lat="41.322433948516846" lon="1.9858002662658691">
        <ele>131.44</ele>
      </trkpt>
      <trkpt lat="41.322476863861084" lon="1.9856929779052734">
        <ele>132.6</ele>
      </trkpt>
      <trkpt lat="41.32251977920532" lon="1.9856929779052734">
        <ele>133.78</ele>
      </trkpt>
      <trkpt lat="41.32258415222168" lon="1.9857358932495117">
        <ele>135.02</ele>
      </trkpt>
      <trkpt lat="41.32264852523804" lon="1.9858860969543457">
        <ele>136.29</ele>
      </trkpt>
      <trkpt lat="41.322712898254395" lon="1.9858860969543457">
        <ele>137.72</ele>
      </trkpt>
      <trkpt lat="41.32279872894287" lon="1.9858646392822266">
        <ele>139.19</ele>
      </trkpt>
      <trkpt lat="41.32276645861566" lon="1.9854667503386736">
        <ele>141.01</ele>
      </trkpt>
      <trkpt lat="41.322734355926514" lon="1.9850707054138184">
        <ele>142.93</ele>
      </trkpt>
      <trkpt lat="41.32278808392584" lon="1.9848557095974684">
        <ele>144.8</ele>
      </trkpt>
      <trkpt lat="41.32284164428711" lon="1.9846415519714355">
        <ele>146.69</ele>
      </trkpt>
      <trkpt lat="41.32294901646674" lon="1.9843620993196964">
        <ele>148.61</ele>
      </trkpt>
      <trkpt lat="41.3230562210083" lon="1.984083652496338">
        <ele>150.43</ele>
      </trkpt>
      <trkpt lat="41.32312059402466" lon="1.983804702758789">
        <ele>152.23</ele>
      </trkpt>
      <trkpt lat="41.32331371307373" lon="1.983504295349121">
        <ele>154.28</ele>
      </trkpt>
      <trkpt lat="41.32350674830377" lon="1.9833111763000488">
        <ele>156.32</ele>
      </trkpt>
      <trkpt lat="41.323699951171875" lon="1.9831180572509766">
        <ele>158.32</ele>
      </trkpt>
      <trkpt lat="41.32378578186035" lon="1.9829678535461426">
        <ele>160.16</ele>
      </trkpt>
      <trkpt lat="41.32380723953247" lon="1.9827097747474909">
        <ele>161.97</ele>
      </trkpt>
      <trkpt lat="41.32382869720459" lon="1.9824528694152832">
        <ele>163.79</ele>
      </trkpt>
      <trkpt lat="41.32365703582764" lon="1.9821953773498535">
        <ele>165.26</ele>
      </trkpt>
      <trkpt lat="41.32357120513916" lon="1.982131004333496">
        <ele>166.64</ele>
      </trkpt>
      <trkpt lat="41.32357120513916" lon="1.9821128156036139">
        <ele>168.03</ele>
      </trkpt>
      <trkpt lat="41.32357120513916" lon="1.9821112230420113">
        <ele>169.34</ele>
      </trkpt>
      <trkpt lat="41.32357120513916" lon="1.982109546661377">
        <ele>170.58</ele>
      </trkpt>
      <trkpt lat="41.32357128895819" lon="1.9819164276123047">
        <ele>171.75</ele>
      </trkpt>
      <trkpt lat="41.32359266281128" lon="1.9818735122680664">
        <ele>172.86</ele>
      </trkpt>
      <trkpt lat="41.323742950335145" lon="1.981648039072752">
        <ele>173.96</ele>
      </trkpt>
      <trkpt lat="41.32389307022095" lon="1.9814229011535645">
        <ele>175.11</ele>
      </trkpt>
      <trkpt lat="41.323935985565186" lon="1.9812941551208496">
        <ele>175.98</ele>
      </trkpt>
      <trkpt lat="41.323935985565186" lon="1.9811224937438965">
        <ele>176.7</ele>
      </trkpt>
      <trkpt lat="41.323860716074705" lon="1.9808644987642765">
        <ele>177.27</ele>
      </trkpt>
      <trkpt lat="41.32378578186035" lon="1.980607509613037">
        <ele>177.81</ele>
      </trkpt>
      <trkpt lat="41.32376432418823" lon="1.980435848236084">
        <ele>178.17</ele>
      </trkpt>
      <trkpt lat="41.323903715237975" lon="1.9803178310394287">
        <ele>178.59</ele>
      </trkpt>
      <trkpt lat="41.32404327392578" lon="1.9801998138427734">
        <ele>178.99</ele>
      </trkpt>
      <trkpt lat="41.32423639297485" lon="1.9798994064331055">
        <ele>179.27</ele>
      </trkpt>
      <trkpt lat="41.32434368133545" lon="1.9796419143676758">
        <ele>179.33</ele>
      </trkpt>
      <trkpt lat="41.324172019958496" lon="1.9793415069580078">
        <ele>178.62</ele>
      </trkpt>
      <trkpt lat="41.32420781068504" lon="1.9790332205593586">
        <ele>178.26</ele>
      </trkpt>
      <trkpt lat="41.32424368523061" lon="1.978725017979741">
        <ele>177.99</ele>
      </trkpt>
      <trkpt lat="41.32427930831909" lon="1.9784188270568848">
        <ele>177.73</ele>
      </trkpt>
      <trkpt lat="41.32415056228638" lon="1.9781827926635742">
        <ele>176.99</ele>
      </trkpt>
      <trkpt lat="41.32415056228638" lon="1.9779467582702637">
        <ele>176.45</ele>
      </trkpt>
      <trkpt lat="41.32425785064697" lon="1.9776034355163574">
        <ele>176.05</ele>
      </trkpt>
      <trkpt lat="41.32423639297485" lon="1.9773674011230469">
        <ele>175.45</ele>
      </trkpt>
      <trkpt lat="41.32405400276184" lon="1.9772064685821533">
        <ele>174.47</ele>
      </trkpt>
      <trkpt lat="41.32387161254883" lon="1.9770455360412598">
        <ele>173.34</ele>
      </trkpt>
      <trkpt lat="41.32375342771411" lon="1.976852249354124">
        <ele>172.27</ele>
      </trkpt>
      <trkpt lat="41.32363557815552" lon="1.9766592979431152">
        <ele>171.19</ele>
      </trkpt>
      <trkpt lat="41.32352828979492" lon="1.9765734672546387">
        <ele>169.85</ele>
      </trkpt>
      <trkpt lat="41.323421001434326" lon="1.9765949249267578">
        <ele>168.27</ele>
      </trkpt>
      <trkpt lat="41.323270881548524" lon="1.9768524169921875">
        <ele>166.09</ele>
      </trkpt>
      <trkpt lat="41.32314205169678" lon="1.977066993713379">
        <ele>163.93</ele>
      </trkpt>
      <trkpt lat="41.323078852146864" lon="1.9771242421120405">
        <ele>161.88</ele>
      </trkpt>
      <trkpt lat="41.32307784631848" lon="1.977125247940421">
        <ele>159.74</ele>
      </trkpt>
      <trkpt lat="41.32307675667107" lon="1.9771263375878334">
        <ele>157.46</ele>
      </trkpt>
      <trkpt lat="41.32290601730347" lon="1.9772815704345703">
        <ele>154.84</ele>
      </trkpt>
      <trkpt lat="41.322698816657066" lon="1.9773315265774727">
        <ele>152.23</ele>
      </trkpt>
      <trkpt lat="41.3224916998297" lon="1.9773815665394068">
        <ele>149.36</ele>
      </trkpt>
      <trkpt lat="41.32228374481201" lon="1.9774317741394043">
        <ele>146.44</ele>
      </trkpt>
      <trkpt lat="41.322176456451416" lon="1.9774103164672852">
        <ele>143.65</ele>
      </trkpt>
      <trkpt lat="41.322004962712526" lon="1.9773566722869873">
        <ele>140.66</ele>
      </trkpt>
      <trkpt lat="41.32183313369751" lon="1.9773030281066895">
        <ele>137.59</ele>
      </trkpt>
      <trkpt lat="41.321682929992676" lon="1.977217197418213">
        <ele>134.59</ele>
      </trkpt>
      <trkpt lat="41.32151126861572" lon="1.9771528244018555">
        <ele>131.48</ele>
      </trkpt>
      <trkpt lat="41.32133960723877" lon="1.976916790008545">
        <ele>128.54</ele>
      </trkpt>
      <trkpt lat="41.321167945861816" lon="1.97678804397583">
        <ele>125.69</ele>
      </trkpt>
      <trkpt lat="41.32099653594196" lon="1.9767773151397705">
        <ele>122.75</ele>
      </trkpt>
      <trkpt lat="41.32082462310791" lon="1.976766586303711">
        <ele>119.88</ele>
      </trkpt>
      <trkpt lat="41.32066385820508" lon="1.9767772313207388">
        <ele>117.12</ele>
      </trkpt>
      <trkpt lat="41.32050275802612" lon="1.97678804397583">
        <ele>114.51</ele>
      </trkpt>
      <trkpt lat="41.3202415779233" lon="1.9767879601567984">
        <ele>112.03</ele>
      </trkpt>
      <trkpt lat="41.31998266093433" lon="1.9767878763377666">
        <ele>109.81</ele>
      </trkpt>
      <trkpt lat="41.319981487467885" lon="1.9767879601567984">
        <ele>107.89</ele>
      </trkpt>
      <trkpt lat="41.31997972726822" lon="1.97678804397583">
        <ele>106.13</ele>
      </trkpt>
      <trkpt lat="41.31988048553467" lon="1.97678804397583">
        <ele>104.44</ele>
      </trkpt>
      <trkpt lat="41.319687366485596" lon="1.9766592979431152">
        <ele>102.8</ele>
      </trkpt>
      <trkpt lat="41.319612096995115" lon="1.976465843617916">
        <ele>101.51</ele>
      </trkpt>
      <trkpt lat="41.31953716278076" lon="1.9762730598449707">
        <ele>100.37</ele>
      </trkpt>
      <trkpt lat="41.31959089078009" lon="1.9759827107191086">
        <ele>99.44</ele>
      </trkpt>
      <trkpt lat="41.31964445114136" lon="1.975693702697754">
        <ele>98.69</ele>
      </trkpt>
      <trkpt lat="41.31964445114136" lon="1.9753503799438477">
        <ele>98.24</ele>
      </trkpt>
      <trkpt lat="41.31975173950195" lon="1.9751787185668945">
        <ele>97.91</ele>
      </trkpt>
      <trkpt lat="41.31977319717407" lon="1.9749641418457031">
        <ele>97.65</ele>
      </trkpt>
      <trkpt lat="41.31975173950195" lon="1.9747495651245117">
        <ele>97.39</ele>
      </trkpt>
      <trkpt lat="41.319730281829834" lon="1.9744062423706055">
        <ele>97.29</ele>
      </trkpt>
      <trkpt lat="41.31964445114136" lon="1.974341869354248">
        <ele>97.13</ele>
      </trkpt>
      <trkpt lat="41.31962299346924" lon="1.9744491577148438">
        <ele>96.99</ele>
      </trkpt>
      <trkpt lat="41.3196337223053" lon="1.974674966186285">
        <ele>96.85</ele>
      </trkpt>
      <trkpt lat="41.31964445114136" lon="1.9748997688293457">
        <ele>96.77</ele>
      </trkpt>
      <trkpt lat="41.31951553747058" lon="1.9751431792974472">
        <ele>96.7</ele>
      </trkpt>
      <trkpt lat="41.3193866237998" lon="1.9753865897655487">
        <ele>96.63</ele>
      </trkpt>
      <trkpt lat="41.31925821304321" lon="1.9756293296813965">
        <ele>96.69</ele>
      </trkpt>
      <trkpt lat="41.319236755371094" lon="1.9758224487304688">
        <ele>96.83</ele>
      </trkpt>
      <trkpt lat="41.319172382354736" lon="1.9759726524353027">
        <ele>97.05</ele>
      </trkpt>
      <trkpt lat="41.319129802286625" lon="1.9760271348059177">
        <ele>97.38</ele>
      </trkpt>
      <trkpt lat="41.31912896409631" lon="1.9760283082723618">
        <ele>97.75</ele>
      </trkpt>
      <trkpt lat="41.31912795826793" lon="1.976029733195901">
        <ele>98.17</ele>
      </trkpt>
      <trkpt lat="41.3190221786499" lon="1.976165771484375">
        <ele>98.81</ele>
      </trkpt>
      <trkpt lat="41.31887197494507" lon="1.976466178894043">
        <ele>99.46</ele>
      </trkpt>
      <trkpt lat="41.31880743429065" lon="1.9766918197274208">
        <ele>99.98</ele>
      </trkpt>
      <trkpt lat="41.31874322891235" lon="1.976916790008545">
        <ele>100.53</ele>
      </trkpt>
      <trkpt lat="41.31858246400952" lon="1.976916790008545">
        <ele>101.38</ele>
      </trkpt>
      <trkpt lat="41.318421363830566" lon="1.976916790008545">
        <ele>102.21</ele>
      </trkpt>
      <trkpt lat="41.31831407546997" lon="1.9769597053527832">
        <ele>103.02</ele>
      </trkpt>
      <trkpt lat="41.31814241409302" lon="1.9771313667297363">
        <ele>103.76</ele>
      </trkpt>
      <trkpt lat="41.31814006716013" lon="1.9771021138876677">
        <ele>104.6</ele>
      </trkpt>
      <trkpt lat="41.3181399833411" lon="1.977100521326065">
        <ele>105.45</ele>
      </trkpt>
      <trkpt lat="41.318139899522066" lon="1.9770985934883356">
        <ele>106.33</ele>
      </trkpt>
      <trkpt lat="41.3181209564209" lon="1.9768524169921875">
        <ele>107.36</ele>
      </trkpt>
      <trkpt lat="41.318228244781494" lon="1.9767022132873535">
        <ele>108.35</ele>
      </trkpt>
      <trkpt lat="41.31833561696112" lon="1.976465843617916">
        <ele>109.37</ele>
      </trkpt>
      <trkpt lat="41.318442821502686" lon="1.9762301445007324">
        <ele>110.46</ele>
      </trkpt>
      <trkpt lat="41.318528736010194" lon="1.9760044198483229">
        <ele>111.54</ele>
      </trkpt>
      <trkpt lat="41.31861448287964" lon="1.9757795333862305">
        <ele>112.66</ele>
      </trkpt>
      <trkpt lat="41.31866821087897" lon="1.97553226724267">
        <ele>113.76</ele>
      </trkpt>
      <trkpt lat="41.318721771240234" lon="1.9752860069274902">
        <ele>114.77</ele>
      </trkpt>
      <trkpt lat="41.31879343651235" lon="1.9749275967478752">
        <ele>115.72</ele>
      </trkpt>
      <trkpt lat="41.31886510178447" lon="1.974569270387292">
        <ele>116.75</ele>
      </trkpt>
      <trkpt lat="41.318936347961426" lon="1.9742131233215332">
        <ele>117.88</ele>
      </trkpt>
      <trkpt lat="41.318947076797485" lon="1.9739442318677902">
        <ele>119.04</ele>
      </trkpt>
      <trkpt lat="41.318957805633545" lon="1.9736766815185547">
        <ele>120.25</ele>
      </trkpt>
      <trkpt lat="41.31891489028931" lon="1.9733119010925293">
        <ele>121.47</ele>
      </trkpt>
      <trkpt lat="41.318926960229874" lon="1.973240152001381">
        <ele>122.54</ele>
      </trkpt>
      <trkpt lat="41.318927295506" lon="1.97323864325881">
        <ele>123.63</ele>
      </trkpt>
      <trkpt lat="41.31892771460116" lon="1.9732367154210806">
        <ele>124.74</ele>
      </trkpt>
      <trkpt lat="41.318980772048235" lon="1.9729249086230993">
        <ele>125.94</ele>
      </trkpt>
      <trkpt lat="41.31903382949531" lon="1.972613101825118">
        <ele>127.15</ele>
      </trkpt>
      <trkpt lat="41.31908655166626" lon="1.9723033905029297">
        <ele>128.35</ele>
      </trkpt>
      <trkpt lat="41.31908663548529" lon="1.9723033905029297">
        <ele>129.56</ele>
      </trkpt>
      <trkpt lat="41.3191294670105" lon="1.9720458984375">
        <ele>130.95</ele>
      </trkpt>
      <trkpt lat="41.319193840026855" lon="1.9718742370605469">
        <ele>132.17</ele>
      </trkpt>
      <trkpt lat="41.319247568026185" lon="1.9715838879346848">
        <ele>133.61</ele>
      </trkpt>
      <trkpt lat="41.31930121220648" lon="1.97129487991333">
        <ele>135.03</ele>
      </trkpt>
      <trkpt lat="41.31940841674805" lon="1.9709300994873047">
        <ele>136.43</ele>
      </trkpt>
      <trkpt lat="41.319429874420166" lon="1.970672607421875">
        <ele>137.82</ele>
      </trkpt>
      <trkpt lat="41.31951570510864" lon="1.9704151153564453">
        <ele>139.04</ele>
      </trkpt>
      <trkpt lat="41.31949424743652" lon="1.9701790809631348">
        <ele>140.47</ele>
      </trkpt>
      <trkpt lat="41.31940841674805" lon="1.9698143005371094">
        <ele>142.01</ele>
      </trkpt>
      <trkpt lat="41.319472789764404" lon="1.9697284698486328">
        <ele>143.01</ele>
      </trkpt>
      <trkpt lat="41.31966590881348" lon="1.969621181488037">
        <ele>143.77</ele>
      </trkpt>
      <trkpt lat="41.31977319717407" lon="1.9694280624389648">
        <ele>144.85</ele>
      </trkpt>
      <trkpt lat="41.31983757019043" lon="1.9691705703735352">
        <ele>145.96</ele>
      </trkpt>
      <trkpt lat="41.31983757019043" lon="1.9689554907381535">
        <ele>147.07</ele>
      </trkpt>
      <trkpt lat="41.31983757019043" lon="1.9687446858733892">
        <ele>147.92</ele>
      </trkpt>
      <trkpt lat="41.31983757019043" lon="1.9687430933117867">
        <ele>148.8</ele>
      </trkpt>
      <trkpt lat="41.31983757019043" lon="1.9687414169311523">
        <ele>149.69</ele>
      </trkpt>
      <trkpt lat="41.31983757019043" lon="1.9686555862426758">
        <ele>150.56</ele>
      </trkpt>
      <trkpt lat="41.31975157186389" lon="1.968408403918147">
        <ele>151.64</ele>
      </trkpt>
      <trkpt lat="41.31966590881348" lon="1.9681620597839355">
        <ele>152.66</ele>
      </trkpt>
      <trkpt lat="41.31962299346924" lon="1.9677972793579102">
        <ele>153.32</ele>
      </trkpt>
      <trkpt lat="41.31949407979846" lon="1.9675394520163536">
        <ele>154.44</ele>
      </trkpt>
      <trkpt lat="41.31936550140381" lon="1.9672822952270508">
        <ele>155.54</ele>
      </trkpt>
      <trkpt lat="41.31915092468262" lon="1.967153549194336">
        <ele>156.9</ele>
      </trkpt>
      <trkpt lat="41.31915092468262" lon="1.9669818878173828">
        <ele>157.97</ele>
      </trkpt>
      <trkpt lat="41.31908655166626" lon="1.9668102264404297">
        <ele>159.24</ele>
      </trkpt>
      <trkpt lat="41.3190221786499" lon="1.9667458534240723">
        <ele>160.54</ele>
      </trkpt>
      <trkpt lat="41.318979263305664" lon="1.9665098190307617">
        <ele>161.87</ele>
      </trkpt>
      <trkpt lat="41.31901144981384" lon="1.9661871995776892">
        <ele>163.17</ele>
      </trkpt>
      <trkpt lat="41.31904363632202" lon="1.9658660888671875">
        <ele>164.69</ele>
      </trkpt>
      <trkpt lat="41.31898982450366" lon="1.9656295515596867">
        <ele>166.12</ele>
      </trkpt>
      <trkpt lat="41.318936347961426" lon="1.9653940200805664">
        <ele>167.48</ele>
      </trkpt>
      <trkpt lat="41.318764770403504" lon="1.9650721549987793">
        <ele>168.76</ele>
      </trkpt>
      <trkpt lat="41.31865739822388" lon="1.964857578277588">
        <ele>170.19</ele>
      </trkpt>
      <trkpt lat="41.31863594055176" lon="1.964728832244873">
        <ele>171.63</ele>
      </trkpt>
      <trkpt lat="41.31865739822388" lon="1.9646644592285156">
        <ele>173.13</ele>
      </trkpt>
      <trkpt lat="41.31845338270068" lon="1.9643853418529034">
        <ele>175.01</ele>
      </trkpt>
      <trkpt lat="41.31824970245361" lon="1.964106559753418">
        <ele>176.99</ele>
      </trkpt>
      <trkpt lat="41.31802707910538" lon="1.9639851059764624">
        <ele>178.76</ele>
      </trkpt>
      <trkpt lat="41.318025989457965" lon="1.9639845192432404">
        <ele>180.44</ele>
      </trkpt>
      <trkpt lat="41.3180242292583" lon="1.9639835972338915">
        <ele>182.27</ele>
      </trkpt>
      <trkpt lat="41.3180136680603" lon="1.9639778137207031">
        <ele>184.28</ele>
      </trkpt>
      <trkpt lat="41.31774930283427" lon="1.9638849422335625">
        <ele>186.62</ele>
      </trkpt>
      <trkpt lat="41.317485021427274" lon="1.9637920707464218">
        <ele>189.08</ele>
      </trkpt>
      <trkpt lat="41.317219734191895" lon="1.9636988639831543">
        <ele>191.93</ele>
      </trkpt>
      <trkpt lat="41.317037511616945" lon="1.963623845949769">
        <ele>194.82</ele>
      </trkpt>
      <trkpt lat="41.31685495376587" lon="1.9635486602783203">
        <ele>198.05</ele>
      </trkpt>
      <trkpt lat="41.316726207733154" lon="1.9634199142456055">
        <ele>201.49</ele>
      </trkpt>
      <trkpt lat="41.31659746170044" lon="1.9633769989013672">
        <ele>205.11</ele>
      </trkpt>
      <trkpt lat="41.3165545463562" lon="1.9632482528686523">
        <ele>208.64</ele>
      </trkpt>
      <trkpt lat="41.31651163101196" lon="1.963183879852295">
        <ele>212.35</ele>
      </trkpt>
      <trkpt lat="41.31627559661865" lon="1.9629693031311035">
        <ele>216.7</ele>
      </trkpt>
      <trkpt lat="41.31614685058594" lon="1.9626688957214355">
        <ele>220.49</ele>
      </trkpt>
      <trkpt lat="41.31601810455322" lon="1.9625186920166016">
        <ele>224.28</ele>
      </trkpt>
      <trkpt lat="41.31591081619263" lon="1.9624543190002441">
        <ele>227.87</ele>
      </trkpt>
      <trkpt lat="41.31584644317627" lon="1.9624972343444824">
        <ele>231.24</ele>
      </trkpt>
      <trkpt lat="41.31582498550415" lon="1.962583065032959">
        <ele>234.35</ele>
      </trkpt>
      <trkpt lat="41.315696239471436" lon="1.9627761840820312">
        <ele>237.58</ele>
      </trkpt>
      <trkpt lat="41.31556749343872" lon="1.9628405570983887">
        <ele>240.25</ele>
      </trkpt>
      <trkpt lat="41.315449392423034" lon="1.9626687280833721">
        <ele>241.97</ele>
      </trkpt>
      <trkpt lat="41.31533145904541" lon="1.9624972343444824">
        <ele>243.22</ele>
      </trkpt>
      <trkpt lat="41.315175388008356" lon="1.9624393992125988">
        <ele>244.46</ele>
      </trkpt>
      <trkpt lat="41.31502208299935" lon="1.9623826537281275">
        <ele>245.42</ele>
      </trkpt>
      <trkpt lat="41.315020909532905" lon="1.962382234632969">
        <ele>246.3</ele>
      </trkpt>
      <trkpt lat="41.31501906551421" lon="1.9623815640807152">
        <ele>246.95</ele>
      </trkpt>
      <trkpt lat="41.31475210189819" lon="1.962282657623291">
        <ele>247.31</ele>
      </trkpt>
      <trkpt lat="41.31476283073425" lon="1.961970767006278">
        <ele>247.8</ele>
      </trkpt>
      <trkpt lat="41.31477355957031" lon="1.961660385131836">
        <ele>248.26</ele>
      </trkpt>
      <trkpt lat="41.31469083018601" lon="1.9616603013128042">
        <ele>248.54</ele>
      </trkpt>
    </trkseg>
  </trk>
</gpx>
