<?xml version="1.0" encoding="UTF-8"?>
<gpx creator="Garmin Connect" version="1.1"
  xsi:schemaLocation="http://www.topografix.com/GPX/1/1 http://www.topografix.com/GPX/11.xsd"
  xmlns:ns3="http://www.garmin.com/xmlschemas/TrackPointExtension/v1"
  xmlns="http://www.topografix.com/GPX/1/1"
  xmlns:xsi="http://www.w3.org/2001/XMLSchema-instance" xmlns:ns2="http://www.garmin.com/xmlschemas/GpxExtensions/v3">
  <metadata>
    <name>GR92 Etappi 19: Baixador de Vallvidrera -&gt; Sant Vicenç dels Horts -pääasema</name>
    <link href="connect.garmin.com">
      <text>Garmin Connect</text>
    </link>
    <time>2026-04-15T08:17:17.000Z</time>
  </metadata>
  <trk>
    <name>GR92 Etappi 19: Baixador de Vallvidrera -&gt; Sant Vicenç dels Horts -pääasema</name>
    <trkseg>
      <trkpt lat="41.420021848753095" lon="2.0967878960072994">
        <ele>240.62</ele>
      </trkpt>
      <trkpt lat="41.41961691901088" lon="2.0971029717475176">
        <ele>244.07</ele>
      </trkpt>
      <trkpt lat="41.419329922646284" lon="2.096947990357876">
        <ele>247.6</ele>
      </trkpt>
      <trkpt lat="41.4188679959625" lon="2.0961419865489006">
        <ele>253.63</ele>
      </trkpt>
      <trkpt lat="41.41923696734011" lon="2.096373997628689">
        <ele>257.31</ele>
      </trkpt>
      <trkpt lat="41.41957593150437" lon="2.0962339360266924">
        <ele>261.22</ele>
      </trkpt>
      <trkpt lat="41.41983996145427" lon="2.0955429319292307">
        <ele>266.62</ele>
      </trkpt>
      <trkpt lat="41.42097897827625" lon="2.094542970880866">
        <ele>270.04</ele>
      </trkpt>
      <trkpt lat="41.421136977151036" lon="2.093796981498599">
        <ele>275.67</ele>
      </trkpt>
      <trkpt lat="41.42061495222151" lon="2.093938970938325">
        <ele>281.65</ele>
      </trkpt>
      <trkpt lat="41.42028294503689" lon="2.094563925638795">
        <ele>287.47</ele>
      </trkpt>
      <trkpt lat="41.4202079270035" lon="2.0941569842398167">
        <ele>293.5</ele>
      </trkpt>
      <trkpt lat="41.41970694065094" lon="2.094646990299225">
        <ele>299.69</ele>
      </trkpt>
      <trkpt lat="41.41967995092273" lon="2.0940229576081038">
        <ele>306.18</ele>
      </trkpt>
      <trkpt lat="41.41886891797185" lon="2.092914953827858">
        <ele>312.73</ele>
      </trkpt>
      <trkpt lat="41.41861695796251" lon="2.092150943353772">
        <ele>319.29</ele>
      </trkpt>
      <trkpt lat="41.41765094362199" lon="2.0925399474799633">
        <ele>323.94</ele>
      </trkpt>
      <trkpt lat="41.41723897308111" lon="2.0922339241951704">
        <ele>328.45</ele>
      </trkpt>
      <trkpt lat="41.41717694699764" lon="2.0908069889992476">
        <ele>334.53</ele>
      </trkpt>
      <trkpt lat="41.41679096035659" lon="2.0908729545772076">
        <ele>338.35</ele>
      </trkpt>
      <trkpt lat="41.41625292599201" lon="2.091923961415887">
        <ele>339.68</ele>
      </trkpt>
      <trkpt lat="41.415655966848135" lon="2.0926609821617603">
        <ele>341.13</ele>
      </trkpt>
      <trkpt lat="41.4155559707433" lon="2.092411955818534">
        <ele>342.56</ele>
      </trkpt>
      <trkpt lat="41.415717992931604" lon="2.0911679975688457">
        <ele>344.52</ele>
      </trkpt>
      <trkpt lat="41.4153159968555" lon="2.0908099226653576">
        <ele>345.65</ele>
      </trkpt>
      <trkpt lat="41.41517392359674" lon="2.0899939443916082">
        <ele>347.6</ele>
      </trkpt>
      <trkpt lat="41.414879970252514" lon="2.090021939948201">
        <ele>348.74</ele>
      </trkpt>
      <trkpt lat="41.41458794474602" lon="2.090620994567871">
        <ele>349.49</ele>
      </trkpt>
      <trkpt lat="41.41424395143986" lon="2.0908429473638535">
        <ele>351.25</ele>
      </trkpt>
      <trkpt lat="41.41405896283686" lon="2.0912339631468058">
        <ele>353.22</ele>
      </trkpt>
      <trkpt lat="41.41376391984522" lon="2.0913289301097393">
        <ele>356.13</ele>
      </trkpt>
      <trkpt lat="41.41321498900652" lon="2.0928749721497297">
        <ele>358.29</ele>
      </trkpt>
      <trkpt lat="41.41274937428534" lon="2.093159621581435">
        <ele>361.87</ele>
      </trkpt>
      <trkpt lat="41.41274895519018" lon="2.093159956857562">
        <ele>365.88</ele>
      </trkpt>
      <trkpt lat="41.41261098906398" lon="2.092699958011508">
        <ele>371.02</ele>
      </trkpt>
      <trkpt lat="41.412666980177164" lon="2.0919849816709757">
        <ele>377.4</ele>
      </trkpt>
      <trkpt lat="41.41384296119213" lon="2.0898219477385283">
        <ele>383.97</ele>
      </trkpt>
      <trkpt lat="41.41370893456042" lon="2.089273938909173">
        <ele>391.22</ele>
      </trkpt>
      <trkpt lat="41.414258955046535" lon="2.08855795674026">
        <ele>397.86</ele>
      </trkpt>
      <trkpt lat="41.4145009405911" lon="2.08862392231822">
        <ele>404.53</ele>
      </trkpt>
      <trkpt lat="41.415313985198736" lon="2.0878849737346172">
        <ele>412.0</ele>
      </trkpt>
      <trkpt lat="41.41609492711723" lon="2.088153949007392">
        <ele>419.77</ele>
      </trkpt>
      <trkpt lat="41.416601948440075" lon="2.08851495757699">
        <ele>426.96</ele>
      </trkpt>
      <trkpt lat="41.4165869448334" lon="2.0881779212504625">
        <ele>433.21</ele>
      </trkpt>
      <trkpt lat="41.41703998669982" lon="2.0870729349553585">
        <ele>440.19</ele>
      </trkpt>
      <trkpt lat="41.417826963588595" lon="2.086299955844879">
        <ele>446.75</ele>
      </trkpt>
      <trkpt lat="41.41791991889477" lon="2.0852469373494387">
        <ele>451.72</ele>
      </trkpt>
      <trkpt lat="41.417586989700794" lon="2.0845159515738487">
        <ele>456.23</ele>
      </trkpt>
      <trkpt lat="41.41702598892152" lon="2.0839529391378164">
        <ele>459.23</ele>
      </trkpt>
      <trkpt lat="41.41673899255693" lon="2.0833609253168106">
        <ele>461.36</ele>
      </trkpt>
      <trkpt lat="41.416149996221066" lon="2.0830219611525536">
        <ele>462.32</ele>
      </trkpt>
      <trkpt lat="41.41567097045481" lon="2.082486944273114">
        <ele>463.23</ele>
      </trkpt>
      <trkpt lat="41.41512296162546" lon="2.081366954371333">
        <ele>462.79</ele>
      </trkpt>
      <trkpt lat="41.41490796580911" lon="2.0799769833683968">
        <ele>460.67</ele>
      </trkpt>
      <trkpt lat="41.41499899327755" lon="2.079065954312682">
        <ele>458.03</ele>
      </trkpt>
      <trkpt lat="41.41516696661711" lon="2.0790469273924828">
        <ele>455.16</ele>
      </trkpt>
      <trkpt lat="41.41570894047618" lon="2.079736925661564">
        <ele>450.99</ele>
      </trkpt>
      <trkpt lat="41.41557591967285" lon="2.0784249901771545">
        <ele>447.32</ele>
      </trkpt>
      <trkpt lat="41.41595997847617" lon="2.077164938673377">
        <ele>442.18</ele>
      </trkpt>
      <trkpt lat="41.41600691713393" lon="2.076284922659397">
        <ele>437.49</ele>
      </trkpt>
      <trkpt lat="41.41635141335428" lon="2.076134132221341">
        <ele>432.51</ele>
      </trkpt>
      <trkpt lat="41.41635191626847" lon="2.0761339645832777">
        <ele>427.4</ele>
      </trkpt>
      <trkpt lat="41.41746997833252" lon="2.0743879303336143">
        <ele>421.34</ele>
      </trkpt>
      <trkpt lat="41.41785194166005" lon="2.0728959515690804">
        <ele>415.05</ele>
      </trkpt>
      <trkpt lat="41.418728940188885" lon="2.072031944990158">
        <ele>409.8</ele>
      </trkpt>
      <trkpt lat="41.419372921809554" lon="2.071973942220211">
        <ele>403.9</ele>
      </trkpt>
      <trkpt lat="41.420018998906016" lon="2.0711109414696693">
        <ele>398.01</ele>
      </trkpt>
      <trkpt lat="41.4201769977808" lon="2.0705539640039206">
        <ele>392.74</ele>
      </trkpt>
      <trkpt lat="41.420170962810516" lon="2.0702459290623665">
        <ele>387.78</ele>
      </trkpt>
      <trkpt lat="41.418962962925434" lon="2.0688929222524166">
        <ele>382.96</ele>
      </trkpt>
      <trkpt lat="41.41843096353114" lon="2.067917939275503">
        <ele>378.2</ele>
      </trkpt>
      <trkpt lat="41.41811295412481" lon="2.0649819262325764">
        <ele>374.01</ele>
      </trkpt>
      <trkpt lat="41.4179009757936" lon="2.0643039979040623">
        <ele>370.3</ele>
      </trkpt>
      <trkpt lat="41.418274976313114" lon="2.0626909844577312">
        <ele>366.71</ele>
      </trkpt>
      <trkpt lat="41.41749495640397" lon="2.0616379659622908">
        <ele>361.69</ele>
      </trkpt>
      <trkpt lat="41.41723193228245" lon="2.0605769846588373">
        <ele>356.99</ele>
      </trkpt>
      <trkpt lat="41.41681996174157" lon="2.059985976666212">
        <ele>352.65</ele>
      </trkpt>
      <trkpt lat="41.416768999770284" lon="2.059598984196782">
        <ele>348.95</ele>
      </trkpt>
      <trkpt lat="41.41648292541504" lon="2.0595879200845957">
        <ele>345.78</ele>
      </trkpt>
      <trkpt lat="41.4161569532007" lon="2.059312993660569">
        <ele>342.69</ele>
      </trkpt>
      <trkpt lat="41.416256949305534" lon="2.0585059840232134">
        <ele>339.79</ele>
      </trkpt>
      <trkpt lat="41.41595997847617" lon="2.057002941146493">
        <ele>337.2</ele>
      </trkpt>
      <trkpt lat="41.417099917307496" lon="2.056086966767907">
        <ele>334.22</ele>
      </trkpt>
      <trkpt lat="41.41718993894756" lon="2.0552869979292154">
        <ele>333.07</ele>
      </trkpt>
      <trkpt lat="41.41762697137892" lon="2.0548929646611214">
        <ele>330.83</ele>
      </trkpt>
      <trkpt lat="41.41807598993182" lon="2.0540409442037344">
        <ele>329.06</ele>
      </trkpt>
      <trkpt lat="41.41799175180495" lon="2.0537525229156017">
        <ele>327.79</ele>
      </trkpt>
      <trkpt lat="41.41799191944301" lon="2.0537529420107603">
        <ele>326.35</ele>
      </trkpt>
      <trkpt lat="41.41738791950047" lon="2.0532469265162945">
        <ele>325.73</ele>
      </trkpt>
      <trkpt lat="41.41756192781031" lon="2.0519039779901505">
        <ele>323.37</ele>
      </trkpt>
      <trkpt lat="41.41775295138359" lon="2.051594937220216">
        <ele>320.88</ele>
      </trkpt>
      <trkpt lat="41.41768497414887" lon="2.0513319969177246">
        <ele>318.88</ele>
      </trkpt>
      <trkpt lat="41.417116932570934" lon="2.0507229678332806">
        <ele>316.9</ele>
      </trkpt>
      <trkpt lat="41.41759998165071" lon="2.0489559788256884">
        <ele>313.46</ele>
      </trkpt>
      <trkpt lat="41.41745396889746" lon="2.04878699965775">
        <ele>310.38</ele>
      </trkpt>
      <trkpt lat="41.41661292873323" lon="2.048754980787635">
        <ele>307.53</ele>
      </trkpt>
      <trkpt lat="41.41635694541037" lon="2.0483749452978373">
        <ele>302.86</ele>
      </trkpt>
      <trkpt lat="41.416107919067144" lon="2.0484669785946608">
        <ele>298.68</ele>
      </trkpt>
      <trkpt lat="41.41594698652625" lon="2.048071939498186">
        <ele>292.78</ele>
      </trkpt>
      <trkpt lat="41.41569293104112" lon="2.047998933121562">
        <ele>287.29</ele>
      </trkpt>
      <trkpt lat="41.415593940764666" lon="2.0476939994841814">
        <ele>280.38</ele>
      </trkpt>
      <trkpt lat="41.415268974378705" lon="2.0474409498274326">
        <ele>273.91</ele>
      </trkpt>
      <trkpt lat="41.41402996145189" lon="2.044657990336418">
        <ele>264.27</ele>
      </trkpt>
      <trkpt lat="41.413786970078945" lon="2.0437449496239424">
        <ele>255.28</ele>
      </trkpt>
      <trkpt lat="41.41373198479414" lon="2.0429399516433477">
        <ele>245.92</ele>
      </trkpt>
      <trkpt lat="41.414132975041866" lon="2.041872935369611">
        <ele>235.96</ele>
      </trkpt>
      <trkpt lat="41.41422995366156" lon="2.039957921952009">
        <ele>224.55</ele>
      </trkpt>
      <trkpt lat="41.413594940677285" lon="2.0384009834378958">
        <ele>213.82</ele>
      </trkpt>
      <trkpt lat="41.41333191655576" lon="2.033871989697218">
        <ele>202.09</ele>
      </trkpt>
      <trkpt lat="41.41292095184326" lon="2.0327479764819145">
        <ele>191.33</ele>
      </trkpt>
      <trkpt lat="41.412801928818226" lon="2.0318859815597534">
        <ele>182.12</ele>
      </trkpt>
      <trkpt lat="41.41255994327366" lon="2.031618934124708">
        <ele>172.74</ele>
      </trkpt>
      <trkpt lat="41.412420719861984" lon="2.0310951489955187">
        <ele>163.96</ele>
      </trkpt>
      <trkpt lat="41.41242097131908" lon="2.031095987185836">
        <ele>155.33</ele>
      </trkpt>
      <trkpt lat="41.412086952477694" lon="2.0311329513788223">
        <ele>146.79</ele>
      </trkpt>
      <trkpt lat="41.41223195940256" lon="2.0309449452906847">
        <ele>138.82</ele>
      </trkpt>
      <trkpt lat="41.412086952477694" lon="2.0311329513788223">
        <ele>146.79</ele>
      </trkpt>
      <trkpt lat="41.41242097131908" lon="2.031095987185836">
        <ele>155.33</ele>
      </trkpt>
      <trkpt lat="41.41282497905195" lon="2.031970974057913">
        <ele>115.6</ele>
      </trkpt>
      <trkpt lat="41.41307199373841" lon="2.0317239593714476">
        <ele>108.34</ele>
      </trkpt>
      <trkpt lat="41.412775944918394" lon="2.030857941135764">
        <ele>100.3</ele>
      </trkpt>
      <trkpt lat="41.41295397654176" lon="2.027585981413722">
        <ele>90.89</ele>
      </trkpt>
      <trkpt lat="41.41225199215114" lon="2.0274429861456156">
        <ele>83.89</ele>
      </trkpt>
      <trkpt lat="41.41214495524764" lon="2.027193959802389">
        <ele>76.98</ele>
      </trkpt>
      <trkpt lat="41.41233799047768" lon="2.021618988364935">
        <ele>67.42</ele>
      </trkpt>
      <trkpt lat="41.41307299956679" lon="2.020766967907548">
        <ele>61.08</ele>
      </trkpt>
      <trkpt lat="41.41235793940723" lon="2.0208009984344244">
        <ele>55.0</ele>
      </trkpt>
      <trkpt lat="41.412043953314424" lon="2.0201029535382986">
        <ele>49.29</ele>
      </trkpt>
      <trkpt lat="41.411766931414604" lon="2.019972950220108">
        <ele>44.15</ele>
      </trkpt>
      <trkpt lat="41.41205694526434" lon="2.019759966060519">
        <ele>39.74</ele>
      </trkpt>
      <trkpt lat="41.4121609646827" lon="2.0181639678776264">
        <ele>35.45</ele>
      </trkpt>
      <trkpt lat="41.41061592847109" lon="2.01935394667089">
        <ele>31.6</ele>
      </trkpt>
      <trkpt lat="41.409725937992334" lon="2.0191049203276634">
        <ele>28.54</ele>
      </trkpt>
      <trkpt lat="41.40988796018064" lon="2.0176379196345806">
        <ele>25.79</ele>
      </trkpt>
      <trkpt lat="41.409625355154276" lon="2.0160578470677137">
        <ele>23.54</ele>
      </trkpt>
      <trkpt lat="41.40966994687915" lon="2.0161999203264713">
        <ele>21.84</ele>
      </trkpt>
      <trkpt lat="41.40960993245244" lon="2.016209978610277">
        <ele>20.47</ele>
      </trkpt>
      <trkpt lat="41.40953994356096" lon="2.0160899497568607">
        <ele>19.4</ele>
      </trkpt>
      <trkpt lat="41.40941983088851" lon="2.0157029572874308">
        <ele>18.51</ele>
      </trkpt>
      <trkpt lat="41.409359984099865" lon="2.01550992205739">
        <ele>18.08</ele>
      </trkpt>
      <trkpt lat="41.40928999520838" lon="2.0153799187391996">
        <ele>17.88</ele>
      </trkpt>
      <trkpt lat="41.409339951351285" lon="2.015319988131523">
        <ele>17.83</ele>
      </trkpt>
      <trkpt lat="41.40929996967316" lon="2.0153299625962973">
        <ele>18.01</ele>
      </trkpt>
      <trkpt lat="41.40917608514428" lon="2.01494506560266">
        <ele>18.31</ele>
      </trkpt>
      <trkpt lat="41.40905228443444" lon="2.0145600847899914">
        <ele>18.7</ele>
      </trkpt>
      <trkpt lat="41.408929992467165" lon="2.014179965481162">
        <ele>19.24</ele>
      </trkpt>
      <trkpt lat="41.40889998525381" lon="2.013969998806715">
        <ele>19.89</ele>
      </trkpt>
      <trkpt lat="41.4087881706655" lon="2.013578563928604">
        <ele>20.57</ele>
      </trkpt>
      <trkpt lat="41.408759923651814" lon="2.013479992747307">
        <ele>21.18</ele>
      </trkpt>
      <trkpt lat="41.408669985830784" lon="2.013439927250147">
        <ele>21.73</ele>
      </trkpt>
      <trkpt lat="41.40854828059673" lon="2.0130538567900658">
        <ele>22.13</ele>
      </trkpt>
      <trkpt lat="41.408426659181714" lon="2.012667702510953">
        <ele>22.66</ele>
      </trkpt>
      <trkpt lat="41.40830495394766" lon="2.01228154823184">
        <ele>23.23</ele>
      </trkpt>
      <trkpt lat="41.408183332532644" lon="2.0118953939527273">
        <ele>23.75</ele>
      </trkpt>
      <trkpt lat="41.40806162729859" lon="2.0115092396736145">
        <ele>24.18</ele>
      </trkpt>
      <trkpt lat="41.407940005883574" lon="2.0111230853945017">
        <ele>24.84</ele>
      </trkpt>
      <trkpt lat="41.407818300649524" lon="2.0107370149344206">
        <ele>25.56</ele>
      </trkpt>
      <trkpt lat="41.407749988138676" lon="2.0105199236422777">
        <ele>26.0</ele>
      </trkpt>
      <trkpt lat="41.40762937255204" lon="2.0101332664489746">
        <ele>26.34</ele>
      </trkpt>
      <trkpt lat="41.4075087569654" lon="2.00974652543664">
        <ele>26.71</ele>
      </trkpt>
      <trkpt lat="41.40738814137876" lon="2.009359784424305">
        <ele>26.94</ele>
      </trkpt>
      <trkpt lat="41.407267609611154" lon="2.00897304341197">
        <ele>27.03</ele>
      </trkpt>
      <trkpt lat="41.407169960439205" lon="2.008659979328513">
        <ele>27.12</ele>
      </trkpt>
      <trkpt lat="41.40713995322585" lon="2.0086799282580614">
        <ele>27.08</ele>
      </trkpt>
      <trkpt lat="41.40718596987426" lon="2.009094078093767">
        <ele>26.94</ele>
      </trkpt>
      <trkpt lat="41.407189993187785" lon="2.0091299526393414">
        <ele>26.79</ele>
      </trkpt>
      <trkpt lat="41.407290995121" lon="2.009526416659355">
        <ele>26.6</ele>
      </trkpt>
      <trkpt lat="41.407319996505976" lon="2.0096399914473295">
        <ele>26.32</ele>
      </trkpt>
      <trkpt lat="41.40736995264888" lon="2.0098599325865507">
        <ele>25.97</ele>
      </trkpt>
      <trkpt lat="41.407189993187785" lon="2.009999994188547">
        <ele>25.52</ele>
      </trkpt>
      <trkpt lat="41.4068871550262" lon="2.010116083547473">
        <ele>25.07</ele>
      </trkpt>
      <trkpt lat="41.40658440068364" lon="2.0102322567254305">
        <ele>24.74</ele>
      </trkpt>
      <trkpt lat="41.406459929421544" lon="2.0102799497544765">
        <ele>24.3</ele>
      </trkpt>
      <trkpt lat="41.40637996606529" lon="2.0103299897164106">
        <ele>23.9</ele>
      </trkpt>
      <trkpt lat="41.40622992999852" lon="2.010349938645959">
        <ele>23.48</ele>
      </trkpt>
      <trkpt lat="41.40620998106897" lon="2.0105599891394377">
        <ele>23.18</ele>
      </trkpt>
      <trkpt lat="41.4062687382102" lon="2.0109712053090334">
        <ele>23.07</ele>
      </trkpt>
      <trkpt lat="41.406327495351434" lon="2.011382421478629">
        <ele>22.77</ele>
      </trkpt>
      <trkpt lat="41.40632992610335" lon="2.0113999396562576">
        <ele>22.51</ele>
      </trkpt>
      <trkpt lat="41.40646998770535" lon="2.0116199646145105">
        <ele>22.14</ele>
      </trkpt>
      <trkpt lat="41.40640997327864" lon="2.011689953505993">
        <ele>21.96</ele>
      </trkpt>
      <trkpt lat="41.40629991889" lon="2.011699927970767">
        <ele>21.88</ele>
      </trkpt>
      <trkpt lat="41.40620998106897" lon="2.011739993467927">
        <ele>21.83</ele>
      </trkpt>
      <trkpt lat="41.406097412109375" lon="2.0113489776849747">
        <ele>21.98</ele>
      </trkpt>
      <trkpt lat="41.40601996332407" lon="2.0110799185931683">
        <ele>21.94</ele>
      </trkpt>
      <trkpt lat="41.40591996721923" lon="2.0107899885624647">
        <ele>21.87</ele>
      </trkpt>
      <trkpt lat="41.40573992393911" lon="2.0104899164289236">
        <ele>21.95</ele>
      </trkpt>
      <trkpt lat="41.40560707077384" lon="2.0101103838533163">
        <ele>22.34</ele>
      </trkpt>
      <trkpt lat="41.405599946156144" lon="2.0100899320095778">
        <ele>22.59</ele>
      </trkpt>
      <trkpt lat="41.405480755493045" lon="2.009702520444989">
        <ele>22.96</ele>
      </trkpt>
      <trkpt lat="41.405361481010914" lon="2.009315025061369">
        <ele>23.27</ele>
      </trkpt>
      <trkpt lat="41.405242290347815" lon="2.0089275296777487">
        <ele>23.66</ele>
      </trkpt>
      <trkpt lat="41.405123099684715" lon="2.00854011811316">
        <ele>24.14</ele>
      </trkpt>
      <trkpt lat="41.40511999838054" lon="2.0085299760103226">
        <ele>24.5</ele>
      </trkpt>
      <trkpt lat="41.404995024204254" lon="2.0081456657499075">
        <ele>24.91</ele>
      </trkpt>
      <trkpt lat="41.404870133847" lon="2.0077613554894924">
        <ele>25.25</ele>
      </trkpt>
      <trkpt lat="41.40474524348974" lon="2.0073770452290773">
        <ele>25.57</ele>
      </trkpt>
      <trkpt lat="41.404620353132486" lon="2.006992818787694">
        <ele>25.86</ele>
      </trkpt>
      <trkpt lat="41.40449546277523" lon="2.006608508527279">
        <ele>26.19</ele>
      </trkpt>
      <trkpt lat="41.404370572417974" lon="2.006224198266864">
        <ele>26.69</ele>
      </trkpt>
      <trkpt lat="41.4043399784714" lon="2.0061299856752157">
        <ele>27.1</ele>
      </trkpt>
      <trkpt lat="41.404229924082756" lon="2.0057799573987722">
        <ele>27.62</ele>
      </trkpt>
      <trkpt lat="41.404139986261725" lon="2.005659928545356">
        <ele>28.07</ele>
      </trkpt>
      <trkpt lat="41.403989950194955" lon="2.005569990724325">
        <ele>28.4</ele>
      </trkpt>
      <trkpt lat="41.40392993576825" lon="2.0054499618709087">
        <ele>28.75</ele>
      </trkpt>
      <trkpt lat="41.40386992134154" lon="2.0054499618709087">
        <ele>29.05</ele>
      </trkpt>
      <trkpt lat="41.403819965198636" lon="2.005479969084263">
        <ele>29.35</ele>
      </trkpt>
      <trkpt lat="41.403749976307154" lon="2.005479969084263">
        <ele>29.66</ele>
      </trkpt>
      <trkpt lat="41.403729943558574" lon="2.005549957975745">
        <ele>29.96</ele>
      </trkpt>
      <trkpt lat="41.40360999852419" lon="2.005549957975745">
        <ele>30.23</ele>
      </trkpt>
      <trkpt lat="41.4032952580601" lon="2.0055713318288326">
        <ele>30.66</ele>
      </trkpt>
      <trkpt lat="41.403019996359944" lon="2.0055899396538734">
        <ele>31.05</ele>
      </trkpt>
      <trkpt lat="41.40279997140169" lon="2.0055799651890993">
        <ele>31.41</ele>
      </trkpt>
      <trkpt lat="41.4026699680835" lon="2.005519950762391">
        <ele>31.75</ele>
      </trkpt>
      <trkpt lat="41.402357490733266" lon="2.0054658874869347">
        <ele>32.07</ele>
      </trkpt>
      <trkpt lat="41.40214995481074" lon="2.0054299291223288">
        <ele>32.41</ele>
      </trkpt>
      <trkpt lat="41.402079965919256" lon="2.005339991301298">
        <ele>32.75</ele>
      </trkpt>
      <trkpt lat="41.401969995349646" lon="2.0053499657660723">
        <ele>33.07</ele>
      </trkpt>
      <trkpt lat="41.40175994485617" lon="2.0052399951964617">
        <ele>33.51</ele>
      </trkpt>
      <trkpt lat="41.401709988713264" lon="2.005289951339364">
        <ele>33.76</ele>
      </trkpt>
      <trkpt lat="41.40158995985985" lon="2.005289951339364">
        <ele>34.04</ele>
      </trkpt>
      <trkpt lat="41.401519970968366" lon="2.0052199624478817">
        <ele>34.29</ele>
      </trkpt>
      <trkpt lat="41.40148996375501" lon="2.005109991878271">
        <ele>34.47</ele>
      </trkpt>
      <trkpt lat="41.40148996375501" lon="2.005079984664917">
        <ele>34.53</ele>
      </trkpt>
      <trkpt lat="41.4013799931854" lon="2.0051199663430452">
        <ele>34.59</ele>
      </trkpt>
      <trkpt lat="41.40110104344785" lon="2.005314761772752">
        <ele>34.47</ele>
      </trkpt>
      <trkpt lat="41.4008220937103" lon="2.0055095572024584">
        <ele>34.32</ele>
      </trkpt>
      <trkpt lat="41.400749925523996" lon="2.0055599324405193">
        <ele>34.3</ele>
      </trkpt>
      <trkpt lat="41.40046703629196" lon="2.005744334310293">
        <ele>34.24</ele>
      </trkpt>
      <trkpt lat="41.40018414705992" lon="2.005928736180067">
        <ele>34.13</ele>
      </trkpt>
      <trkpt lat="41.399901174008846" lon="2.006113054230809">
        <ele>34.09</ele>
      </trkpt>
      <trkpt lat="41.39985993504524" lon="2.00613996013999">
        <ele>34.1</ele>
      </trkpt>
      <trkpt lat="41.39957939274609" lon="2.0063305646181107">
        <ele>34.16</ele>
      </trkpt>
      <trkpt lat="41.39929885044694" lon="2.0065210852771997">
        <ele>34.18</ele>
      </trkpt>
      <trkpt lat="41.399018224328756" lon="2.0067116897553205">
        <ele>34.35</ele>
      </trkpt>
      <trkpt lat="41.398737682029605" lon="2.0069022942334414">
        <ele>34.48</ele>
      </trkpt>
      <trkpt lat="41.39845705591142" lon="2.0070928148925304">
        <ele>34.67</ele>
      </trkpt>
      <trkpt lat="41.39817651361227" lon="2.0072834193706512">
        <ele>34.89</ele>
      </trkpt>
      <trkpt lat="41.39789597131312" lon="2.007474023848772">
        <ele>34.92</ele>
      </trkpt>
      <trkpt lat="41.3977399840951" lon="2.0075799711048603">
        <ele>34.85</ele>
      </trkpt>
      <trkpt lat="41.39755994081497" lon="2.0076799672096968">
        <ele>34.82</ele>
      </trkpt>
      <trkpt lat="41.39725995250046" lon="2.0078081265091896">
        <ele>35.13</ele>
      </trkpt>
      <trkpt lat="41.39695996418595" lon="2.007936369627714">
        <ele>35.56</ele>
      </trkpt>
      <trkpt lat="41.396659975871444" lon="2.008064528927207">
        <ele>35.5</ele>
      </trkpt>
      <trkpt lat="41.39638999477029" lon="2.008179947733879">
        <ele>35.36</ele>
      </trkpt>
      <trkpt lat="41.396085396409035" lon="2.0082876551896334">
        <ele>35.37</ele>
      </trkpt>
      <trkpt lat="41.39578088186681" lon="2.0083953626453876">
        <ele>35.49</ele>
      </trkpt>
      <trkpt lat="41.39556999318302" lon="2.0084699615836143">
        <ele>35.79</ele>
      </trkpt>
      <trkpt lat="41.39527788385749" lon="2.0086272060871124">
        <ele>36.22</ele>
      </trkpt>
      <trkpt lat="41.395179983228445" lon="2.0086799282580614">
        <ele>36.56</ele>
      </trkpt>
      <trkpt lat="41.39490086585283" lon="2.0088743045926094">
        <ele>36.93</ele>
      </trkpt>
      <trkpt lat="41.39462174847722" lon="2.0090685971081257">
        <ele>37.08</ele>
      </trkpt>
      <trkpt lat="41.39438998885453" lon="2.009229948744178">
        <ele>37.03</ele>
      </trkpt>
      <trkpt lat="41.39432997442782" lon="2.0092099998146296">
        <ele>36.94</ele>
      </trkpt>
      <trkpt lat="41.3940148986876" lon="2.009217794984579">
        <ele>36.7</ele>
      </trkpt>
      <trkpt lat="41.39392999000847" lon="2.0092199742794037">
        <ele>36.23</ele>
      </trkpt>
      <trkpt lat="41.39361516572535" lon="2.009238498285413">
        <ele>35.55</ele>
      </trkpt>
      <trkpt lat="41.393419951200485" lon="2.009249981492758">
        <ele>35.22</ele>
      </trkpt>
    </trkseg>
  </trk>
</gpx>
