<?xml version="1.0" encoding="UTF-8" standalone="yes"?>
<gpx version="1.1" creator="outdooractive - http://www.outdooractive.com" xmlns="http://www.topografix.com/GPX/1/1" xmlns:oa="http://www.outdooractive.com/GPX/Extensions/1" xmlns:xsi="http://www.w3.org/2001/XMLSchema-instance" xsi:schemaLocation="http://www.topografix.com/GPX/1/1 http://www.topografix.com/GPX/1/1/gpx.xsd http://www.outdooractive.com/GPX/Extensions/1 https://www.outdooractive.com/schema/gpx_extensions.xsd">
  <metadata>
    <name>GR92 E23 Vilanova i la Geltrú–Calafell</name>
    <author>
      <name>Jari Tossavainen - Community</name>
    </author>
    <link href="https://www.outdooractive.com/r/353454408"/>
    <time>2026-09-21T11:16:51.222Z</time>
    <extensions>
      <oa:oaCategory>longDistanceHikingTrail</oa:oaCategory>
    </extensions>
  </metadata>
  <trk>
    <name>GR92 E23 Vilanova i la Geltrú–Calafell</name>
    <type>longDistanceHikingTrail</type>
    <trkseg>
      <trkpt lat="41.220321" lon="1.730735">
        <ele>9.7</ele>
        <name>Vilanova i la Geltrú, Vilanova i la Geltrú, Garraf</name>
        <extensions>
          <oa:Extension>
            <oa:mapZoom>17</oa:mapZoom>
          </oa:Extension>
        </extensions>
      </trkpt>
      <trkpt lat="41.220329" lon="1.730731">
        <ele>9.6</ele>
      </trkpt>
      <trkpt lat="41.220196" lon="1.730183">
        <ele>9.5</ele>
      </trkpt>
      <trkpt lat="41.220545" lon="1.730016">
        <ele>9.5</ele>
      </trkpt>
      <trkpt lat="41.220409" lon="1.729594">
        <ele>9.8</ele>
      </trkpt>
      <trkpt lat="41.220248" lon="1.729039">
        <ele>10.2</ele>
      </trkpt>
      <trkpt lat="41.220135" lon="1.728679">
        <ele>10.5</ele>
      </trkpt>
      <trkpt lat="41.220083" lon="1.728499">
        <ele>10.7</ele>
      </trkpt>
      <trkpt lat="41.220075" lon="1.728478">
        <ele>10.7</ele>
      </trkpt>
      <trkpt lat="41.220061" lon="1.72844">
        <ele>10.6</ele>
      </trkpt>
      <trkpt lat="41.219803" lon="1.728575">
        <ele>10.1</ele>
      </trkpt>
      <trkpt lat="41.219545" lon="1.72871">
        <ele>9.0</ele>
      </trkpt>
      <trkpt lat="41.219317" lon="1.728822">
        <ele>6.6</ele>
      </trkpt>
      <trkpt lat="41.219076" lon="1.728943">
        <ele>9.1</ele>
      </trkpt>
      <trkpt lat="41.218835" lon="1.729064">
        <ele>8.7</ele>
      </trkpt>
      <trkpt lat="41.218816" lon="1.728999">
        <ele>8.8</ele>
      </trkpt>
      <trkpt lat="41.218774" lon="1.729019">
        <ele>8.7</ele>
      </trkpt>
      <trkpt lat="41.218749" lon="1.729028">
        <ele>8.7</ele>
      </trkpt>
      <trkpt lat="41.218736" lon="1.729034">
        <ele>8.7</ele>
      </trkpt>
      <trkpt lat="41.218722" lon="1.729048">
        <ele>8.6</ele>
      </trkpt>
      <trkpt lat="41.218633" lon="1.729092">
        <ele>8.5</ele>
      </trkpt>
      <trkpt lat="41.218423" lon="1.729196">
        <ele>8.0</ele>
      </trkpt>
      <trkpt lat="41.218108" lon="1.729353">
        <ele>7.4</ele>
      </trkpt>
      <trkpt lat="41.217821" lon="1.7295">
        <ele>6.9</ele>
      </trkpt>
      <trkpt lat="41.217795" lon="1.729513">
        <ele>6.9</ele>
      </trkpt>
      <trkpt lat="41.217732" lon="1.729548">
        <ele>6.8</ele>
      </trkpt>
      <trkpt lat="41.217704" lon="1.729564">
        <ele>6.7</ele>
      </trkpt>
      <trkpt lat="41.217669" lon="1.729578">
        <ele>6.7</ele>
      </trkpt>
      <trkpt lat="41.217675" lon="1.7296">
        <ele>6.7</ele>
      </trkpt>
      <trkpt lat="41.217745" lon="1.729826">
        <ele>6.6</ele>
      </trkpt>
      <trkpt lat="41.217758" lon="1.729818">
        <ele>6.6</ele>
      </trkpt>
      <trkpt lat="41.21776" lon="1.729846">
        <ele>6.5</ele>
      </trkpt>
      <trkpt lat="41.217747" lon="1.729862">
        <ele>6.6</ele>
      </trkpt>
      <trkpt lat="41.21746" lon="1.730054">
        <ele>5.9</ele>
      </trkpt>
      <trkpt lat="41.217445" lon="1.730099">
        <ele>5.8</ele>
      </trkpt>
      <trkpt lat="41.21724" lon="1.730244">
        <ele>5.3</ele>
      </trkpt>
      <trkpt lat="41.217035" lon="1.73039">
        <ele>4.7</ele>
      </trkpt>
      <trkpt lat="41.217002" lon="1.730413">
        <ele>4.7</ele>
      </trkpt>
      <trkpt lat="41.216977" lon="1.730431">
        <ele>4.6</ele>
      </trkpt>
      <trkpt lat="41.216996" lon="1.730478">
        <ele>4.6</ele>
      </trkpt>
      <trkpt lat="41.217005" lon="1.730504">
        <ele>4.6</ele>
      </trkpt>
      <trkpt lat="41.216979" lon="1.730525">
        <ele>4.6</ele>
      </trkpt>
      <trkpt lat="41.216662" lon="1.730749">
        <ele>3.6</ele>
      </trkpt>
      <trkpt lat="41.21666" lon="1.730768">
        <ele>3.6</ele>
      </trkpt>
      <trkpt lat="41.216631" lon="1.730786">
        <ele>3.5</ele>
      </trkpt>
      <trkpt lat="41.21659" lon="1.730807">
        <ele>3.4</ele>
      </trkpt>
      <trkpt lat="41.216576" lon="1.730804">
        <ele>3.4</ele>
      </trkpt>
      <trkpt lat="41.216474" lon="1.730863">
        <ele>2.9</ele>
      </trkpt>
      <trkpt lat="41.216336" lon="1.730942">
        <ele>2.7</ele>
      </trkpt>
      <trkpt lat="41.216334" lon="1.730958">
        <ele>2.7</ele>
      </trkpt>
      <trkpt lat="41.216294" lon="1.730974">
        <ele>2.5</ele>
      </trkpt>
      <trkpt lat="41.216272" lon="1.730989">
        <ele>2.5</ele>
      </trkpt>
      <trkpt lat="41.216259" lon="1.73099">
        <ele>2.5</ele>
      </trkpt>
      <trkpt lat="41.216118" lon="1.731056">
        <ele>2.3</ele>
      </trkpt>
      <trkpt lat="41.216104" lon="1.731072">
        <ele>2.2</ele>
      </trkpt>
      <trkpt lat="41.216091" lon="1.731104">
        <ele>2.2</ele>
      </trkpt>
      <trkpt lat="41.216101" lon="1.731186">
        <ele>2.2</ele>
      </trkpt>
      <trkpt lat="41.21608" lon="1.731194">
        <ele>2.1</ele>
      </trkpt>
      <trkpt lat="41.216049" lon="1.731205">
        <ele>2.0</ele>
      </trkpt>
      <trkpt lat="41.215985" lon="1.73124">
        <ele>2.0</ele>
      </trkpt>
      <trkpt lat="41.215942" lon="1.731254">
        <ele>1.9</ele>
      </trkpt>
      <trkpt lat="41.215903" lon="1.731267">
        <ele>1.9</ele>
      </trkpt>
      <trkpt lat="41.215893" lon="1.731228">
        <ele>1.8</ele>
      </trkpt>
      <trkpt lat="41.215885" lon="1.731195">
        <ele>1.8</ele>
      </trkpt>
      <trkpt lat="41.215879" lon="1.731171">
        <ele>1.8</ele>
      </trkpt>
      <trkpt lat="41.215779" lon="1.730785">
        <ele>2.2</ele>
      </trkpt>
      <trkpt lat="41.215691" lon="1.730448">
        <ele>2.0</ele>
        <name>Passeig Marítim, Vilanova i la Geltrú, Garraf</name>
        <extensions>
          <oa:Extension>
            <oa:mapZoom>17</oa:mapZoom>
          </oa:Extension>
        </extensions>
      </trkpt>
      <trkpt lat="41.215679" lon="1.730399">
        <ele>2.0</ele>
      </trkpt>
      <trkpt lat="41.215579" lon="1.730014">
        <ele>1.9</ele>
      </trkpt>
      <trkpt lat="41.215476" lon="1.729577">
        <ele>2.0</ele>
      </trkpt>
      <trkpt lat="41.21539" lon="1.729227">
        <ele>1.8</ele>
      </trkpt>
      <trkpt lat="41.215312" lon="1.728915">
        <ele>2.1</ele>
      </trkpt>
      <trkpt lat="41.215234" lon="1.728602">
        <ele>2.2</ele>
      </trkpt>
      <trkpt lat="41.215158" lon="1.728302">
        <ele>2.5</ele>
      </trkpt>
      <trkpt lat="41.215116" lon="1.7279">
        <ele>2.7</ele>
      </trkpt>
      <trkpt lat="41.215018" lon="1.727779">
        <ele>2.6</ele>
      </trkpt>
      <trkpt lat="41.214992" lon="1.727759">
        <ele>2.4</ele>
      </trkpt>
      <trkpt lat="41.214962" lon="1.727734">
        <ele>2.4</ele>
      </trkpt>
      <trkpt lat="41.214898" lon="1.727645">
        <ele>2.4</ele>
      </trkpt>
      <trkpt lat="41.214886" lon="1.727583">
        <ele>2.4</ele>
      </trkpt>
      <trkpt lat="41.214884" lon="1.72751">
        <ele>2.4</ele>
      </trkpt>
      <trkpt lat="41.214898" lon="1.727471">
        <ele>2.4</ele>
      </trkpt>
      <trkpt lat="41.214914" lon="1.727431">
        <ele>2.4</ele>
      </trkpt>
      <trkpt lat="41.214915" lon="1.727401">
        <ele>2.5</ele>
      </trkpt>
      <trkpt lat="41.214916" lon="1.727375">
        <ele>2.6</ele>
      </trkpt>
      <trkpt lat="41.214915" lon="1.727355">
        <ele>2.6</ele>
      </trkpt>
      <trkpt lat="41.21491" lon="1.727324">
        <ele>2.6</ele>
      </trkpt>
      <trkpt lat="41.214905" lon="1.727277">
        <ele>2.7</ele>
      </trkpt>
      <trkpt lat="41.214867" lon="1.727174">
        <ele>2.9</ele>
      </trkpt>
      <trkpt lat="41.21483" lon="1.727153">
        <ele>2.9</ele>
      </trkpt>
      <trkpt lat="41.214797" lon="1.727134">
        <ele>2.9</ele>
      </trkpt>
      <trkpt lat="41.214451" lon="1.726963">
        <ele>2.8</ele>
      </trkpt>
      <trkpt lat="41.21438" lon="1.726995">
        <ele>2.8</ele>
      </trkpt>
      <trkpt lat="41.214375" lon="1.726935">
        <ele>2.8</ele>
      </trkpt>
      <trkpt lat="41.214146" lon="1.726806">
        <ele>2.8</ele>
      </trkpt>
      <trkpt lat="41.213917" lon="1.726676">
        <ele>2.7</ele>
      </trkpt>
      <trkpt lat="41.213674" lon="1.726561">
        <ele>2.7</ele>
      </trkpt>
      <trkpt lat="41.213431" lon="1.726446">
        <ele>2.8</ele>
      </trkpt>
      <trkpt lat="41.213439" lon="1.72639">
        <ele>2.9</ele>
      </trkpt>
      <trkpt lat="41.213435" lon="1.72634">
        <ele>2.7</ele>
      </trkpt>
      <trkpt lat="41.213434" lon="1.726292">
        <ele>2.2</ele>
      </trkpt>
      <trkpt lat="41.213442" lon="1.726119">
        <ele>2.2</ele>
      </trkpt>
      <trkpt lat="41.213438" lon="1.726017">
        <ele>2.3</ele>
      </trkpt>
      <trkpt lat="41.213443" lon="1.725941">
        <ele>3.0</ele>
      </trkpt>
      <trkpt lat="41.213455" lon="1.72574">
        <ele>2.9</ele>
      </trkpt>
      <trkpt lat="41.213481" lon="1.725529">
        <ele>2.9</ele>
      </trkpt>
      <trkpt lat="41.213487" lon="1.725304">
        <ele>2.6</ele>
      </trkpt>
      <trkpt lat="41.213497" lon="1.725006">
        <ele>2.7</ele>
      </trkpt>
      <trkpt lat="41.213495" lon="1.724846">
        <ele>2.7</ele>
      </trkpt>
      <trkpt lat="41.21346" lon="1.724754">
        <ele>2.6</ele>
      </trkpt>
      <trkpt lat="41.213426" lon="1.724665">
        <ele>2.6</ele>
      </trkpt>
      <trkpt lat="41.213425" lon="1.724567">
        <ele>2.8</ele>
      </trkpt>
      <trkpt lat="41.213461" lon="1.724452">
        <ele>2.5</ele>
      </trkpt>
      <trkpt lat="41.213547" lon="1.724356">
        <ele>2.8</ele>
      </trkpt>
      <trkpt lat="41.213534" lon="1.724114">
        <ele>2.8</ele>
      </trkpt>
      <trkpt lat="41.213561" lon="1.723537">
        <ele>3.0</ele>
      </trkpt>
      <trkpt lat="41.213527" lon="1.723356">
        <ele>3.0</ele>
      </trkpt>
      <trkpt lat="41.213504" lon="1.723098">
        <ele>3.3</ele>
      </trkpt>
      <trkpt lat="41.21348" lon="1.722744">
        <ele>3.8</ele>
        <name>Passeig Marítim de Ribes Roges, Vilanova i la Geltrú, Garraf</name>
        <extensions>
          <oa:Extension>
            <oa:mapZoom>16</oa:mapZoom>
          </oa:Extension>
        </extensions>
      </trkpt>
      <trkpt lat="41.213476" lon="1.722674">
        <ele>3.9</ele>
      </trkpt>
      <trkpt lat="41.213492" lon="1.722615">
        <ele>4.1</ele>
      </trkpt>
      <trkpt lat="41.213527" lon="1.722499">
        <ele>4.1</ele>
      </trkpt>
      <trkpt lat="41.213434" lon="1.722203">
        <ele>4.0</ele>
      </trkpt>
      <trkpt lat="41.213395" lon="1.722072">
        <ele>4.0</ele>
      </trkpt>
      <trkpt lat="41.213333" lon="1.721866">
        <ele>3.9</ele>
      </trkpt>
      <trkpt lat="41.21332" lon="1.721818">
        <ele>3.8</ele>
      </trkpt>
      <trkpt lat="41.213221" lon="1.721463">
        <ele>3.8</ele>
      </trkpt>
      <trkpt lat="41.213106" lon="1.721091">
        <ele>3.6</ele>
      </trkpt>
      <trkpt lat="41.213016" lon="1.720756">
        <ele>3.5</ele>
      </trkpt>
      <trkpt lat="41.212902" lon="1.720378">
        <ele>3.2</ele>
      </trkpt>
      <trkpt lat="41.212811" lon="1.720066">
        <ele>3.2</ele>
      </trkpt>
      <trkpt lat="41.212769" lon="1.719846">
        <ele>3.3</ele>
      </trkpt>
      <trkpt lat="41.2127" lon="1.719438">
        <ele>3.4</ele>
      </trkpt>
      <trkpt lat="41.212635" lon="1.719049">
        <ele>3.4</ele>
      </trkpt>
      <trkpt lat="41.212615" lon="1.718894">
        <ele>3.5</ele>
      </trkpt>
      <trkpt lat="41.212586" lon="1.71874">
        <ele>3.5</ele>
      </trkpt>
      <trkpt lat="41.212528" lon="1.718372">
        <ele>3.4</ele>
      </trkpt>
      <trkpt lat="41.212477" lon="1.718087">
        <ele>3.3</ele>
      </trkpt>
      <trkpt lat="41.21245" lon="1.717958">
        <ele>3.3</ele>
      </trkpt>
      <trkpt lat="41.212418" lon="1.717802">
        <ele>3.2</ele>
      </trkpt>
      <trkpt lat="41.212393" lon="1.717685">
        <ele>3.2</ele>
      </trkpt>
      <trkpt lat="41.212346" lon="1.717473">
        <ele>3.2</ele>
      </trkpt>
      <trkpt lat="41.212323" lon="1.717369">
        <ele>3.2</ele>
      </trkpt>
      <trkpt lat="41.212296" lon="1.717252">
        <ele>3.2</ele>
      </trkpt>
      <trkpt lat="41.212194" lon="1.716929">
        <ele>3.3</ele>
      </trkpt>
      <trkpt lat="41.212102" lon="1.716608">
        <ele>3.4</ele>
      </trkpt>
      <trkpt lat="41.211995" lon="1.71625">
        <ele>3.5</ele>
      </trkpt>
      <trkpt lat="41.211894" lon="1.715883">
        <ele>3.4</ele>
      </trkpt>
      <trkpt lat="41.211798" lon="1.715599">
        <ele>3.4</ele>
      </trkpt>
      <trkpt lat="41.211727" lon="1.715348">
        <ele>3.3</ele>
      </trkpt>
      <trkpt lat="41.211703" lon="1.715267">
        <ele>3.2</ele>
      </trkpt>
      <trkpt lat="41.211697" lon="1.715248">
        <ele>3.2</ele>
      </trkpt>
      <trkpt lat="41.211639" lon="1.715055">
        <ele>3.1</ele>
      </trkpt>
      <trkpt lat="41.211602" lon="1.714919">
        <ele>3.0</ele>
      </trkpt>
      <trkpt lat="41.211559" lon="1.714761">
        <ele>2.8</ele>
      </trkpt>
      <trkpt lat="41.211491" lon="1.714596">
        <ele>2.7</ele>
      </trkpt>
      <trkpt lat="41.211365" lon="1.714288">
        <ele>3.1</ele>
      </trkpt>
      <trkpt lat="41.211242" lon="1.713999">
        <ele>4.4</ele>
      </trkpt>
      <trkpt lat="41.211172" lon="1.713795">
        <ele>10.9</ele>
      </trkpt>
      <trkpt lat="41.211074" lon="1.71359">
        <ele>11.7</ele>
      </trkpt>
      <trkpt lat="41.210927" lon="1.713396">
        <ele>12.3</ele>
      </trkpt>
      <trkpt lat="41.210822" lon="1.713376">
        <ele>10.5</ele>
      </trkpt>
      <trkpt lat="41.210731" lon="1.713285">
        <ele>10.7</ele>
      </trkpt>
      <trkpt lat="41.210558" lon="1.7129">
        <ele>8.2</ele>
      </trkpt>
      <trkpt lat="41.210548" lon="1.71276">
        <ele>8.5</ele>
      </trkpt>
      <trkpt lat="41.210587" lon="1.712614">
        <ele>8.0</ele>
      </trkpt>
      <trkpt lat="41.210672" lon="1.71236">
        <ele>6.6</ele>
      </trkpt>
      <trkpt lat="41.210529" lon="1.711954">
        <ele>4.8</ele>
      </trkpt>
      <trkpt lat="41.210387" lon="1.711549">
        <ele>4.4</ele>
      </trkpt>
      <trkpt lat="41.210285" lon="1.711294">
        <ele>4.2</ele>
      </trkpt>
      <trkpt lat="41.210142" lon="1.711002">
        <ele>3.1</ele>
      </trkpt>
      <trkpt lat="41.209998" lon="1.71071">
        <ele>2.8</ele>
      </trkpt>
      <trkpt lat="41.209798" lon="1.710486">
        <ele>2.5</ele>
      </trkpt>
      <trkpt lat="41.209599" lon="1.710262">
        <ele>5.5</ele>
      </trkpt>
      <trkpt lat="41.209519" lon="1.710137">
        <ele>5.5</ele>
      </trkpt>
      <trkpt lat="41.20957" lon="1.710041">
        <ele>8.4</ele>
      </trkpt>
      <trkpt lat="41.209326" lon="1.709604">
        <ele>9.1</ele>
      </trkpt>
      <trkpt lat="41.209082" lon="1.709168">
        <ele>8.7</ele>
      </trkpt>
      <trkpt lat="41.20872" lon="1.708821">
        <ele>5.3</ele>
      </trkpt>
      <trkpt lat="41.20843" lon="1.708536">
        <ele>3.2</ele>
      </trkpt>
      <trkpt lat="41.208298" lon="1.708246">
        <ele>3.0</ele>
      </trkpt>
      <trkpt lat="41.208259" lon="1.708034">
        <ele>1.9</ele>
      </trkpt>
      <trkpt lat="41.207972" lon="1.707906">
        <ele>3.2</ele>
      </trkpt>
      <trkpt lat="41.20777" lon="1.707653">
        <ele>4.3</ele>
      </trkpt>
      <trkpt lat="41.207633" lon="1.707396">
        <ele>4.3</ele>
      </trkpt>
      <trkpt lat="41.207576" lon="1.707122">
        <ele>5.5</ele>
      </trkpt>
      <trkpt lat="41.207589" lon="1.706811">
        <ele>3.7</ele>
      </trkpt>
      <trkpt lat="41.207611" lon="1.706501">
        <ele>5.9</ele>
      </trkpt>
      <trkpt lat="41.207633" lon="1.70619">
        <ele>5.7</ele>
      </trkpt>
      <trkpt lat="41.207644" lon="1.706123">
        <ele>6.1</ele>
      </trkpt>
      <trkpt lat="41.207657" lon="1.70605">
        <ele>6.3</ele>
      </trkpt>
      <trkpt lat="41.207691" lon="1.705642">
        <ele>6.7</ele>
      </trkpt>
      <trkpt lat="41.207701" lon="1.705515">
        <ele>6.7</ele>
        <name>Racó de Santa Llúcia, Vilanova i la Geltrú, Garraf</name>
        <extensions>
          <oa:Extension>
            <oa:mapZoom>16</oa:mapZoom>
          </oa:Extension>
        </extensions>
      </trkpt>
      <trkpt lat="41.207725" lon="1.705234">
        <ele>6.7</ele>
      </trkpt>
      <trkpt lat="41.207765" lon="1.704752">
        <ele>6.7</ele>
      </trkpt>
      <trkpt lat="41.207804" lon="1.70427">
        <ele>7.1</ele>
      </trkpt>
      <trkpt lat="41.207844" lon="1.703787">
        <ele>5.1</ele>
      </trkpt>
      <trkpt lat="41.208047" lon="1.703293">
        <ele>5.8</ele>
      </trkpt>
      <trkpt lat="41.208079" lon="1.703228">
        <ele>5.8</ele>
      </trkpt>
      <trkpt lat="41.208089" lon="1.702675">
        <ele>1.8</ele>
      </trkpt>
      <trkpt lat="41.208061" lon="1.702651">
        <ele>1.1</ele>
      </trkpt>
      <trkpt lat="41.208057" lon="1.702601">
        <ele>0.6</ele>
      </trkpt>
      <trkpt lat="41.208146" lon="1.702419">
        <ele>4.6</ele>
      </trkpt>
      <trkpt lat="41.208162" lon="1.702259">
        <ele>5.4</ele>
      </trkpt>
      <trkpt lat="41.208169" lon="1.70169">
        <ele>5.6</ele>
      </trkpt>
      <trkpt lat="41.208176" lon="1.701122">
        <ele>5.0</ele>
      </trkpt>
      <trkpt lat="41.208183" lon="1.700668">
        <ele>4.4</ele>
      </trkpt>
      <trkpt lat="41.20819" lon="1.700215">
        <ele>4.3</ele>
      </trkpt>
      <trkpt lat="41.208197" lon="1.699762">
        <ele>4.1</ele>
      </trkpt>
      <trkpt lat="41.208204" lon="1.699309">
        <ele>3.8</ele>
      </trkpt>
      <trkpt lat="41.20821" lon="1.698887">
        <ele>4.1</ele>
      </trkpt>
      <trkpt lat="41.208216" lon="1.698465">
        <ele>4.1</ele>
      </trkpt>
      <trkpt lat="41.208198" lon="1.698255">
        <ele>3.3</ele>
      </trkpt>
      <trkpt lat="41.208159" lon="1.698144">
        <ele>2.0</ele>
      </trkpt>
      <trkpt lat="41.208074" lon="1.69773">
        <ele>1.4</ele>
      </trkpt>
      <trkpt lat="41.207988" lon="1.697316">
        <ele>1.2</ele>
      </trkpt>
      <trkpt lat="41.207903" lon="1.696902">
        <ele>1.9</ele>
      </trkpt>
      <trkpt lat="41.207738" lon="1.696485">
        <ele>1.8</ele>
      </trkpt>
      <trkpt lat="41.207584" lon="1.69619">
        <ele>1.9</ele>
      </trkpt>
      <trkpt lat="41.207436" lon="1.695701">
        <ele>1.8</ele>
      </trkpt>
      <trkpt lat="41.207288" lon="1.695212">
        <ele>1.9</ele>
      </trkpt>
      <trkpt lat="41.20714" lon="1.694723">
        <ele>2.1</ele>
      </trkpt>
      <trkpt lat="41.206936" lon="1.694216">
        <ele>1.4</ele>
      </trkpt>
      <trkpt lat="41.206731" lon="1.69371">
        <ele>1.1</ele>
      </trkpt>
      <trkpt lat="41.206527" lon="1.693204">
        <ele>0.9</ele>
      </trkpt>
      <trkpt lat="41.206323" lon="1.692698">
        <ele>1.4</ele>
      </trkpt>
      <trkpt lat="41.206103" lon="1.692185">
        <ele>1.2</ele>
      </trkpt>
      <trkpt lat="41.2061" lon="1.691831">
        <ele>1.3</ele>
      </trkpt>
      <trkpt lat="41.206096" lon="1.691476">
        <ele>1.2</ele>
      </trkpt>
      <trkpt lat="41.206018" lon="1.691056">
        <ele>0.9</ele>
      </trkpt>
      <trkpt lat="41.205965" lon="1.690771">
        <ele>1.0</ele>
        <name>Platja Llarga, Vilanova i la Geltrú, Garraf</name>
        <extensions>
          <oa:Extension>
            <oa:mapZoom>16</oa:mapZoom>
          </oa:Extension>
        </extensions>
      </trkpt>
      <trkpt lat="41.205939" lon="1.690636">
        <ele>1.0</ele>
      </trkpt>
      <trkpt lat="41.20569" lon="1.690274">
        <ele>0.7</ele>
      </trkpt>
      <trkpt lat="41.20544" lon="1.689911">
        <ele>0.6</ele>
      </trkpt>
      <trkpt lat="41.205357" lon="1.689374">
        <ele>1.0</ele>
      </trkpt>
      <trkpt lat="41.205273" lon="1.688837">
        <ele>1.1</ele>
      </trkpt>
      <trkpt lat="41.205117" lon="1.688432">
        <ele>1.0</ele>
      </trkpt>
      <trkpt lat="41.204961" lon="1.688026">
        <ele>1.7</ele>
      </trkpt>
      <trkpt lat="41.204805" lon="1.687621">
        <ele>1.4</ele>
      </trkpt>
      <trkpt lat="41.204782" lon="1.687567">
        <ele>1.5</ele>
      </trkpt>
      <trkpt lat="41.204648" lon="1.68724">
        <ele>1.8</ele>
      </trkpt>
      <trkpt lat="41.204488" lon="1.686881">
        <ele>1.8</ele>
      </trkpt>
      <trkpt lat="41.204329" lon="1.686521">
        <ele>1.9</ele>
      </trkpt>
      <trkpt lat="41.204169" lon="1.686162">
        <ele>2.0</ele>
      </trkpt>
      <trkpt lat="41.204149" lon="1.686118">
        <ele>1.9</ele>
      </trkpt>
      <trkpt lat="41.204128" lon="1.686067">
        <ele>2.0</ele>
      </trkpt>
      <trkpt lat="41.204006" lon="1.685778">
        <ele>2.0</ele>
      </trkpt>
      <trkpt lat="41.203884" lon="1.685488">
        <ele>2.0</ele>
      </trkpt>
      <trkpt lat="41.203873" lon="1.685461">
        <ele>1.9</ele>
      </trkpt>
      <trkpt lat="41.203857" lon="1.685427">
        <ele>2.0</ele>
      </trkpt>
      <trkpt lat="41.203719" lon="1.685134">
        <ele>1.8</ele>
      </trkpt>
      <trkpt lat="41.20358" lon="1.684841">
        <ele>1.6</ele>
      </trkpt>
      <trkpt lat="41.203563" lon="1.684803">
        <ele>1.6</ele>
      </trkpt>
      <trkpt lat="41.203544" lon="1.684755">
        <ele>1.6</ele>
      </trkpt>
      <trkpt lat="41.203383" lon="1.684343">
        <ele>1.8</ele>
      </trkpt>
      <trkpt lat="41.203222" lon="1.683931">
        <ele>1.8</ele>
      </trkpt>
      <trkpt lat="41.203062" lon="1.683519">
        <ele>1.8</ele>
      </trkpt>
      <trkpt lat="41.202901" lon="1.683107">
        <ele>1.8</ele>
      </trkpt>
      <trkpt lat="41.202891" lon="1.683081">
        <ele>1.8</ele>
      </trkpt>
      <trkpt lat="41.202825" lon="1.682969">
        <ele>2.0</ele>
      </trkpt>
      <trkpt lat="41.202752" lon="1.682767">
        <ele>2.0</ele>
      </trkpt>
      <trkpt lat="41.202752" lon="1.682737">
        <ele>2.4</ele>
      </trkpt>
      <trkpt lat="41.202741" lon="1.682684">
        <ele>2.2</ele>
      </trkpt>
      <trkpt lat="41.202729" lon="1.682644">
        <ele>2.0</ele>
      </trkpt>
      <trkpt lat="41.20266" lon="1.682512">
        <ele>1.9</ele>
      </trkpt>
      <trkpt lat="41.202519" lon="1.682271">
        <ele>1.9</ele>
      </trkpt>
      <trkpt lat="41.202378" lon="1.682031">
        <ele>1.9</ele>
      </trkpt>
      <trkpt lat="41.202275" lon="1.681856">
        <ele>1.9</ele>
      </trkpt>
      <trkpt lat="41.202122" lon="1.68159">
        <ele>1.9</ele>
      </trkpt>
      <trkpt lat="41.20197" lon="1.681323">
        <ele>1.9</ele>
      </trkpt>
      <trkpt lat="41.201776" lon="1.680958">
        <ele>1.8</ele>
      </trkpt>
      <trkpt lat="41.20151" lon="1.680508">
        <ele>1.8</ele>
      </trkpt>
      <trkpt lat="41.201365" lon="1.680282">
        <ele>1.8</ele>
      </trkpt>
      <trkpt lat="41.201211" lon="1.680036">
        <ele>1.8</ele>
      </trkpt>
      <trkpt lat="41.20094" lon="1.679602">
        <ele>1.7</ele>
      </trkpt>
      <trkpt lat="41.200689" lon="1.679203">
        <ele>1.5</ele>
      </trkpt>
      <trkpt lat="41.20047" lon="1.67881">
        <ele>1.5</ele>
      </trkpt>
      <trkpt lat="41.20025" lon="1.678417">
        <ele>1.5</ele>
      </trkpt>
      <trkpt lat="41.200055" lon="1.678111">
        <ele>1.4</ele>
      </trkpt>
      <trkpt lat="41.19986" lon="1.677806">
        <ele>1.4</ele>
      </trkpt>
      <trkpt lat="41.199665" lon="1.677501">
        <ele>1.4</ele>
      </trkpt>
      <trkpt lat="41.199881" lon="1.677271">
        <ele>1.6</ele>
      </trkpt>
      <trkpt lat="41.200096" lon="1.676838">
        <ele>1.6</ele>
      </trkpt>
      <trkpt lat="41.20004" lon="1.676766">
        <ele>1.5</ele>
      </trkpt>
      <trkpt lat="41.200214" lon="1.676433">
        <ele>1.7</ele>
      </trkpt>
      <trkpt lat="41.200398" lon="1.676096">
        <ele>1.8</ele>
      </trkpt>
      <trkpt lat="41.20044" lon="1.67614">
        <ele>1.8</ele>
      </trkpt>
      <trkpt lat="41.200474" lon="1.676182">
        <ele>1.9</ele>
      </trkpt>
      <trkpt lat="41.200505" lon="1.676131">
        <ele>1.8</ele>
      </trkpt>
      <trkpt lat="41.200535" lon="1.676175">
        <ele>1.9</ele>
      </trkpt>
      <trkpt lat="41.200575" lon="1.676139">
        <ele>1.8</ele>
      </trkpt>
      <trkpt lat="41.200606" lon="1.676112">
        <ele>1.8</ele>
      </trkpt>
      <trkpt lat="41.200594" lon="1.676055">
        <ele>1.8</ele>
      </trkpt>
      <trkpt lat="41.200584" lon="1.676005">
        <ele>1.8</ele>
      </trkpt>
      <trkpt lat="41.200616" lon="1.675946">
        <ele>1.9</ele>
      </trkpt>
      <trkpt lat="41.200792" lon="1.675673">
        <ele>2.0</ele>
      </trkpt>
      <trkpt lat="41.200969" lon="1.675399">
        <ele>2.1</ele>
      </trkpt>
      <trkpt lat="41.200995" lon="1.675368">
        <ele>2.0</ele>
      </trkpt>
      <trkpt lat="41.201009" lon="1.675388">
        <ele>2.1</ele>
      </trkpt>
      <trkpt lat="41.20104" lon="1.675368">
        <ele>2.1</ele>
      </trkpt>
      <trkpt lat="41.201074" lon="1.675333">
        <ele>2.3</ele>
      </trkpt>
      <trkpt lat="41.201062" lon="1.675305">
        <ele>2.2</ele>
      </trkpt>
      <trkpt lat="41.201073" lon="1.675277">
        <ele>2.3</ele>
      </trkpt>
      <trkpt lat="41.201035" lon="1.675207">
        <ele>2.0</ele>
      </trkpt>
      <trkpt lat="41.201009" lon="1.675152">
        <ele>2.0</ele>
      </trkpt>
      <trkpt lat="41.201273" lon="1.674871">
        <ele>2.2</ele>
      </trkpt>
      <trkpt lat="41.201537" lon="1.67459">
        <ele>2.4</ele>
      </trkpt>
      <trkpt lat="41.201801" lon="1.674308">
        <ele>2.6</ele>
      </trkpt>
      <trkpt lat="41.202065" lon="1.674027">
        <ele>2.8</ele>
      </trkpt>
      <trkpt lat="41.202141" lon="1.673946">
        <ele>2.9</ele>
      </trkpt>
      <trkpt lat="41.202172" lon="1.673914">
        <ele>3.0</ele>
      </trkpt>
      <trkpt lat="41.201955" lon="1.673544">
        <ele>3.2</ele>
      </trkpt>
      <trkpt lat="41.201739" lon="1.673175">
        <ele>3.5</ele>
      </trkpt>
      <trkpt lat="41.201739" lon="1.673168">
        <ele>3.5</ele>
      </trkpt>
      <trkpt lat="41.201734" lon="1.673148">
        <ele>3.6</ele>
      </trkpt>
      <trkpt lat="41.201733" lon="1.673133">
        <ele>3.6</ele>
      </trkpt>
      <trkpt lat="41.201734" lon="1.673117">
        <ele>3.6</ele>
      </trkpt>
      <trkpt lat="41.201739" lon="1.673099">
        <ele>3.6</ele>
      </trkpt>
      <trkpt lat="41.201734" lon="1.67303">
        <ele>3.4</ele>
      </trkpt>
      <trkpt lat="41.201746" lon="1.67301">
        <ele>3.4</ele>
      </trkpt>
      <trkpt lat="41.201691" lon="1.673027">
        <ele>3.3</ele>
      </trkpt>
      <trkpt lat="41.201674" lon="1.672998">
        <ele>3.3</ele>
      </trkpt>
      <trkpt lat="41.201638" lon="1.672978">
        <ele>3.3</ele>
      </trkpt>
      <trkpt lat="41.201615" lon="1.67298">
        <ele>3.3</ele>
      </trkpt>
      <trkpt lat="41.20159" lon="1.672994">
        <ele>3.3</ele>
      </trkpt>
      <trkpt lat="41.201576" lon="1.67301">
        <ele>3.2</ele>
      </trkpt>
      <trkpt lat="41.201564" lon="1.673041">
        <ele>3.2</ele>
      </trkpt>
      <trkpt lat="41.20156" lon="1.673068">
        <ele>3.2</ele>
      </trkpt>
      <trkpt lat="41.201565" lon="1.673104">
        <ele>3.2</ele>
      </trkpt>
      <trkpt lat="41.201578" lon="1.673132">
        <ele>3.3</ele>
      </trkpt>
      <trkpt lat="41.201506" lon="1.673178">
        <ele>3.2</ele>
      </trkpt>
      <trkpt lat="41.201466" lon="1.673194">
        <ele>3.1</ele>
      </trkpt>
      <trkpt lat="41.201144" lon="1.67333">
        <ele>3.0</ele>
      </trkpt>
      <trkpt lat="41.200822" lon="1.673467">
        <ele>2.8</ele>
      </trkpt>
      <trkpt lat="41.200497" lon="1.673604">
        <ele>2.6</ele>
      </trkpt>
      <trkpt lat="41.200172" lon="1.673742">
        <ele>2.4</ele>
      </trkpt>
      <trkpt lat="41.199847" lon="1.673879">
        <ele>2.2</ele>
      </trkpt>
      <trkpt lat="41.199758" lon="1.673916">
        <ele>2.3</ele>
      </trkpt>
      <trkpt lat="41.199676" lon="1.673917">
        <ele>2.2</ele>
      </trkpt>
      <trkpt lat="41.199295" lon="1.67392">
        <ele>2.1</ele>
      </trkpt>
      <trkpt lat="41.198913" lon="1.673923">
        <ele>1.9</ele>
      </trkpt>
      <trkpt lat="41.198874" lon="1.673924">
        <ele>1.9</ele>
      </trkpt>
      <trkpt lat="41.198819" lon="1.673816">
        <ele>2.0</ele>
      </trkpt>
      <trkpt lat="41.198723" lon="1.6735">
        <ele>2.0</ele>
      </trkpt>
      <trkpt lat="41.198714" lon="1.673447">
        <ele>2.0</ele>
        <name>Passeig de la Mar Mediterrània, Cubelles, Garraf</name>
        <extensions>
          <oa:Extension>
            <oa:mapZoom>16</oa:mapZoom>
          </oa:Extension>
        </extensions>
      </trkpt>
      <trkpt lat="41.198678" lon="1.673228">
        <ele>2.1</ele>
      </trkpt>
      <trkpt lat="41.198649" lon="1.672898">
        <ele>2.0</ele>
      </trkpt>
      <trkpt lat="41.198652" lon="1.672553">
        <ele>2.1</ele>
      </trkpt>
      <trkpt lat="41.198652" lon="1.672515">
        <ele>2.1</ele>
      </trkpt>
      <trkpt lat="41.198603" lon="1.672511">
        <ele>2.2</ele>
      </trkpt>
      <trkpt lat="41.198628" lon="1.672297">
        <ele>2.2</ele>
      </trkpt>
      <trkpt lat="41.198629" lon="1.672255">
        <ele>2.2</ele>
      </trkpt>
      <trkpt lat="41.198623" lon="1.672194">
        <ele>2.2</ele>
      </trkpt>
      <trkpt lat="41.198587" lon="1.671838">
        <ele>2.1</ele>
      </trkpt>
      <trkpt lat="41.198529" lon="1.671282">
        <ele>2.1</ele>
      </trkpt>
      <trkpt lat="41.198472" lon="1.670726">
        <ele>2.2</ele>
      </trkpt>
      <trkpt lat="41.198415" lon="1.67017">
        <ele>2.1</ele>
      </trkpt>
      <trkpt lat="41.198359" lon="1.66962">
        <ele>2.2</ele>
      </trkpt>
      <trkpt lat="41.198298" lon="1.669031">
        <ele>2.2</ele>
      </trkpt>
      <trkpt lat="41.198242" lon="1.668479">
        <ele>2.2</ele>
      </trkpt>
      <trkpt lat="41.198187" lon="1.667926">
        <ele>2.3</ele>
      </trkpt>
      <trkpt lat="41.198134" lon="1.667399">
        <ele>2.3</ele>
      </trkpt>
      <trkpt lat="41.198081" lon="1.666871">
        <ele>2.3</ele>
      </trkpt>
      <trkpt lat="41.198028" lon="1.666344">
        <ele>2.4</ele>
      </trkpt>
      <trkpt lat="41.198014" lon="1.666207">
        <ele>2.4</ele>
      </trkpt>
      <trkpt lat="41.198024" lon="1.666164">
        <ele>2.4</ele>
      </trkpt>
      <trkpt lat="41.198035" lon="1.666119">
        <ele>2.4</ele>
      </trkpt>
      <trkpt lat="41.198124" lon="1.66582">
        <ele>2.5</ele>
      </trkpt>
      <trkpt lat="41.198164" lon="1.665648">
        <ele>2.5</ele>
      </trkpt>
      <trkpt lat="41.198186" lon="1.665519">
        <ele>2.7</ele>
      </trkpt>
      <trkpt lat="41.198198" lon="1.665398">
        <ele>2.7</ele>
      </trkpt>
      <trkpt lat="41.198208" lon="1.665271">
        <ele>2.7</ele>
      </trkpt>
      <trkpt lat="41.198207" lon="1.665108">
        <ele>2.7</ele>
      </trkpt>
      <trkpt lat="41.198198" lon="1.664986">
        <ele>2.7</ele>
      </trkpt>
      <trkpt lat="41.19817" lon="1.664774">
        <ele>2.7</ele>
      </trkpt>
      <trkpt lat="41.198125" lon="1.664577">
        <ele>2.6</ele>
      </trkpt>
      <trkpt lat="41.198071" lon="1.664394">
        <ele>2.6</ele>
      </trkpt>
      <trkpt lat="41.197999" lon="1.664225">
        <ele>2.4</ele>
      </trkpt>
      <trkpt lat="41.197785" lon="1.663881">
        <ele>2.3</ele>
      </trkpt>
      <trkpt lat="41.19778" lon="1.663836">
        <ele>2.3</ele>
      </trkpt>
      <trkpt lat="41.197751" lon="1.663557">
        <ele>2.2</ele>
      </trkpt>
      <trkpt lat="41.197707" lon="1.663134">
        <ele>2.3</ele>
      </trkpt>
      <trkpt lat="41.197664" lon="1.662711">
        <ele>2.4</ele>
      </trkpt>
      <trkpt lat="41.19762" lon="1.662288">
        <ele>2.4</ele>
      </trkpt>
      <trkpt lat="41.197572" lon="1.661818">
        <ele>2.5</ele>
      </trkpt>
      <trkpt lat="41.197524" lon="1.661348">
        <ele>2.5</ele>
      </trkpt>
      <trkpt lat="41.197476" lon="1.660879">
        <ele>2.6</ele>
      </trkpt>
      <trkpt lat="41.197432" lon="1.660457">
        <ele>2.6</ele>
      </trkpt>
      <trkpt lat="41.197386" lon="1.660003">
        <ele>2.6</ele>
      </trkpt>
      <trkpt lat="41.197339" lon="1.65955">
        <ele>2.6</ele>
      </trkpt>
      <trkpt lat="41.197292" lon="1.659097">
        <ele>2.6</ele>
      </trkpt>
      <trkpt lat="41.197281" lon="1.658985">
        <ele>2.6</ele>
      </trkpt>
      <trkpt lat="41.197281" lon="1.658976">
        <ele>2.6</ele>
      </trkpt>
      <trkpt lat="41.197283" lon="1.658903">
        <ele>2.5</ele>
      </trkpt>
      <trkpt lat="41.197226" lon="1.658801">
        <ele>2.4</ele>
      </trkpt>
      <trkpt lat="41.197198" lon="1.658757">
        <ele>2.4</ele>
      </trkpt>
      <trkpt lat="41.19717" lon="1.658713">
        <ele>2.4</ele>
      </trkpt>
      <trkpt lat="41.197083" lon="1.658657">
        <ele>2.4</ele>
      </trkpt>
      <trkpt lat="41.196954" lon="1.658555">
        <ele>2.3</ele>
      </trkpt>
      <trkpt lat="41.196893" lon="1.658445">
        <ele>2.0</ele>
      </trkpt>
      <trkpt lat="41.196851" lon="1.658219">
        <ele>2.0</ele>
      </trkpt>
      <trkpt lat="41.196851" lon="1.658083">
        <ele>1.9</ele>
      </trkpt>
      <trkpt lat="41.196906" lon="1.658013">
        <ele>1.9</ele>
      </trkpt>
      <trkpt lat="41.196874" lon="1.657752">
        <ele>1.9</ele>
      </trkpt>
      <trkpt lat="41.196856" lon="1.657608">
        <ele>1.9</ele>
      </trkpt>
      <trkpt lat="41.19683" lon="1.657394">
        <ele>1.8</ele>
      </trkpt>
      <trkpt lat="41.196818" lon="1.657119">
        <ele>1.7</ele>
      </trkpt>
      <trkpt lat="41.196795" lon="1.656578">
        <ele>1.7</ele>
      </trkpt>
      <trkpt lat="41.196772" lon="1.656036">
        <ele>1.7</ele>
      </trkpt>
      <trkpt lat="41.196749" lon="1.655495">
        <ele>1.9</ele>
      </trkpt>
      <trkpt lat="41.196762" lon="1.655309">
        <ele>1.8</ele>
      </trkpt>
      <trkpt lat="41.196792" lon="1.654884">
        <ele>2.0</ele>
      </trkpt>
      <trkpt lat="41.196813" lon="1.654582">
        <ele>2.2</ele>
      </trkpt>
      <trkpt lat="41.196841" lon="1.654521">
        <ele>2.2</ele>
      </trkpt>
      <trkpt lat="41.196871" lon="1.654454">
        <ele>2.2</ele>
      </trkpt>
      <trkpt lat="41.196891" lon="1.654406">
        <ele>2.2</ele>
      </trkpt>
      <trkpt lat="41.19696" lon="1.65423">
        <ele>2.2</ele>
      </trkpt>
      <trkpt lat="41.196907" lon="1.653874">
        <ele>2.3</ele>
      </trkpt>
      <trkpt lat="41.196854" lon="1.653517">
        <ele>2.3</ele>
      </trkpt>
      <trkpt lat="41.196843" lon="1.653444">
        <ele>2.4</ele>
      </trkpt>
      <trkpt lat="41.196788" lon="1.652856">
        <ele>2.3</ele>
      </trkpt>
      <trkpt lat="41.196732" lon="1.652268">
        <ele>2.3</ele>
      </trkpt>
      <trkpt lat="41.196676" lon="1.65168">
        <ele>2.3</ele>
      </trkpt>
      <trkpt lat="41.196624" lon="1.651109">
        <ele>2.3</ele>
      </trkpt>
      <trkpt lat="41.196572" lon="1.650538">
        <ele>2.3</ele>
      </trkpt>
      <trkpt lat="41.19652" lon="1.649967">
        <ele>2.4</ele>
      </trkpt>
      <trkpt lat="41.196489" lon="1.649659">
        <ele>2.3</ele>
      </trkpt>
      <trkpt lat="41.196475" lon="1.649153">
        <ele>2.3</ele>
      </trkpt>
      <trkpt lat="41.196461" lon="1.648646">
        <ele>2.2</ele>
      </trkpt>
      <trkpt lat="41.196446" lon="1.648139">
        <ele>2.3</ele>
      </trkpt>
      <trkpt lat="41.196386" lon="1.647682">
        <ele>2.3</ele>
      </trkpt>
      <trkpt lat="41.196326" lon="1.647226">
        <ele>2.3</ele>
      </trkpt>
      <trkpt lat="41.196255" lon="1.646682">
        <ele>2.3</ele>
      </trkpt>
      <trkpt lat="41.196169" lon="1.646268">
        <ele>2.3</ele>
      </trkpt>
      <trkpt lat="41.196083" lon="1.645854">
        <ele>2.3</ele>
      </trkpt>
      <trkpt lat="41.19601" lon="1.645557">
        <ele>2.3</ele>
      </trkpt>
      <trkpt lat="41.195945" lon="1.645291">
        <ele>1.4</ele>
      </trkpt>
      <trkpt lat="41.195939" lon="1.645268">
        <ele>1.2</ele>
      </trkpt>
      <trkpt lat="41.19588" lon="1.644977">
        <ele>1.6</ele>
      </trkpt>
      <trkpt lat="41.195887" lon="1.644942">
        <ele>1.6</ele>
      </trkpt>
      <trkpt lat="41.195808" lon="1.644588">
        <ele>1.6</ele>
      </trkpt>
      <trkpt lat="41.195729" lon="1.644233">
        <ele>1.6</ele>
      </trkpt>
      <trkpt lat="41.19565" lon="1.643884">
        <ele>1.6</ele>
      </trkpt>
      <trkpt lat="41.195619" lon="1.643743">
        <ele>1.6</ele>
      </trkpt>
      <trkpt lat="41.195509" lon="1.643255">
        <ele>1.5</ele>
      </trkpt>
      <trkpt lat="41.195397" lon="1.642748">
        <ele>1.6</ele>
      </trkpt>
      <trkpt lat="41.195284" lon="1.64224">
        <ele>1.6</ele>
      </trkpt>
      <trkpt lat="41.195172" lon="1.641733">
        <ele>1.7</ele>
      </trkpt>
      <trkpt lat="41.195137" lon="1.641601">
        <ele>1.8</ele>
      </trkpt>
      <trkpt lat="41.195087" lon="1.641407">
        <ele>1.8</ele>
        <name>Passeig Marítim, Cunit, Baix Penedès</name>
        <extensions>
          <oa:Extension>
            <oa:mapZoom>16</oa:mapZoom>
          </oa:Extension>
        </extensions>
      </trkpt>
      <trkpt lat="41.19506" lon="1.641303">
        <ele>1.8</ele>
      </trkpt>
      <trkpt lat="41.194983" lon="1.641005">
        <ele>1.9</ele>
      </trkpt>
      <trkpt lat="41.194881" lon="1.640608">
        <ele>2.1</ele>
      </trkpt>
      <trkpt lat="41.194752" lon="1.640106">
        <ele>2.1</ele>
      </trkpt>
      <trkpt lat="41.194623" lon="1.639604">
        <ele>2.3</ele>
      </trkpt>
      <trkpt lat="41.194597" lon="1.639507">
        <ele>2.3</ele>
      </trkpt>
      <trkpt lat="41.194577" lon="1.639465">
        <ele>2.4</ele>
      </trkpt>
      <trkpt lat="41.194579" lon="1.639465">
        <ele>2.4</ele>
      </trkpt>
      <trkpt lat="41.194631" lon="1.639431">
        <ele>2.5</ele>
      </trkpt>
      <trkpt lat="41.194484" lon="1.638995">
        <ele>2.5</ele>
      </trkpt>
      <trkpt lat="41.194364" lon="1.638623">
        <ele>2.5</ele>
      </trkpt>
      <trkpt lat="41.194243" lon="1.638252">
        <ele>2.3</ele>
      </trkpt>
      <trkpt lat="41.194123" lon="1.63788">
        <ele>2.4</ele>
      </trkpt>
      <trkpt lat="41.194007" lon="1.637504">
        <ele>2.4</ele>
      </trkpt>
      <trkpt lat="41.193891" lon="1.637128">
        <ele>2.4</ele>
      </trkpt>
      <trkpt lat="41.193743" lon="1.636598">
        <ele>2.7</ele>
      </trkpt>
      <trkpt lat="41.193595" lon="1.636067">
        <ele>2.7</ele>
      </trkpt>
      <trkpt lat="41.19357" lon="1.635964">
        <ele>2.7</ele>
      </trkpt>
      <trkpt lat="41.193559" lon="1.635917">
        <ele>2.6</ele>
      </trkpt>
      <trkpt lat="41.193482" lon="1.635606">
        <ele>2.4</ele>
      </trkpt>
      <trkpt lat="41.193404" lon="1.635296">
        <ele>2.4</ele>
      </trkpt>
      <trkpt lat="41.193386" lon="1.635222">
        <ele>2.2</ele>
      </trkpt>
      <trkpt lat="41.193485" lon="1.635187">
        <ele>2.6</ele>
      </trkpt>
      <trkpt lat="41.193475" lon="1.635132">
        <ele>2.1</ele>
      </trkpt>
      <trkpt lat="41.193452" lon="1.635026">
        <ele>1.9</ele>
      </trkpt>
      <trkpt lat="41.193437" lon="1.634934">
        <ele>2.0</ele>
      </trkpt>
      <trkpt lat="41.19343" lon="1.634788">
        <ele>2.1</ele>
      </trkpt>
      <trkpt lat="41.193344" lon="1.634365">
        <ele>2.2</ele>
      </trkpt>
      <trkpt lat="41.193258" lon="1.633941">
        <ele>2.3</ele>
      </trkpt>
      <trkpt lat="41.193172" lon="1.633518">
        <ele>2.4</ele>
      </trkpt>
      <trkpt lat="41.193141" lon="1.633283">
        <ele>2.5</ele>
      </trkpt>
      <trkpt lat="41.193141" lon="1.632963">
        <ele>2.6</ele>
      </trkpt>
      <trkpt lat="41.193155" lon="1.632632">
        <ele>2.7</ele>
      </trkpt>
      <trkpt lat="41.193169" lon="1.6323">
        <ele>2.7</ele>
      </trkpt>
      <trkpt lat="41.193082" lon="1.631752">
        <ele>2.3</ele>
      </trkpt>
      <trkpt lat="41.192965" lon="1.631179">
        <ele>2.0</ele>
      </trkpt>
      <trkpt lat="41.192765" lon="1.6308">
        <ele>1.6</ele>
      </trkpt>
      <trkpt lat="41.192636" lon="1.630712">
        <ele>1.4</ele>
      </trkpt>
      <trkpt lat="41.192626" lon="1.630661">
        <ele>1.4</ele>
      </trkpt>
      <trkpt lat="41.192597" lon="1.630473">
        <ele>1.4</ele>
      </trkpt>
      <trkpt lat="41.192506" lon="1.63002">
        <ele>1.7</ele>
      </trkpt>
      <trkpt lat="41.192495" lon="1.629907">
        <ele>1.6</ele>
      </trkpt>
      <trkpt lat="41.192448" lon="1.629453">
        <ele>1.6</ele>
      </trkpt>
      <trkpt lat="41.192444" lon="1.629416">
        <ele>1.6</ele>
      </trkpt>
      <trkpt lat="41.192404" lon="1.629029">
        <ele>1.6</ele>
      </trkpt>
      <trkpt lat="41.192363" lon="1.628621">
        <ele>1.7</ele>
      </trkpt>
      <trkpt lat="41.192319" lon="1.628166">
        <ele>1.6</ele>
      </trkpt>
      <trkpt lat="41.192275" lon="1.627712">
        <ele>1.8</ele>
      </trkpt>
      <trkpt lat="41.192228" lon="1.627234">
        <ele>1.6</ele>
      </trkpt>
      <trkpt lat="41.192179" lon="1.626767">
        <ele>1.8</ele>
      </trkpt>
      <trkpt lat="41.192138" lon="1.626344">
        <ele>1.6</ele>
      </trkpt>
      <trkpt lat="41.192078" lon="1.625813">
        <ele>1.7</ele>
      </trkpt>
      <trkpt lat="41.192017" lon="1.625283">
        <ele>1.7</ele>
      </trkpt>
      <trkpt lat="41.191978" lon="1.624936">
        <ele>1.7</ele>
      </trkpt>
      <trkpt lat="41.191933" lon="1.624592">
        <ele>1.8</ele>
      </trkpt>
      <trkpt lat="41.191929" lon="1.624563">
        <ele>1.9</ele>
      </trkpt>
      <trkpt lat="41.191884" lon="1.624216">
        <ele>1.8</ele>
      </trkpt>
      <trkpt lat="41.191839" lon="1.623869">
        <ele>1.6</ele>
      </trkpt>
      <trkpt lat="41.191806" lon="1.623623">
        <ele>1.5</ele>
      </trkpt>
      <trkpt lat="41.191751" lon="1.623184">
        <ele>1.3</ele>
      </trkpt>
      <trkpt lat="41.191695" lon="1.622745">
        <ele>1.4</ele>
      </trkpt>
      <trkpt lat="41.191684" lon="1.622651">
        <ele>1.4</ele>
        <name>Passeig Marítim, Cunit, Baix Penedès</name>
        <extensions>
          <oa:Extension>
            <oa:mapZoom>16</oa:mapZoom>
          </oa:Extension>
        </extensions>
      </trkpt>
      <trkpt lat="41.191639" lon="1.622268">
        <ele>1.4</ele>
      </trkpt>
      <trkpt lat="41.191584" lon="1.62179">
        <ele>1.6</ele>
      </trkpt>
      <trkpt lat="41.191551" lon="1.62152">
        <ele>1.5</ele>
      </trkpt>
      <trkpt lat="41.191493" lon="1.621053">
        <ele>1.5</ele>
      </trkpt>
      <trkpt lat="41.191435" lon="1.620585">
        <ele>1.4</ele>
      </trkpt>
      <trkpt lat="41.191398" lon="1.62024">
        <ele>1.4</ele>
      </trkpt>
      <trkpt lat="41.191354" lon="1.619837">
        <ele>1.4</ele>
      </trkpt>
      <trkpt lat="41.191346" lon="1.619755">
        <ele>1.3</ele>
      </trkpt>
      <trkpt lat="41.191292" lon="1.619245">
        <ele>1.3</ele>
      </trkpt>
      <trkpt lat="41.19128" lon="1.619115">
        <ele>1.1</ele>
      </trkpt>
      <trkpt lat="41.191239" lon="1.618684">
        <ele>1.4</ele>
      </trkpt>
      <trkpt lat="41.191199" lon="1.618253">
        <ele>1.6</ele>
      </trkpt>
      <trkpt lat="41.191198" lon="1.618247">
        <ele>1.6</ele>
      </trkpt>
      <trkpt lat="41.191166" lon="1.617889">
        <ele>1.9</ele>
      </trkpt>
      <trkpt lat="41.191134" lon="1.617531">
        <ele>2.2</ele>
      </trkpt>
      <trkpt lat="41.191097" lon="1.61712">
        <ele>2.5</ele>
      </trkpt>
      <trkpt lat="41.19106" lon="1.616709">
        <ele>2.4</ele>
      </trkpt>
      <trkpt lat="41.19102" lon="1.616286">
        <ele>2.4</ele>
      </trkpt>
      <trkpt lat="41.190979" lon="1.615862">
        <ele>2.3</ele>
      </trkpt>
      <trkpt lat="41.190939" lon="1.615438">
        <ele>2.3</ele>
      </trkpt>
      <trkpt lat="41.190916" lon="1.615197">
        <ele>2.2</ele>
      </trkpt>
      <trkpt lat="41.190872" lon="1.614721">
        <ele>2.3</ele>
      </trkpt>
      <trkpt lat="41.190828" lon="1.614245">
        <ele>2.2</ele>
      </trkpt>
      <trkpt lat="41.190802" lon="1.614001">
        <ele>2.3</ele>
      </trkpt>
      <trkpt lat="41.1908" lon="1.613981">
        <ele>2.3</ele>
      </trkpt>
      <trkpt lat="41.190747" lon="1.6134">
        <ele>2.3</ele>
      </trkpt>
      <trkpt lat="41.190694" lon="1.61282">
        <ele>2.3</ele>
      </trkpt>
      <trkpt lat="41.190672" lon="1.612586">
        <ele>2.2</ele>
      </trkpt>
      <trkpt lat="41.190634" lon="1.612184">
        <ele>2.3</ele>
      </trkpt>
      <trkpt lat="41.190596" lon="1.611782">
        <ele>2.3</ele>
      </trkpt>
      <trkpt lat="41.190558" lon="1.611381">
        <ele>2.2</ele>
      </trkpt>
      <trkpt lat="41.190555" lon="1.611344">
        <ele>2.3</ele>
      </trkpt>
      <trkpt lat="41.190529" lon="1.611117">
        <ele>2.3</ele>
      </trkpt>
      <trkpt lat="41.190488" lon="1.610661">
        <ele>2.2</ele>
      </trkpt>
      <trkpt lat="41.190447" lon="1.610204">
        <ele>2.2</ele>
      </trkpt>
      <trkpt lat="41.190422" lon="1.609925">
        <ele>2.3</ele>
      </trkpt>
      <trkpt lat="41.19038" lon="1.609481">
        <ele>2.3</ele>
      </trkpt>
      <trkpt lat="41.190339" lon="1.609037">
        <ele>2.2</ele>
      </trkpt>
      <trkpt lat="41.190315" lon="1.608762">
        <ele>2.2</ele>
      </trkpt>
      <trkpt lat="41.190278" lon="1.60838">
        <ele>2.2</ele>
      </trkpt>
      <trkpt lat="41.19024" lon="1.607998">
        <ele>2.2</ele>
      </trkpt>
      <trkpt lat="41.19022" lon="1.607767">
        <ele>1.9</ele>
      </trkpt>
      <trkpt lat="41.190212" lon="1.607679">
        <ele>1.8</ele>
      </trkpt>
      <trkpt lat="41.190209" lon="1.607637">
        <ele>1.7</ele>
      </trkpt>
      <trkpt lat="41.190205" lon="1.607601">
        <ele>1.7</ele>
      </trkpt>
      <trkpt lat="41.190202" lon="1.607566">
        <ele>1.7</ele>
      </trkpt>
      <trkpt lat="41.190196" lon="1.607506">
        <ele>1.8</ele>
      </trkpt>
      <trkpt lat="41.190191" lon="1.607448">
        <ele>1.8</ele>
      </trkpt>
      <trkpt lat="41.190189" lon="1.607422">
        <ele>1.9</ele>
      </trkpt>
      <trkpt lat="41.190158" lon="1.607101">
        <ele>2.2</ele>
      </trkpt>
      <trkpt lat="41.190128" lon="1.60678">
        <ele>2.2</ele>
      </trkpt>
      <trkpt lat="41.190085" lon="1.606332">
        <ele>2.2</ele>
      </trkpt>
      <trkpt lat="41.190056" lon="1.606027">
        <ele>2.2</ele>
      </trkpt>
      <trkpt lat="41.190034" lon="1.605793">
        <ele>2.2</ele>
      </trkpt>
      <trkpt lat="41.190007" lon="1.605515">
        <ele>2.2</ele>
      </trkpt>
      <trkpt lat="41.189975" lon="1.60518">
        <ele>2.2</ele>
      </trkpt>
      <trkpt lat="41.189957" lon="1.604991">
        <ele>1.9</ele>
      </trkpt>
      <trkpt lat="41.189934" lon="1.604757">
        <ele>1.7</ele>
      </trkpt>
      <trkpt lat="41.189928" lon="1.604697">
        <ele>1.7</ele>
      </trkpt>
      <trkpt lat="41.189922" lon="1.604639">
        <ele>1.7</ele>
      </trkpt>
      <trkpt lat="41.189914" lon="1.604554">
        <ele>1.9</ele>
      </trkpt>
      <trkpt lat="41.189913" lon="1.604545">
        <ele>1.9</ele>
      </trkpt>
      <trkpt lat="41.189899" lon="1.604393">
        <ele>2.2</ele>
      </trkpt>
      <trkpt lat="41.189853" lon="1.603902">
        <ele>2.1</ele>
      </trkpt>
      <trkpt lat="41.189827" lon="1.603622">
        <ele>2.1</ele>
      </trkpt>
      <trkpt lat="41.189776" lon="1.603065">
        <ele>2.0</ele>
      </trkpt>
      <trkpt lat="41.189742" lon="1.602701">
        <ele>2.3</ele>
      </trkpt>
      <trkpt lat="41.189732" lon="1.602599">
        <ele>2.3</ele>
      </trkpt>
      <trkpt lat="41.189723" lon="1.602496">
        <ele>2.1</ele>
      </trkpt>
      <trkpt lat="41.189678" lon="1.602009">
        <ele>2.1</ele>
      </trkpt>
      <trkpt lat="41.189634" lon="1.601521">
        <ele>2.1</ele>
      </trkpt>
      <trkpt lat="41.189589" lon="1.601034">
        <ele>2.2</ele>
      </trkpt>
      <trkpt lat="41.189544" lon="1.600546">
        <ele>2.1</ele>
      </trkpt>
      <trkpt lat="41.189521" lon="1.600297">
        <ele>2.0</ele>
      </trkpt>
      <trkpt lat="41.189478" lon="1.599826">
        <ele>2.1</ele>
      </trkpt>
      <trkpt lat="41.189434" lon="1.599354">
        <ele>2.1</ele>
      </trkpt>
      <trkpt lat="41.189412" lon="1.599106">
        <ele>2.1</ele>
      </trkpt>
      <trkpt lat="41.189371" lon="1.598666">
        <ele>2.1</ele>
      </trkpt>
      <trkpt lat="41.189331" lon="1.598225">
        <ele>2.1</ele>
      </trkpt>
      <trkpt lat="41.189309" lon="1.597989">
        <ele>2.1</ele>
      </trkpt>
      <trkpt lat="41.189267" lon="1.597532">
        <ele>2.1</ele>
      </trkpt>
      <trkpt lat="41.189225" lon="1.597076">
        <ele>2.1</ele>
      </trkpt>
      <trkpt lat="41.189209" lon="1.596902">
        <ele>2.1</ele>
      </trkpt>
      <trkpt lat="41.189203" lon="1.596837">
        <ele>2.2</ele>
      </trkpt>
      <trkpt lat="41.189153" lon="1.596295">
        <ele>2.5</ele>
      </trkpt>
      <trkpt lat="41.189103" lon="1.595753">
        <ele>3.0</ele>
      </trkpt>
      <trkpt lat="41.18908" lon="1.595508">
        <ele>3.0</ele>
      </trkpt>
      <trkpt lat="41.189043" lon="1.595105">
        <ele>3.0</ele>
      </trkpt>
      <trkpt lat="41.189006" lon="1.594701">
        <ele>3.0</ele>
      </trkpt>
      <trkpt lat="41.188985" lon="1.594467">
        <ele>2.9</ele>
      </trkpt>
      <trkpt lat="41.188948" lon="1.594062">
        <ele>3.0</ele>
      </trkpt>
      <trkpt lat="41.188911" lon="1.593658">
        <ele>2.9</ele>
      </trkpt>
      <trkpt lat="41.188888" lon="1.593412">
        <ele>2.9</ele>
      </trkpt>
      <trkpt lat="41.188852" lon="1.593016">
        <ele>3.0</ele>
      </trkpt>
      <trkpt lat="41.188816" lon="1.592621">
        <ele>2.9</ele>
      </trkpt>
      <trkpt lat="41.188804" lon="1.59248">
        <ele>2.9</ele>
      </trkpt>
      <trkpt lat="41.188791" lon="1.592317">
        <ele>2.9</ele>
      </trkpt>
      <trkpt lat="41.188776" lon="1.592134">
        <ele>2.9</ele>
        <name>Passeig Marítim de Sant Joan de Déu, Calafell, Baix Penedès</name>
        <extensions>
          <oa:Extension>
            <oa:mapZoom>17</oa:mapZoom>
          </oa:Extension>
        </extensions>
      </trkpt>
      <trkpt lat="41.188743" lon="1.591726">
        <ele>3.0</ele>
      </trkpt>
      <trkpt lat="41.188741" lon="1.591419">
        <ele>2.9</ele>
      </trkpt>
      <trkpt lat="41.188758" lon="1.591036">
        <ele>2.9</ele>
      </trkpt>
      <trkpt lat="41.188767" lon="1.59092">
        <ele>2.9</ele>
      </trkpt>
      <trkpt lat="41.188779" lon="1.590769">
        <ele>3.0</ele>
      </trkpt>
      <trkpt lat="41.188787" lon="1.590657">
        <ele>3.0</ele>
      </trkpt>
      <trkpt lat="41.188767" lon="1.590413">
        <ele>2.9</ele>
      </trkpt>
      <trkpt lat="41.188734" lon="1.590033">
        <ele>3.0</ele>
      </trkpt>
      <trkpt lat="41.188689" lon="1.589571">
        <ele>3.1</ele>
      </trkpt>
      <trkpt lat="41.188644" lon="1.589108">
        <ele>3.1</ele>
      </trkpt>
      <trkpt lat="41.188623" lon="1.588891">
        <ele>3.1</ele>
      </trkpt>
      <trkpt lat="41.188606" lon="1.588719">
        <ele>3.1</ele>
      </trkpt>
      <trkpt lat="41.188584" lon="1.588345">
        <ele>3.2</ele>
      </trkpt>
      <trkpt lat="41.188572" lon="1.58813">
        <ele>3.3</ele>
      </trkpt>
      <trkpt lat="41.188553" lon="1.587794">
        <ele>3.2</ele>
      </trkpt>
      <trkpt lat="41.188534" lon="1.587459">
        <ele>3.3</ele>
      </trkpt>
      <trkpt lat="41.188507" lon="1.587188">
        <ele>3.3</ele>
      </trkpt>
      <trkpt lat="41.18846" lon="1.586688">
        <ele>3.4</ele>
      </trkpt>
      <trkpt lat="41.188413" lon="1.586188">
        <ele>3.5</ele>
      </trkpt>
      <trkpt lat="41.188366" lon="1.585688">
        <ele>3.5</ele>
      </trkpt>
      <trkpt lat="41.188354" lon="1.585563">
        <ele>3.3</ele>
      </trkpt>
      <trkpt lat="41.188343" lon="1.585445">
        <ele>3.5</ele>
      </trkpt>
      <trkpt lat="41.188298" lon="1.584966">
        <ele>3.4</ele>
      </trkpt>
      <trkpt lat="41.188253" lon="1.584486">
        <ele>3.5</ele>
      </trkpt>
      <trkpt lat="41.188207" lon="1.584007">
        <ele>3.4</ele>
      </trkpt>
      <trkpt lat="41.188205" lon="1.583981">
        <ele>3.4</ele>
      </trkpt>
      <trkpt lat="41.188182" lon="1.583745">
        <ele>3.3</ele>
      </trkpt>
      <trkpt lat="41.188128" lon="1.583171">
        <ele>3.4</ele>
      </trkpt>
      <trkpt lat="41.18808" lon="1.582668">
        <ele>3.4</ele>
      </trkpt>
      <trkpt lat="41.188046" lon="1.582305">
        <ele>3.2</ele>
      </trkpt>
      <trkpt lat="41.188012" lon="1.581943">
        <ele>3.2</ele>
      </trkpt>
      <trkpt lat="41.187947" lon="1.581412">
        <ele>3.1</ele>
      </trkpt>
      <trkpt lat="41.187907" lon="1.581087">
        <ele>3.0</ele>
      </trkpt>
      <trkpt lat="41.187879" lon="1.580835">
        <ele>2.3</ele>
      </trkpt>
      <trkpt lat="41.187877" lon="1.580816">
        <ele>1.7</ele>
      </trkpt>
      <trkpt lat="41.187846" lon="1.580489">
        <ele>1.2</ele>
      </trkpt>
      <trkpt lat="41.187828" lon="1.580285">
        <ele>2.0</ele>
      </trkpt>
      <trkpt lat="41.187823" lon="1.580253">
        <ele>2.0</ele>
      </trkpt>
      <trkpt lat="41.187814" lon="1.580192">
        <ele>1.9</ele>
      </trkpt>
      <trkpt lat="41.187804" lon="1.580096">
        <ele>1.8</ele>
      </trkpt>
      <trkpt lat="41.187789" lon="1.579943">
        <ele>1.8</ele>
      </trkpt>
      <trkpt lat="41.187758" lon="1.579642">
        <ele>1.8</ele>
      </trkpt>
      <trkpt lat="41.187727" lon="1.579342">
        <ele>1.8</ele>
      </trkpt>
      <trkpt lat="41.187672" lon="1.578807">
        <ele>1.8</ele>
      </trkpt>
      <trkpt lat="41.187617" lon="1.578273">
        <ele>1.8</ele>
      </trkpt>
      <trkpt lat="41.18761" lon="1.578203">
        <ele>1.8</ele>
      </trkpt>
      <trkpt lat="41.187604" lon="1.578145">
        <ele>1.8</ele>
      </trkpt>
      <trkpt lat="41.187568" lon="1.577772">
        <ele>1.8</ele>
      </trkpt>
      <trkpt lat="41.187531" lon="1.577399">
        <ele>1.8</ele>
      </trkpt>
      <trkpt lat="41.187528" lon="1.577369">
        <ele>1.8</ele>
      </trkpt>
      <trkpt lat="41.187525" lon="1.577335">
        <ele>1.8</ele>
      </trkpt>
      <trkpt lat="41.187473" lon="1.576785">
        <ele>1.8</ele>
      </trkpt>
      <trkpt lat="41.187459" lon="1.576639">
        <ele>1.8</ele>
        <name>Passeig Marítim de Sant Joan de Déu, Calafell, Baix Penedès</name>
        <extensions>
          <oa:Extension>
            <oa:mapZoom>17</oa:mapZoom>
          </oa:Extension>
        </extensions>
      </trkpt>
      <trkpt lat="41.18742" lon="1.576234">
        <ele>1.8</ele>
      </trkpt>
      <trkpt lat="41.187414" lon="1.576165">
        <ele>1.8</ele>
      </trkpt>
      <trkpt lat="41.18737" lon="1.575707">
        <ele>1.8</ele>
      </trkpt>
      <trkpt lat="41.187326" lon="1.575249">
        <ele>1.9</ele>
      </trkpt>
      <trkpt lat="41.187686" lon="1.57516">
        <ele>1.9</ele>
      </trkpt>
      <trkpt lat="41.188046" lon="1.575071">
        <ele>1.9</ele>
      </trkpt>
      <trkpt lat="41.188061" lon="1.575078">
        <ele>2.0</ele>
      </trkpt>
      <trkpt lat="41.188068" lon="1.575087">
        <ele>2.0</ele>
      </trkpt>
      <trkpt lat="41.18807" lon="1.575103">
        <ele>2.1</ele>
      </trkpt>
      <trkpt lat="41.188097" lon="1.575099">
        <ele>2.0</ele>
      </trkpt>
      <trkpt lat="41.188123" lon="1.575093">
        <ele>1.9</ele>
      </trkpt>
      <trkpt lat="41.188121" lon="1.57508">
        <ele>1.9</ele>
      </trkpt>
      <trkpt lat="41.188128" lon="1.575063">
        <ele>1.9</ele>
      </trkpt>
      <trkpt lat="41.188152" lon="1.575058">
        <ele>2.0</ele>
      </trkpt>
      <trkpt lat="41.188494" lon="1.57498">
        <ele>2.3</ele>
      </trkpt>
      <trkpt lat="41.188837" lon="1.574903">
        <ele>2.5</ele>
      </trkpt>
      <trkpt lat="41.189179" lon="1.574825">
        <ele>2.9</ele>
      </trkpt>
      <trkpt lat="41.189199" lon="1.574998">
        <ele>3.0</ele>
      </trkpt>
      <trkpt lat="41.189246" lon="1.57499">
        <ele>3.0</ele>
      </trkpt>
      <trkpt lat="41.189288" lon="1.574984">
        <ele>3.0</ele>
      </trkpt>
      <trkpt lat="41.189286" lon="1.574945">
        <ele>2.9</ele>
      </trkpt>
      <trkpt lat="41.189375" lon="1.574921">
        <ele>3.6</ele>
      </trkpt>
      <trkpt lat="41.189365" lon="1.574802">
        <ele>1.7</ele>
      </trkpt>
      <trkpt lat="41.189525" lon="1.574771">
        <ele>1.1</ele>
      </trkpt>
      <trkpt lat="41.189601" lon="1.574758">
        <ele>3.7</ele>
      </trkpt>
      <trkpt lat="41.189604" lon="1.574791">
        <ele>3.8</ele>
      </trkpt>
      <trkpt lat="41.189595" lon="1.574838">
        <ele>4.0</ele>
      </trkpt>
      <trkpt lat="41.189601" lon="1.574885">
        <ele>4.3</ele>
      </trkpt>
      <trkpt lat="41.189601" lon="1.574891">
        <ele>4.3</ele>
      </trkpt>
      <trkpt lat="41.189602" lon="1.574898">
        <ele>4.3</ele>
      </trkpt>
      <trkpt lat="41.189594" lon="1.574899">
        <ele>4.3</ele>
      </trkpt>
      <trkpt lat="41.189595" lon="1.574908">
        <ele>4.3</ele>
        <name>Calafell, Calafell, Baix Penedès</name>
        <extensions>
          <oa:Extension>
            <oa:mapZoom>17</oa:mapZoom>
          </oa:Extension>
        </extensions>
      </trkpt>
    </trkseg>
  </trk>
</gpx>