<?xml version="1.0" encoding="UTF-8" standalone="yes"?>
<gpx version="1.1" creator="outdooractive - http://www.outdooractive.com" xmlns="http://www.topografix.com/GPX/1/1" xmlns:oa="http://www.outdooractive.com/GPX/Extensions/1" xmlns:xsi="http://www.w3.org/2001/XMLSchema-instance" xsi:schemaLocation="http://www.topografix.com/GPX/1/1 http://www.topografix.com/GPX/1/1/gpx.xsd http://www.outdooractive.com/GPX/Extensions/1 https://www.outdooractive.com/schema/gpx_extensions.xsd">
  <metadata>
    <name>GR92 E24 Calafell–Torredembarra</name>
    <author>
      <name>Jari Tossavainen - Community</name>
    </author>
    <link href="https://www.outdooractive.com/r/353454708"/>
    <time>2026-09-21T11:20:31.386Z</time>
    <extensions>
      <oa:oaCategory>longDistanceHikingTrail</oa:oaCategory>
    </extensions>
  </metadata>
  <trk>
    <name>GR92 E24 Calafell–Torredembarra</name>
    <type>longDistanceHikingTrail</type>
    <trkseg>
      <trkpt lat="41.189595" lon="1.574908">
        <ele>4.3</ele>
        <name>Calafell, Calafell, Baix Penedès</name>
        <extensions>
          <oa:Extension>
            <oa:mapZoom>17</oa:mapZoom>
          </oa:Extension>
        </extensions>
      </trkpt>
      <trkpt lat="41.189594" lon="1.574899">
        <ele>4.3</ele>
      </trkpt>
      <trkpt lat="41.189602" lon="1.574898">
        <ele>4.3</ele>
      </trkpt>
      <trkpt lat="41.189601" lon="1.574891">
        <ele>4.3</ele>
      </trkpt>
      <trkpt lat="41.189601" lon="1.574885">
        <ele>4.3</ele>
      </trkpt>
      <trkpt lat="41.189595" lon="1.574838">
        <ele>4.0</ele>
      </trkpt>
      <trkpt lat="41.189604" lon="1.574791">
        <ele>3.8</ele>
      </trkpt>
      <trkpt lat="41.189601" lon="1.574758">
        <ele>3.7</ele>
      </trkpt>
      <trkpt lat="41.189525" lon="1.574771">
        <ele>1.1</ele>
      </trkpt>
      <trkpt lat="41.189365" lon="1.574802">
        <ele>1.7</ele>
      </trkpt>
      <trkpt lat="41.189375" lon="1.574921">
        <ele>3.6</ele>
      </trkpt>
      <trkpt lat="41.189286" lon="1.574945">
        <ele>2.9</ele>
      </trkpt>
      <trkpt lat="41.189288" lon="1.574984">
        <ele>3.0</ele>
      </trkpt>
      <trkpt lat="41.189246" lon="1.57499">
        <ele>3.0</ele>
      </trkpt>
      <trkpt lat="41.189199" lon="1.574998">
        <ele>3.0</ele>
      </trkpt>
      <trkpt lat="41.189179" lon="1.574825">
        <ele>2.9</ele>
      </trkpt>
      <trkpt lat="41.188837" lon="1.574903">
        <ele>2.5</ele>
      </trkpt>
      <trkpt lat="41.188494" lon="1.57498">
        <ele>2.3</ele>
      </trkpt>
      <trkpt lat="41.188152" lon="1.575058">
        <ele>2.0</ele>
      </trkpt>
      <trkpt lat="41.188128" lon="1.575063">
        <ele>1.9</ele>
      </trkpt>
      <trkpt lat="41.188121" lon="1.57508">
        <ele>1.9</ele>
      </trkpt>
      <trkpt lat="41.188123" lon="1.575093">
        <ele>1.9</ele>
      </trkpt>
      <trkpt lat="41.188097" lon="1.575099">
        <ele>2.0</ele>
      </trkpt>
      <trkpt lat="41.18807" lon="1.575103">
        <ele>2.1</ele>
      </trkpt>
      <trkpt lat="41.188068" lon="1.575087">
        <ele>2.0</ele>
      </trkpt>
      <trkpt lat="41.188061" lon="1.575078">
        <ele>2.0</ele>
      </trkpt>
      <trkpt lat="41.188046" lon="1.575071">
        <ele>1.9</ele>
      </trkpt>
      <trkpt lat="41.187686" lon="1.57516">
        <ele>1.9</ele>
      </trkpt>
      <trkpt lat="41.187326" lon="1.575249">
        <ele>1.9</ele>
      </trkpt>
      <trkpt lat="41.187322" lon="1.575208">
        <ele>1.8</ele>
      </trkpt>
      <trkpt lat="41.187318" lon="1.575171">
        <ele>1.9</ele>
      </trkpt>
      <trkpt lat="41.187281" lon="1.5748">
        <ele>1.8</ele>
      </trkpt>
      <trkpt lat="41.18728" lon="1.574787">
        <ele>1.8</ele>
        <name>Passeig Marítim de Sant Joan de Déu, Calafell, Baix Penedès</name>
        <extensions>
          <oa:Extension>
            <oa:mapZoom>17</oa:mapZoom>
          </oa:Extension>
        </extensions>
      </trkpt>
      <trkpt lat="41.187245" lon="1.574429">
        <ele>1.8</ele>
      </trkpt>
      <trkpt lat="41.187195" lon="1.573855">
        <ele>1.9</ele>
      </trkpt>
      <trkpt lat="41.187192" lon="1.57382">
        <ele>1.9</ele>
      </trkpt>
      <trkpt lat="41.187188" lon="1.573789">
        <ele>1.9</ele>
      </trkpt>
      <trkpt lat="41.187142" lon="1.573387">
        <ele>1.8</ele>
      </trkpt>
      <trkpt lat="41.187096" lon="1.572985">
        <ele>1.8</ele>
      </trkpt>
      <trkpt lat="41.18705" lon="1.572583">
        <ele>1.8</ele>
      </trkpt>
      <trkpt lat="41.187011" lon="1.572208">
        <ele>1.9</ele>
      </trkpt>
      <trkpt lat="41.186965" lon="1.571761">
        <ele>1.8</ele>
      </trkpt>
      <trkpt lat="41.186919" lon="1.571305">
        <ele>1.8</ele>
      </trkpt>
      <trkpt lat="41.186873" lon="1.570849">
        <ele>1.7</ele>
      </trkpt>
      <trkpt lat="41.18684" lon="1.570466">
        <ele>1.7</ele>
      </trkpt>
      <trkpt lat="41.186823" lon="1.570273">
        <ele>1.8</ele>
      </trkpt>
      <trkpt lat="41.186786" lon="1.569848">
        <ele>1.8</ele>
      </trkpt>
      <trkpt lat="41.186767" lon="1.569631">
        <ele>1.8</ele>
      </trkpt>
      <trkpt lat="41.186709" lon="1.569306">
        <ele>1.9</ele>
      </trkpt>
      <trkpt lat="41.18668" lon="1.569125">
        <ele>1.9</ele>
      </trkpt>
      <trkpt lat="41.186618" lon="1.568718">
        <ele>1.8</ele>
      </trkpt>
      <trkpt lat="41.186592" lon="1.568536">
        <ele>1.9</ele>
      </trkpt>
      <trkpt lat="41.186525" lon="1.568062">
        <ele>1.8</ele>
      </trkpt>
      <trkpt lat="41.186487" lon="1.567795">
        <ele>1.8</ele>
      </trkpt>
      <trkpt lat="41.186436" lon="1.567429">
        <ele>1.6</ele>
      </trkpt>
      <trkpt lat="41.186435" lon="1.567419">
        <ele>1.6</ele>
      </trkpt>
      <trkpt lat="41.186438" lon="1.567368">
        <ele>1.5</ele>
      </trkpt>
      <trkpt lat="41.186444" lon="1.567318">
        <ele>1.6</ele>
      </trkpt>
      <trkpt lat="41.186383" lon="1.566772">
        <ele>2.1</ele>
      </trkpt>
      <trkpt lat="41.186322" lon="1.566225">
        <ele>2.0</ele>
      </trkpt>
      <trkpt lat="41.186262" lon="1.565679">
        <ele>2.1</ele>
      </trkpt>
      <trkpt lat="41.186219" lon="1.565236">
        <ele>2.1</ele>
      </trkpt>
      <trkpt lat="41.186213" lon="1.565181">
        <ele>2.1</ele>
        <name>Avinguda de Sant Joan de Déu, el Vendrell, Baix Penedès</name>
        <extensions>
          <oa:Extension>
            <oa:mapZoom>17</oa:mapZoom>
          </oa:Extension>
        </extensions>
      </trkpt>
      <trkpt lat="41.186176" lon="1.564793">
        <ele>2.1</ele>
      </trkpt>
      <trkpt lat="41.186133" lon="1.56435">
        <ele>2.1</ele>
      </trkpt>
      <trkpt lat="41.186071" lon="1.563869">
        <ele>2.3</ele>
      </trkpt>
      <trkpt lat="41.18601" lon="1.563388">
        <ele>2.8</ele>
      </trkpt>
      <trkpt lat="41.185948" lon="1.562907">
        <ele>2.8</ele>
      </trkpt>
      <trkpt lat="41.185886" lon="1.562426">
        <ele>2.8</ele>
      </trkpt>
      <trkpt lat="41.18585" lon="1.562089">
        <ele>2.4</ele>
      </trkpt>
      <trkpt lat="41.185814" lon="1.561751">
        <ele>2.2</ele>
      </trkpt>
      <trkpt lat="41.185768" lon="1.561316">
        <ele>2.1</ele>
      </trkpt>
      <trkpt lat="41.185723" lon="1.560881">
        <ele>2.2</ele>
      </trkpt>
      <trkpt lat="41.185636" lon="1.560319">
        <ele>2.2</ele>
      </trkpt>
      <trkpt lat="41.185551" lon="1.559757">
        <ele>2.2</ele>
      </trkpt>
      <trkpt lat="41.185464" lon="1.559195">
        <ele>2.2</ele>
      </trkpt>
      <trkpt lat="41.185377" lon="1.558732">
        <ele>2.2</ele>
      </trkpt>
      <trkpt lat="41.18529" lon="1.558269">
        <ele>2.2</ele>
      </trkpt>
      <trkpt lat="41.185203" lon="1.557806">
        <ele>2.3</ele>
      </trkpt>
      <trkpt lat="41.185103" lon="1.557252">
        <ele>2.2</ele>
      </trkpt>
      <trkpt lat="41.185003" lon="1.556697">
        <ele>2.2</ele>
      </trkpt>
      <trkpt lat="41.184903" lon="1.556143">
        <ele>2.2</ele>
      </trkpt>
      <trkpt lat="41.184803" lon="1.555588">
        <ele>2.2</ele>
      </trkpt>
      <trkpt lat="41.184729" lon="1.555219">
        <ele>2.2</ele>
      </trkpt>
      <trkpt lat="41.184656" lon="1.554851">
        <ele>2.1</ele>
      </trkpt>
      <trkpt lat="41.184883" lon="1.554747">
        <ele>2.2</ele>
      </trkpt>
      <trkpt lat="41.185165" lon="1.554649">
        <ele>2.4</ele>
      </trkpt>
      <trkpt lat="41.185173" lon="1.554615">
        <ele>2.2</ele>
      </trkpt>
      <trkpt lat="41.185277" lon="1.554577">
        <ele>1.7</ele>
      </trkpt>
      <trkpt lat="41.185273" lon="1.554551">
        <ele>1.7</ele>
      </trkpt>
      <trkpt lat="41.185337" lon="1.55452">
        <ele>1.7</ele>
      </trkpt>
      <trkpt lat="41.185343" lon="1.554477">
        <ele>1.7</ele>
      </trkpt>
      <trkpt lat="41.185292" lon="1.553954">
        <ele>1.7</ele>
      </trkpt>
      <trkpt lat="41.18524" lon="1.553431">
        <ele>1.8</ele>
      </trkpt>
      <trkpt lat="41.185189" lon="1.552908">
        <ele>2.0</ele>
      </trkpt>
      <trkpt lat="41.185137" lon="1.552385">
        <ele>2.1</ele>
      </trkpt>
      <trkpt lat="41.185101" lon="1.552031">
        <ele>2.3</ele>
        <name>Carretera del Sanatori a Sant Salvador, el Vendrell, Baix Penedès</name>
        <extensions>
          <oa:Extension>
            <oa:mapZoom>17</oa:mapZoom>
          </oa:Extension>
        </extensions>
      </trkpt>
      <trkpt lat="41.185087" lon="1.551893">
        <ele>2.4</ele>
      </trkpt>
      <trkpt lat="41.185037" lon="1.551402">
        <ele>2.4</ele>
      </trkpt>
      <trkpt lat="41.184988" lon="1.55091">
        <ele>2.5</ele>
      </trkpt>
      <trkpt lat="41.184937" lon="1.550352">
        <ele>2.5</ele>
      </trkpt>
      <trkpt lat="41.184887" lon="1.549794">
        <ele>2.6</ele>
      </trkpt>
      <trkpt lat="41.18485" lon="1.549463">
        <ele>2.4</ele>
      </trkpt>
      <trkpt lat="41.184814" lon="1.549132">
        <ele>2.7</ele>
      </trkpt>
      <trkpt lat="41.184799" lon="1.548997">
        <ele>2.9</ele>
      </trkpt>
      <trkpt lat="41.184753" lon="1.548574">
        <ele>3.1</ele>
      </trkpt>
      <trkpt lat="41.184706" lon="1.54815">
        <ele>1.8</ele>
      </trkpt>
      <trkpt lat="41.184658" lon="1.548154">
        <ele>1.8</ele>
      </trkpt>
      <trkpt lat="41.184609" lon="1.547815">
        <ele>1.4</ele>
      </trkpt>
      <trkpt lat="41.184557" lon="1.547468">
        <ele>2.1</ele>
      </trkpt>
      <trkpt lat="41.18452" lon="1.547222">
        <ele>3.1</ele>
      </trkpt>
      <trkpt lat="41.184459" lon="1.546816">
        <ele>2.4</ele>
      </trkpt>
      <trkpt lat="41.184397" lon="1.54641">
        <ele>2.0</ele>
      </trkpt>
      <trkpt lat="41.184085" lon="1.546462">
        <ele>1.9</ele>
      </trkpt>
      <trkpt lat="41.183772" lon="1.546514">
        <ele>1.7</ele>
      </trkpt>
      <trkpt lat="41.183733" lon="1.546162">
        <ele>1.9</ele>
      </trkpt>
      <trkpt lat="41.183693" lon="1.54581">
        <ele>1.6</ele>
      </trkpt>
      <trkpt lat="41.183632" lon="1.545315">
        <ele>2.2</ele>
      </trkpt>
      <trkpt lat="41.183572" lon="1.54482">
        <ele>2.2</ele>
      </trkpt>
      <trkpt lat="41.183511" lon="1.544325">
        <ele>1.4</ele>
      </trkpt>
      <trkpt lat="41.183588" lon="1.544304">
        <ele>1.5</ele>
      </trkpt>
      <trkpt lat="41.18352" lon="1.543752">
        <ele>1.9</ele>
      </trkpt>
      <trkpt lat="41.183452" lon="1.543201">
        <ele>1.8</ele>
      </trkpt>
      <trkpt lat="41.183411" lon="1.542896">
        <ele>1.8</ele>
      </trkpt>
      <trkpt lat="41.183383" lon="1.542665">
        <ele>1.8</ele>
      </trkpt>
      <trkpt lat="41.183348" lon="1.54239">
        <ele>1.8</ele>
      </trkpt>
      <trkpt lat="41.183277" lon="1.541928">
        <ele>1.9</ele>
        <name>Museu Pau Casals, el Vendrell, Baix Penedès</name>
        <extensions>
          <oa:Extension>
            <oa:mapZoom>17</oa:mapZoom>
          </oa:Extension>
        </extensions>
      </trkpt>
      <trkpt lat="41.183261" lon="1.541829">
        <ele>1.9</ele>
      </trkpt>
      <trkpt lat="41.183185" lon="1.541303">
        <ele>1.9</ele>
      </trkpt>
      <trkpt lat="41.183132" lon="1.540839">
        <ele>1.9</ele>
      </trkpt>
      <trkpt lat="41.183078" lon="1.540376">
        <ele>1.4</ele>
      </trkpt>
      <trkpt lat="41.183011" lon="1.539825">
        <ele>1.9</ele>
      </trkpt>
      <trkpt lat="41.182944" lon="1.539275">
        <ele>1.5</ele>
      </trkpt>
      <trkpt lat="41.182888" lon="1.538738">
        <ele>1.9</ele>
      </trkpt>
      <trkpt lat="41.182832" lon="1.538201">
        <ele>1.4</ele>
      </trkpt>
      <trkpt lat="41.182765" lon="1.537654">
        <ele>1.8</ele>
      </trkpt>
      <trkpt lat="41.182697" lon="1.537107">
        <ele>1.6</ele>
      </trkpt>
      <trkpt lat="41.182646" lon="1.536686">
        <ele>1.9</ele>
      </trkpt>
      <trkpt lat="41.182594" lon="1.536264">
        <ele>1.8</ele>
      </trkpt>
      <trkpt lat="41.182543" lon="1.535918">
        <ele>1.7</ele>
      </trkpt>
      <trkpt lat="41.182467" lon="1.535481">
        <ele>2.1</ele>
      </trkpt>
      <trkpt lat="41.182391" lon="1.535044">
        <ele>2.1</ele>
      </trkpt>
      <trkpt lat="41.182315" lon="1.534606">
        <ele>1.5</ele>
      </trkpt>
      <trkpt lat="41.182252" lon="1.534218">
        <ele>2.1</ele>
      </trkpt>
      <trkpt lat="41.182189" lon="1.53383">
        <ele>1.3</ele>
      </trkpt>
      <trkpt lat="41.182093" lon="1.533285">
        <ele>2.1</ele>
      </trkpt>
      <trkpt lat="41.181997" lon="1.53274">
        <ele>1.6</ele>
      </trkpt>
      <trkpt lat="41.181954" lon="1.532482">
        <ele>2.1</ele>
      </trkpt>
      <trkpt lat="41.181876" lon="1.532008">
        <ele>2.1</ele>
      </trkpt>
      <trkpt lat="41.181817" lon="1.53165">
        <ele>2.1</ele>
      </trkpt>
      <trkpt lat="41.181758" lon="1.531291">
        <ele>2.0</ele>
      </trkpt>
      <trkpt lat="41.181701" lon="1.53087">
        <ele>2.1</ele>
      </trkpt>
      <trkpt lat="41.181644" lon="1.530448">
        <ele>1.4</ele>
      </trkpt>
      <trkpt lat="41.181574" lon="1.530024">
        <ele>2.0</ele>
      </trkpt>
      <trkpt lat="41.181542" lon="1.529833">
        <ele>2.0</ele>
        <name>Passeig Marítim de Coma-ruga, el Vendrell, Baix Penedès</name>
        <extensions>
          <oa:Extension>
            <oa:mapZoom>17</oa:mapZoom>
          </oa:Extension>
        </extensions>
      </trkpt>
      <trkpt lat="41.181504" lon="1.5296">
        <ele>2.0</ele>
      </trkpt>
      <trkpt lat="41.181434" lon="1.529176">
        <ele>1.6</ele>
      </trkpt>
      <trkpt lat="41.181371" lon="1.528752">
        <ele>2.2</ele>
      </trkpt>
      <trkpt lat="41.181308" lon="1.528327">
        <ele>1.4</ele>
      </trkpt>
      <trkpt lat="41.181235" lon="1.527802">
        <ele>2.0</ele>
      </trkpt>
      <trkpt lat="41.181162" lon="1.527276">
        <ele>1.6</ele>
      </trkpt>
      <trkpt lat="41.18109" lon="1.526767">
        <ele>1.9</ele>
      </trkpt>
      <trkpt lat="41.181019" lon="1.526258">
        <ele>1.9</ele>
      </trkpt>
      <trkpt lat="41.180948" lon="1.525749">
        <ele>1.6</ele>
      </trkpt>
      <trkpt lat="41.180901" lon="1.525336">
        <ele>1.9</ele>
      </trkpt>
      <trkpt lat="41.180854" lon="1.524923">
        <ele>1.9</ele>
      </trkpt>
      <trkpt lat="41.180844" lon="1.524859">
        <ele>1.9</ele>
      </trkpt>
      <trkpt lat="41.180743" lon="1.52429">
        <ele>1.8</ele>
      </trkpt>
      <trkpt lat="41.180639" lon="1.523757">
        <ele>1.8</ele>
      </trkpt>
      <trkpt lat="41.180535" lon="1.523225">
        <ele>1.8</ele>
      </trkpt>
      <trkpt lat="41.180505" lon="1.523061">
        <ele>1.7</ele>
      </trkpt>
      <trkpt lat="41.180483" lon="1.522961">
        <ele>1.8</ele>
      </trkpt>
      <trkpt lat="41.180392" lon="1.52252">
        <ele>1.9</ele>
      </trkpt>
      <trkpt lat="41.1803" lon="1.522079">
        <ele>1.9</ele>
      </trkpt>
      <trkpt lat="41.180208" lon="1.521637">
        <ele>1.8</ele>
      </trkpt>
      <trkpt lat="41.180161" lon="1.521411">
        <ele>1.7</ele>
      </trkpt>
      <trkpt lat="41.180074" lon="1.521001">
        <ele>1.9</ele>
      </trkpt>
      <trkpt lat="41.179988" lon="1.52059">
        <ele>1.8</ele>
      </trkpt>
      <trkpt lat="41.179901" lon="1.520215">
        <ele>1.9</ele>
      </trkpt>
      <trkpt lat="41.179814" lon="1.519839">
        <ele>1.8</ele>
      </trkpt>
      <trkpt lat="41.1798" lon="1.519781">
        <ele>1.8</ele>
      </trkpt>
      <trkpt lat="41.179722" lon="1.519447">
        <ele>1.9</ele>
      </trkpt>
      <trkpt lat="41.179645" lon="1.519114">
        <ele>1.9</ele>
      </trkpt>
      <trkpt lat="41.179609" lon="1.51896">
        <ele>1.9</ele>
      </trkpt>
      <trkpt lat="41.179486" lon="1.518463">
        <ele>1.9</ele>
      </trkpt>
      <trkpt lat="41.179455" lon="1.518325">
        <ele>1.9</ele>
      </trkpt>
      <trkpt lat="41.179412" lon="1.518134">
        <ele>1.8</ele>
      </trkpt>
      <trkpt lat="41.179313" lon="1.517719">
        <ele>1.9</ele>
      </trkpt>
      <trkpt lat="41.179214" lon="1.517305">
        <ele>1.8</ele>
      </trkpt>
      <trkpt lat="41.179105" lon="1.516854">
        <ele>1.9</ele>
      </trkpt>
      <trkpt lat="41.178983" lon="1.516408">
        <ele>1.8</ele>
      </trkpt>
      <trkpt lat="41.178911" lon="1.516124">
        <ele>1.9</ele>
      </trkpt>
      <trkpt lat="41.178838" lon="1.51584">
        <ele>1.8</ele>
      </trkpt>
      <trkpt lat="41.178696" lon="1.515353">
        <ele>2.0</ele>
      </trkpt>
      <trkpt lat="41.178601" lon="1.515003">
        <ele>2.2</ele>
      </trkpt>
      <trkpt lat="41.178506" lon="1.514652">
        <ele>2.4</ele>
      </trkpt>
      <trkpt lat="41.178364" lon="1.514132">
        <ele>2.8</ele>
      </trkpt>
      <trkpt lat="41.178352" lon="1.514085">
        <ele>2.8</ele>
        <name>Passeig Marítim de Coma-ruga, el Vendrell, Baix Penedès</name>
        <extensions>
          <oa:Extension>
            <oa:mapZoom>17</oa:mapZoom>
          </oa:Extension>
        </extensions>
      </trkpt>
      <trkpt lat="41.178222" lon="1.513612">
        <ele>3.0</ele>
      </trkpt>
      <trkpt lat="41.178152" lon="1.513364">
        <ele>3.2</ele>
      </trkpt>
      <trkpt lat="41.178015" lon="1.512872">
        <ele>3.4</ele>
      </trkpt>
      <trkpt lat="41.177879" lon="1.51238">
        <ele>3.8</ele>
      </trkpt>
      <trkpt lat="41.177777" lon="1.51202">
        <ele>4.0</ele>
      </trkpt>
      <trkpt lat="41.177617" lon="1.511563">
        <ele>4.2</ele>
      </trkpt>
      <trkpt lat="41.177544" lon="1.511348">
        <ele>4.2</ele>
      </trkpt>
      <trkpt lat="41.177404" lon="1.510971">
        <ele>4.5</ele>
      </trkpt>
      <trkpt lat="41.17726" lon="1.51057">
        <ele>4.8</ele>
      </trkpt>
      <trkpt lat="41.177135" lon="1.510252">
        <ele>5.0</ele>
      </trkpt>
      <trkpt lat="41.176979" lon="1.509801">
        <ele>5.1</ele>
      </trkpt>
      <trkpt lat="41.176905" lon="1.509584">
        <ele>5.1</ele>
      </trkpt>
      <trkpt lat="41.176896" lon="1.509558">
        <ele>5.1</ele>
      </trkpt>
      <trkpt lat="41.176863" lon="1.509459">
        <ele>5.1</ele>
      </trkpt>
      <trkpt lat="41.176811" lon="1.509268">
        <ele>4.8</ele>
      </trkpt>
      <trkpt lat="41.176782" lon="1.509131">
        <ele>4.7</ele>
      </trkpt>
      <trkpt lat="41.176781" lon="1.508691">
        <ele>2.5</ele>
      </trkpt>
      <trkpt lat="41.176815" lon="1.508477">
        <ele>1.5</ele>
      </trkpt>
      <trkpt lat="41.176863" lon="1.508301">
        <ele>1.2</ele>
      </trkpt>
      <trkpt lat="41.176834" lon="1.508267">
        <ele>1.7</ele>
      </trkpt>
      <trkpt lat="41.176701" lon="1.508385">
        <ele>2.1</ele>
      </trkpt>
      <trkpt lat="41.176682" lon="1.50839">
        <ele>2.6</ele>
      </trkpt>
      <trkpt lat="41.176655" lon="1.508364">
        <ele>3.8</ele>
      </trkpt>
      <trkpt lat="41.176528" lon="1.508418">
        <ele>4.6</ele>
      </trkpt>
      <trkpt lat="41.176501" lon="1.508409">
        <ele>4.4</ele>
      </trkpt>
      <trkpt lat="41.176472" lon="1.508357">
        <ele>4.5</ele>
      </trkpt>
      <trkpt lat="41.176363" lon="1.508065">
        <ele>4.5</ele>
      </trkpt>
      <trkpt lat="41.176311" lon="1.507865">
        <ele>4.5</ele>
      </trkpt>
      <trkpt lat="41.1763" lon="1.50775">
        <ele>4.5</ele>
      </trkpt>
      <trkpt lat="41.176269" lon="1.507691">
        <ele>4.4</ele>
      </trkpt>
      <trkpt lat="41.176254" lon="1.507543">
        <ele>4.4</ele>
      </trkpt>
      <trkpt lat="41.17621" lon="1.507377">
        <ele>4.0</ele>
      </trkpt>
      <trkpt lat="41.176195" lon="1.507222">
        <ele>4.4</ele>
      </trkpt>
      <trkpt lat="41.176187" lon="1.507118">
        <ele>4.2</ele>
      </trkpt>
      <trkpt lat="41.176105" lon="1.506673">
        <ele>3.4</ele>
      </trkpt>
      <trkpt lat="41.176063" lon="1.506463">
        <ele>2.9</ele>
      </trkpt>
      <trkpt lat="41.175983" lon="1.505997">
        <ele>2.8</ele>
      </trkpt>
      <trkpt lat="41.175918" lon="1.505623">
        <ele>2.7</ele>
      </trkpt>
      <trkpt lat="41.175895" lon="1.505487">
        <ele>2.8</ele>
      </trkpt>
      <trkpt lat="41.175903" lon="1.505376">
        <ele>2.8</ele>
      </trkpt>
      <trkpt lat="41.175906" lon="1.505343">
        <ele>2.6</ele>
      </trkpt>
      <trkpt lat="41.175887" lon="1.505258">
        <ele>2.4</ele>
      </trkpt>
      <trkpt lat="41.175868" lon="1.505196">
        <ele>2.4</ele>
      </trkpt>
      <trkpt lat="41.175812" lon="1.505201">
        <ele>2.1</ele>
      </trkpt>
      <trkpt lat="41.175769" lon="1.505148">
        <ele>2.0</ele>
      </trkpt>
      <trkpt lat="41.175733" lon="1.504953">
        <ele>2.3</ele>
      </trkpt>
      <trkpt lat="41.175673" lon="1.504673">
        <ele>2.5</ele>
      </trkpt>
      <trkpt lat="41.17567" lon="1.504657">
        <ele>2.5</ele>
        <name>el Vendrell, Baix Penedès</name>
        <extensions>
          <oa:Extension>
            <oa:mapZoom>17</oa:mapZoom>
          </oa:Extension>
        </extensions>
      </trkpt>
      <trkpt lat="41.175627" lon="1.504452">
        <ele>2.7</ele>
      </trkpt>
      <trkpt lat="41.175525" lon="1.504035">
        <ele>3.0</ele>
      </trkpt>
      <trkpt lat="41.175435" lon="1.503854">
        <ele>2.8</ele>
      </trkpt>
      <trkpt lat="41.175405" lon="1.503646">
        <ele>2.6</ele>
      </trkpt>
      <trkpt lat="41.175462" lon="1.503575">
        <ele>4.8</ele>
      </trkpt>
      <trkpt lat="41.175377" lon="1.503167">
        <ele>4.2</ele>
      </trkpt>
      <trkpt lat="41.175367" lon="1.503113">
        <ele>3.6</ele>
      </trkpt>
      <trkpt lat="41.175391" lon="1.502993">
        <ele>3.1</ele>
      </trkpt>
      <trkpt lat="41.17541" lon="1.502849">
        <ele>2.9</ele>
      </trkpt>
      <trkpt lat="41.17538" lon="1.502598">
        <ele>2.4</ele>
      </trkpt>
      <trkpt lat="41.175377" lon="1.502585">
        <ele>2.3</ele>
      </trkpt>
      <trkpt lat="41.175326" lon="1.502605">
        <ele>1.9</ele>
      </trkpt>
      <trkpt lat="41.175323" lon="1.502566">
        <ele>2.0</ele>
      </trkpt>
      <trkpt lat="41.175265" lon="1.502335">
        <ele>3.8</ele>
      </trkpt>
      <trkpt lat="41.17518" lon="1.502117">
        <ele>3.2</ele>
      </trkpt>
      <trkpt lat="41.175078" lon="1.501993">
        <ele>3.1</ele>
      </trkpt>
      <trkpt lat="41.174992" lon="1.501985">
        <ele>3.2</ele>
      </trkpt>
      <trkpt lat="41.174911" lon="1.50195">
        <ele>4.2</ele>
      </trkpt>
      <trkpt lat="41.174858" lon="1.501921">
        <ele>4.8</ele>
      </trkpt>
      <trkpt lat="41.174828" lon="1.501861">
        <ele>4.8</ele>
      </trkpt>
      <trkpt lat="41.174829" lon="1.501787">
        <ele>4.8</ele>
      </trkpt>
      <trkpt lat="41.174874" lon="1.501669">
        <ele>5.4</ele>
      </trkpt>
      <trkpt lat="41.174897" lon="1.501562">
        <ele>3.9</ele>
      </trkpt>
      <trkpt lat="41.174893" lon="1.501526">
        <ele>3.2</ele>
      </trkpt>
      <trkpt lat="41.174882" lon="1.501508">
        <ele>2.6</ele>
      </trkpt>
      <trkpt lat="41.174858" lon="1.50145">
        <ele>1.4</ele>
      </trkpt>
      <trkpt lat="41.17485" lon="1.501422">
        <ele>1.4</ele>
      </trkpt>
      <trkpt lat="41.174843" lon="1.501321">
        <ele>2.2</ele>
      </trkpt>
      <trkpt lat="41.174828" lon="1.501194">
        <ele>2.1</ele>
      </trkpt>
      <trkpt lat="41.174807" lon="1.50107">
        <ele>2.1</ele>
      </trkpt>
      <trkpt lat="41.174777" lon="1.500906">
        <ele>2.0</ele>
      </trkpt>
      <trkpt lat="41.174767" lon="1.500775">
        <ele>2.6</ele>
      </trkpt>
      <trkpt lat="41.174739" lon="1.50063">
        <ele>2.9</ele>
      </trkpt>
      <trkpt lat="41.174697" lon="1.500478">
        <ele>2.7</ele>
      </trkpt>
      <trkpt lat="41.17465" lon="1.500333">
        <ele>2.5</ele>
      </trkpt>
      <trkpt lat="41.174594" lon="1.500138">
        <ele>3.0</ele>
      </trkpt>
      <trkpt lat="41.174527" lon="1.499887">
        <ele>2.4</ele>
      </trkpt>
      <trkpt lat="41.174445" lon="1.499556">
        <ele>2.3</ele>
      </trkpt>
      <trkpt lat="41.174381" lon="1.499281">
        <ele>2.3</ele>
      </trkpt>
      <trkpt lat="41.174244" lon="1.498889">
        <ele>2.2</ele>
      </trkpt>
      <trkpt lat="41.174173" lon="1.498625">
        <ele>2.3</ele>
      </trkpt>
      <trkpt lat="41.174137" lon="1.498244">
        <ele>2.4</ele>
      </trkpt>
      <trkpt lat="41.174101" lon="1.497862">
        <ele>2.2</ele>
      </trkpt>
      <trkpt lat="41.174026" lon="1.497303">
        <ele>1.2</ele>
      </trkpt>
      <trkpt lat="41.173983" lon="1.497091">
        <ele>2.0</ele>
      </trkpt>
      <trkpt lat="41.173886" lon="1.496979">
        <ele>2.1</ele>
      </trkpt>
      <trkpt lat="41.173756" lon="1.496517">
        <ele>1.9</ele>
      </trkpt>
      <trkpt lat="41.173711" lon="1.496388">
        <ele>2.0</ele>
      </trkpt>
      <trkpt lat="41.173729" lon="1.496015">
        <ele>2.1</ele>
      </trkpt>
      <trkpt lat="41.173702" lon="1.49576">
        <ele>1.6</ele>
      </trkpt>
      <trkpt lat="41.173719" lon="1.495639">
        <ele>1.6</ele>
      </trkpt>
      <trkpt lat="41.173757" lon="1.495532">
        <ele>1.8</ele>
      </trkpt>
      <trkpt lat="41.173732" lon="1.495474">
        <ele>1.6</ele>
      </trkpt>
      <trkpt lat="41.173598" lon="1.495497">
        <ele>1.7</ele>
      </trkpt>
      <trkpt lat="41.173471" lon="1.495555">
        <ele>1.4</ele>
      </trkpt>
      <trkpt lat="41.173376" lon="1.495609">
        <ele>1.6</ele>
      </trkpt>
      <trkpt lat="41.173319" lon="1.495481">
        <ele>2.1</ele>
      </trkpt>
      <trkpt lat="41.173262" lon="1.495257">
        <ele>2.2</ele>
      </trkpt>
      <trkpt lat="41.173183" lon="1.494921">
        <ele>2.1</ele>
      </trkpt>
      <trkpt lat="41.173097" lon="1.49458">
        <ele>2.3</ele>
      </trkpt>
      <trkpt lat="41.173013" lon="1.49428">
        <ele>2.0</ele>
      </trkpt>
      <trkpt lat="41.172929" lon="1.49398">
        <ele>2.4</ele>
      </trkpt>
      <trkpt lat="41.172847" lon="1.493697">
        <ele>2.3</ele>
      </trkpt>
      <trkpt lat="41.172764" lon="1.493415">
        <ele>2.1</ele>
      </trkpt>
      <trkpt lat="41.172658" lon="1.493112">
        <ele>1.9</ele>
      </trkpt>
      <trkpt lat="41.172611" lon="1.492989">
        <ele>2.0</ele>
        <name>Platja de Cal Guinovart, Roda de Berà, Tarragonès</name>
        <extensions>
          <oa:Extension>
            <oa:mapZoom>17</oa:mapZoom>
          </oa:Extension>
        </extensions>
      </trkpt>
      <trkpt lat="41.172533" lon="1.49278">
        <ele>2.2</ele>
      </trkpt>
      <trkpt lat="41.172508" lon="1.4928">
        <ele>1.9</ele>
      </trkpt>
      <trkpt lat="41.172501" lon="1.492808">
        <ele>1.9</ele>
      </trkpt>
      <trkpt lat="41.172459" lon="1.492661">
        <ele>2.0</ele>
      </trkpt>
      <trkpt lat="41.172441" lon="1.492664">
        <ele>1.9</ele>
      </trkpt>
      <trkpt lat="41.172391" lon="1.492466">
        <ele>2.0</ele>
      </trkpt>
      <trkpt lat="41.172425" lon="1.492387">
        <ele>2.2</ele>
      </trkpt>
      <trkpt lat="41.172322" lon="1.491985">
        <ele>2.0</ele>
      </trkpt>
      <trkpt lat="41.172226" lon="1.491703">
        <ele>2.0</ele>
      </trkpt>
      <trkpt lat="41.172152" lon="1.491301">
        <ele>2.4</ele>
      </trkpt>
      <trkpt lat="41.172222" lon="1.491094">
        <ele>3.1</ele>
      </trkpt>
      <trkpt lat="41.172191" lon="1.490998">
        <ele>3.0</ele>
      </trkpt>
      <trkpt lat="41.172195" lon="1.490912">
        <ele>3.4</ele>
      </trkpt>
      <trkpt lat="41.172116" lon="1.490618">
        <ele>3.3</ele>
      </trkpt>
      <trkpt lat="41.172037" lon="1.490446">
        <ele>2.7</ele>
      </trkpt>
      <trkpt lat="41.172036" lon="1.490382">
        <ele>3.0</ele>
      </trkpt>
      <trkpt lat="41.171998" lon="1.490314">
        <ele>2.8</ele>
      </trkpt>
      <trkpt lat="41.17198" lon="1.490205">
        <ele>3.0</ele>
      </trkpt>
      <trkpt lat="41.171928" lon="1.490022">
        <ele>2.6</ele>
      </trkpt>
      <trkpt lat="41.171884" lon="1.489845">
        <ele>2.1</ele>
      </trkpt>
      <trkpt lat="41.171896" lon="1.489711">
        <ele>2.3</ele>
      </trkpt>
      <trkpt lat="41.171839" lon="1.489449">
        <ele>2.1</ele>
      </trkpt>
      <trkpt lat="41.17175" lon="1.489042">
        <ele>2.1</ele>
      </trkpt>
      <trkpt lat="41.171661" lon="1.488636">
        <ele>2.1</ele>
      </trkpt>
      <trkpt lat="41.171572" lon="1.488229">
        <ele>1.8</ele>
      </trkpt>
      <trkpt lat="41.171537" lon="1.488091">
        <ele>1.8</ele>
      </trkpt>
      <trkpt lat="41.17142" lon="1.487631">
        <ele>2.1</ele>
      </trkpt>
      <trkpt lat="41.171304" lon="1.48717">
        <ele>2.3</ele>
      </trkpt>
      <trkpt lat="41.171187" lon="1.486709">
        <ele>2.5</ele>
      </trkpt>
      <trkpt lat="41.171148" lon="1.486596">
        <ele>2.6</ele>
      </trkpt>
      <trkpt lat="41.171113" lon="1.486546">
        <ele>2.6</ele>
      </trkpt>
      <trkpt lat="41.171038" lon="1.486408">
        <ele>2.5</ele>
      </trkpt>
      <trkpt lat="41.170844" lon="1.485979">
        <ele>2.8</ele>
      </trkpt>
      <trkpt lat="41.17061" lon="1.485641">
        <ele>3.4</ele>
      </trkpt>
      <trkpt lat="41.170412" lon="1.485453">
        <ele>3.7</ele>
      </trkpt>
      <trkpt lat="41.170214" lon="1.485265">
        <ele>3.5</ele>
      </trkpt>
      <trkpt lat="41.169927" lon="1.484839">
        <ele>4.3</ele>
      </trkpt>
      <trkpt lat="41.169784" lon="1.484482">
        <ele>4.4</ele>
      </trkpt>
      <trkpt lat="41.169745" lon="1.484185">
        <ele>3.8</ele>
      </trkpt>
      <trkpt lat="41.16977" lon="1.483651">
        <ele>3.1</ele>
      </trkpt>
      <trkpt lat="41.169805" lon="1.483069">
        <ele>3.2</ele>
      </trkpt>
      <trkpt lat="41.16984" lon="1.482487">
        <ele>3.0</ele>
      </trkpt>
      <trkpt lat="41.169842" lon="1.482457">
        <ele>3.0</ele>
      </trkpt>
      <trkpt lat="41.169778" lon="1.482498">
        <ele>3.0</ele>
      </trkpt>
      <trkpt lat="41.169748" lon="1.482514">
        <ele>2.9</ele>
      </trkpt>
      <trkpt lat="41.169683" lon="1.482548">
        <ele>2.7</ele>
      </trkpt>
      <trkpt lat="41.169595" lon="1.482397">
        <ele>3.1</ele>
        <name>Roda de Berà, Tarragonès</name>
        <extensions>
          <oa:Extension>
            <oa:mapZoom>17</oa:mapZoom>
          </oa:Extension>
        </extensions>
      </trkpt>
      <trkpt lat="41.169493" lon="1.482222">
        <ele>3.5</ele>
      </trkpt>
      <trkpt lat="41.169326" lon="1.48198">
        <ele>3.7</ele>
      </trkpt>
      <trkpt lat="41.169295" lon="1.481958">
        <ele>3.8</ele>
      </trkpt>
      <trkpt lat="41.169242" lon="1.481841">
        <ele>4.2</ele>
      </trkpt>
      <trkpt lat="41.169216" lon="1.481749">
        <ele>4.7</ele>
      </trkpt>
      <trkpt lat="41.169149" lon="1.481512">
        <ele>5.3</ele>
      </trkpt>
      <trkpt lat="41.169048" lon="1.481152">
        <ele>5.5</ele>
      </trkpt>
      <trkpt lat="41.168982" lon="1.481183">
        <ele>5.6</ele>
      </trkpt>
      <trkpt lat="41.168949" lon="1.481049">
        <ele>6.1</ele>
      </trkpt>
      <trkpt lat="41.168876" lon="1.480757">
        <ele>7.3</ele>
      </trkpt>
      <trkpt lat="41.168841" lon="1.480617">
        <ele>7.9</ele>
      </trkpt>
      <trkpt lat="41.168808" lon="1.480484">
        <ele>8.4</ele>
      </trkpt>
      <trkpt lat="41.168767" lon="1.480318">
        <ele>9.1</ele>
      </trkpt>
      <trkpt lat="41.168697" lon="1.48037">
        <ele>8.7</ele>
      </trkpt>
      <trkpt lat="41.168667" lon="1.480393">
        <ele>8.1</ele>
      </trkpt>
      <trkpt lat="41.168617" lon="1.480193">
        <ele>9.0</ele>
      </trkpt>
      <trkpt lat="41.168609" lon="1.480134">
        <ele>8.6</ele>
      </trkpt>
      <trkpt lat="41.168601" lon="1.480069">
        <ele>8.3</ele>
      </trkpt>
      <trkpt lat="41.168617" lon="1.479984">
        <ele>9.8</ele>
      </trkpt>
      <trkpt lat="41.168651" lon="1.479932">
        <ele>10.8</ele>
      </trkpt>
      <trkpt lat="41.168677" lon="1.479854">
        <ele>11.3</ele>
      </trkpt>
      <trkpt lat="41.16869" lon="1.479715">
        <ele>11.4</ele>
      </trkpt>
      <trkpt lat="41.168688" lon="1.47961">
        <ele>10.9</ele>
      </trkpt>
      <trkpt lat="41.168678" lon="1.47946">
        <ele>11.3</ele>
      </trkpt>
      <trkpt lat="41.168676" lon="1.479436">
        <ele>11.4</ele>
      </trkpt>
      <trkpt lat="41.168653" lon="1.479238">
        <ele>10.6</ele>
      </trkpt>
      <trkpt lat="41.168639" lon="1.479092">
        <ele>11.1</ele>
      </trkpt>
      <trkpt lat="41.168605" lon="1.478869">
        <ele>9.9</ele>
      </trkpt>
      <trkpt lat="41.168571" lon="1.4787">
        <ele>9.0</ele>
      </trkpt>
      <trkpt lat="41.168523" lon="1.478577">
        <ele>8.0</ele>
      </trkpt>
      <trkpt lat="41.168431" lon="1.478401">
        <ele>8.6</ele>
      </trkpt>
      <trkpt lat="41.168346" lon="1.47824">
        <ele>8.6</ele>
      </trkpt>
      <trkpt lat="41.168261" lon="1.478055">
        <ele>8.5</ele>
      </trkpt>
      <trkpt lat="41.168176" lon="1.477802">
        <ele>7.9</ele>
      </trkpt>
      <trkpt lat="41.168099" lon="1.477544">
        <ele>6.1</ele>
      </trkpt>
      <trkpt lat="41.168086" lon="1.47741">
        <ele>5.7</ele>
      </trkpt>
      <trkpt lat="41.168072" lon="1.477291">
        <ele>6.4</ele>
      </trkpt>
      <trkpt lat="41.168081" lon="1.476994">
        <ele>6.4</ele>
      </trkpt>
      <trkpt lat="41.168075" lon="1.476876">
        <ele>7.4</ele>
      </trkpt>
      <trkpt lat="41.168036" lon="1.476776">
        <ele>8.0</ele>
      </trkpt>
      <trkpt lat="41.167963" lon="1.47666">
        <ele>9.2</ele>
      </trkpt>
      <trkpt lat="41.167953" lon="1.476619">
        <ele>8.8</ele>
      </trkpt>
      <trkpt lat="41.167891" lon="1.476521">
        <ele>8.8</ele>
      </trkpt>
      <trkpt lat="41.16782" lon="1.476408">
        <ele>10.0</ele>
      </trkpt>
      <trkpt lat="41.167739" lon="1.476296">
        <ele>10.8</ele>
      </trkpt>
      <trkpt lat="41.167728" lon="1.476251">
        <ele>10.9</ele>
      </trkpt>
      <trkpt lat="41.167682" lon="1.476162">
        <ele>10.8</ele>
      </trkpt>
      <trkpt lat="41.16751" lon="1.475907">
        <ele>11.0</ele>
      </trkpt>
      <trkpt lat="41.167389" lon="1.475649">
        <ele>12.4</ele>
      </trkpt>
      <trkpt lat="41.167376" lon="1.475541">
        <ele>13.5</ele>
      </trkpt>
      <trkpt lat="41.167349" lon="1.475443">
        <ele>13.5</ele>
      </trkpt>
      <trkpt lat="41.167318" lon="1.475338">
        <ele>13.3</ele>
      </trkpt>
      <trkpt lat="41.167303" lon="1.475151">
        <ele>13.8</ele>
      </trkpt>
      <trkpt lat="41.167285" lon="1.47501">
        <ele>13.6</ele>
      </trkpt>
      <trkpt lat="41.167274" lon="1.47485">
        <ele>14.4</ele>
      </trkpt>
      <trkpt lat="41.167247" lon="1.474743">
        <ele>14.4</ele>
      </trkpt>
      <trkpt lat="41.167204" lon="1.474663">
        <ele>14.4</ele>
      </trkpt>
      <trkpt lat="41.167175" lon="1.474584">
        <ele>13.6</ele>
      </trkpt>
      <trkpt lat="41.167147" lon="1.474524">
        <ele>13.1</ele>
      </trkpt>
      <trkpt lat="41.16709" lon="1.474417">
        <ele>11.3</ele>
      </trkpt>
      <trkpt lat="41.167057" lon="1.474335">
        <ele>11.2</ele>
      </trkpt>
      <trkpt lat="41.167033" lon="1.474341">
        <ele>10.8</ele>
      </trkpt>
      <trkpt lat="41.167009" lon="1.47424">
        <ele>10.5</ele>
      </trkpt>
      <trkpt lat="41.167004" lon="1.47403">
        <ele>8.4</ele>
      </trkpt>
      <trkpt lat="41.167009" lon="1.473994">
        <ele>8.1</ele>
      </trkpt>
      <trkpt lat="41.167034" lon="1.473972">
        <ele>8.5</ele>
      </trkpt>
      <trkpt lat="41.167041" lon="1.473935">
        <ele>8.4</ele>
      </trkpt>
      <trkpt lat="41.167042" lon="1.47384">
        <ele>8.2</ele>
      </trkpt>
      <trkpt lat="41.167048" lon="1.473758">
        <ele>8.3</ele>
      </trkpt>
      <trkpt lat="41.167046" lon="1.473743">
        <ele>8.2</ele>
      </trkpt>
      <trkpt lat="41.167042" lon="1.473704">
        <ele>8.1</ele>
      </trkpt>
      <trkpt lat="41.167008" lon="1.473669">
        <ele>7.4</ele>
      </trkpt>
      <trkpt lat="41.166943" lon="1.473629">
        <ele>7.4</ele>
      </trkpt>
      <trkpt lat="41.166878" lon="1.47359">
        <ele>7.5</ele>
      </trkpt>
      <trkpt lat="41.166787" lon="1.473501">
        <ele>7.1</ele>
      </trkpt>
      <trkpt lat="41.166741" lon="1.473421">
        <ele>6.7</ele>
      </trkpt>
      <trkpt lat="41.166698" lon="1.473314">
        <ele>7.0</ele>
      </trkpt>
      <trkpt lat="41.16657" lon="1.473068">
        <ele>9.0</ele>
      </trkpt>
      <trkpt lat="41.16658" lon="1.473015">
        <ele>8.5</ele>
      </trkpt>
      <trkpt lat="41.166464" lon="1.472577">
        <ele>9.5</ele>
      </trkpt>
      <trkpt lat="41.166516" lon="1.472486">
        <ele>13.2</ele>
      </trkpt>
      <trkpt lat="41.166506" lon="1.472414">
        <ele>12.5</ele>
      </trkpt>
      <trkpt lat="41.166483" lon="1.472218">
        <ele>13.5</ele>
      </trkpt>
      <trkpt lat="41.16648" lon="1.472097">
        <ele>13.7</ele>
      </trkpt>
      <trkpt lat="41.16648" lon="1.471934">
        <ele>14.8</ele>
      </trkpt>
      <trkpt lat="41.166494" lon="1.471887">
        <ele>15.7</ele>
      </trkpt>
      <trkpt lat="41.166487" lon="1.471852">
        <ele>15.0</ele>
      </trkpt>
      <trkpt lat="41.166477" lon="1.471825">
        <ele>14.2</ele>
      </trkpt>
      <trkpt lat="41.16646" lon="1.471776">
        <ele>14.1</ele>
      </trkpt>
      <trkpt lat="41.166415" lon="1.471604">
        <ele>13.8</ele>
      </trkpt>
      <trkpt lat="41.166378" lon="1.471548">
        <ele>13.8</ele>
      </trkpt>
      <trkpt lat="41.166357" lon="1.47149">
        <ele>13.8</ele>
      </trkpt>
      <trkpt lat="41.166337" lon="1.471446">
        <ele>13.4</ele>
      </trkpt>
      <trkpt lat="41.166337" lon="1.471396">
        <ele>13.4</ele>
      </trkpt>
      <trkpt lat="41.166359" lon="1.471359">
        <ele>12.3</ele>
      </trkpt>
      <trkpt lat="41.166399" lon="1.471339">
        <ele>11.4</ele>
      </trkpt>
      <trkpt lat="41.166446" lon="1.471345">
        <ele>11.1</ele>
      </trkpt>
      <trkpt lat="41.166504" lon="1.471361">
        <ele>10.6</ele>
      </trkpt>
      <trkpt lat="41.166501" lon="1.471287">
        <ele>9.3</ele>
      </trkpt>
      <trkpt lat="41.16644" lon="1.471249">
        <ele>8.7</ele>
      </trkpt>
      <trkpt lat="41.166427" lon="1.471224">
        <ele>8.4</ele>
      </trkpt>
      <trkpt lat="41.166425" lon="1.47119">
        <ele>8.0</ele>
      </trkpt>
      <trkpt lat="41.166433" lon="1.471146">
        <ele>7.5</ele>
      </trkpt>
      <trkpt lat="41.166497" lon="1.47105">
        <ele>6.6</ele>
        <name>Roda de Berà, Tarragonès</name>
        <extensions>
          <oa:Extension>
            <oa:mapZoom>17</oa:mapZoom>
          </oa:Extension>
        </extensions>
      </trkpt>
      <trkpt lat="41.16666" lon="1.470805">
        <ele>4.4</ele>
      </trkpt>
      <trkpt lat="41.166693" lon="1.470413">
        <ele>2.7</ele>
      </trkpt>
      <trkpt lat="41.166723" lon="1.470037">
        <ele>2.4</ele>
      </trkpt>
      <trkpt lat="41.166754" lon="1.469662">
        <ele>2.2</ele>
      </trkpt>
      <trkpt lat="41.166762" lon="1.469484">
        <ele>1.6</ele>
      </trkpt>
      <trkpt lat="41.166764" lon="1.469329">
        <ele>1.7</ele>
      </trkpt>
      <trkpt lat="41.166731" lon="1.469136">
        <ele>2.1</ele>
      </trkpt>
      <trkpt lat="41.166644" lon="1.468724">
        <ele>2.3</ele>
      </trkpt>
      <trkpt lat="41.166558" lon="1.468311">
        <ele>2.3</ele>
      </trkpt>
      <trkpt lat="41.166502" lon="1.467945">
        <ele>2.4</ele>
      </trkpt>
      <trkpt lat="41.166445" lon="1.467578">
        <ele>2.3</ele>
      </trkpt>
      <trkpt lat="41.166384" lon="1.467296">
        <ele>1.8</ele>
      </trkpt>
      <trkpt lat="41.166361" lon="1.467204">
        <ele>2.2</ele>
      </trkpt>
      <trkpt lat="41.166243" lon="1.466759">
        <ele>2.3</ele>
      </trkpt>
      <trkpt lat="41.166125" lon="1.466315">
        <ele>2.4</ele>
      </trkpt>
      <trkpt lat="41.166007" lon="1.465871">
        <ele>2.2</ele>
      </trkpt>
      <trkpt lat="41.165872" lon="1.465364">
        <ele>2.3</ele>
      </trkpt>
      <trkpt lat="41.165738" lon="1.464858">
        <ele>2.1</ele>
      </trkpt>
      <trkpt lat="41.1656" lon="1.464327">
        <ele>2.3</ele>
      </trkpt>
      <trkpt lat="41.1655" lon="1.463967">
        <ele>2.2</ele>
      </trkpt>
      <trkpt lat="41.1654" lon="1.463606">
        <ele>2.3</ele>
      </trkpt>
      <trkpt lat="41.165274" lon="1.463226">
        <ele>2.1</ele>
      </trkpt>
      <trkpt lat="41.165147" lon="1.462845">
        <ele>2.3</ele>
      </trkpt>
      <trkpt lat="41.165021" lon="1.462465">
        <ele>2.3</ele>
      </trkpt>
      <trkpt lat="41.164939" lon="1.462225">
        <ele>1.5</ele>
      </trkpt>
      <trkpt lat="41.164811" lon="1.461775">
        <ele>2.4</ele>
      </trkpt>
      <trkpt lat="41.164683" lon="1.461325">
        <ele>2.4</ele>
      </trkpt>
      <trkpt lat="41.164555" lon="1.460875">
        <ele>2.4</ele>
      </trkpt>
      <trkpt lat="41.164427" lon="1.460425">
        <ele>2.4</ele>
      </trkpt>
      <trkpt lat="41.164403" lon="1.460398">
        <ele>2.3</ele>
      </trkpt>
      <trkpt lat="41.164192" lon="1.460325">
        <ele>2.1</ele>
      </trkpt>
      <trkpt lat="41.164176" lon="1.46026">
        <ele>2.2</ele>
      </trkpt>
      <trkpt lat="41.164022" lon="1.459893">
        <ele>2.5</ele>
      </trkpt>
      <trkpt lat="41.163963" lon="1.459751">
        <ele>2.7</ele>
      </trkpt>
      <trkpt lat="41.163699" lon="1.459303">
        <ele>2.2</ele>
      </trkpt>
      <trkpt lat="41.163623" lon="1.45932">
        <ele>1.9</ele>
      </trkpt>
      <trkpt lat="41.16359" lon="1.459306">
        <ele>2.0</ele>
      </trkpt>
      <trkpt lat="41.163536" lon="1.459201">
        <ele>2.2</ele>
      </trkpt>
      <trkpt lat="41.163517" lon="1.459158">
        <ele>2.3</ele>
      </trkpt>
      <trkpt lat="41.163382" lon="1.458842">
        <ele>2.8</ele>
      </trkpt>
      <trkpt lat="41.163233" lon="1.458464">
        <ele>2.9</ele>
      </trkpt>
      <trkpt lat="41.163116" lon="1.458168">
        <ele>3.1</ele>
      </trkpt>
      <trkpt lat="41.163017" lon="1.457918">
        <ele>3.6</ele>
      </trkpt>
      <trkpt lat="41.162845" lon="1.457567">
        <ele>3.1</ele>
      </trkpt>
      <trkpt lat="41.162674" lon="1.457216">
        <ele>2.8</ele>
      </trkpt>
      <trkpt lat="41.162473" lon="1.456804">
        <ele>2.6</ele>
      </trkpt>
      <trkpt lat="41.162272" lon="1.456392">
        <ele>2.5</ele>
      </trkpt>
      <trkpt lat="41.162071" lon="1.45598">
        <ele>2.4</ele>
      </trkpt>
      <trkpt lat="41.161838" lon="1.455503">
        <ele>2.5</ele>
      </trkpt>
      <trkpt lat="41.161772" lon="1.455232">
        <ele>2.3</ele>
        <name>Passeig Marítim, Creixell, Tarragonès</name>
        <extensions>
          <oa:Extension>
            <oa:mapZoom>17</oa:mapZoom>
          </oa:Extension>
        </extensions>
      </trkpt>
      <trkpt lat="41.161766" lon="1.455204">
        <ele>2.3</ele>
      </trkpt>
      <trkpt lat="41.161693" lon="1.454905">
        <ele>2.3</ele>
      </trkpt>
      <trkpt lat="41.16161" lon="1.454832">
        <ele>2.0</ele>
      </trkpt>
      <trkpt lat="41.161528" lon="1.454812">
        <ele>1.2</ele>
      </trkpt>
      <trkpt lat="41.161378" lon="1.454653">
        <ele>0.9</ele>
      </trkpt>
      <trkpt lat="41.16134" lon="1.454585">
        <ele>0.8</ele>
      </trkpt>
      <trkpt lat="41.161141" lon="1.454227">
        <ele>2.1</ele>
      </trkpt>
      <trkpt lat="41.161099" lon="1.454187">
        <ele>2.0</ele>
      </trkpt>
      <trkpt lat="41.161018" lon="1.454056">
        <ele>2.0</ele>
      </trkpt>
      <trkpt lat="41.160909" lon="1.453868">
        <ele>2.0</ele>
      </trkpt>
      <trkpt lat="41.160862" lon="1.453774">
        <ele>2.0</ele>
      </trkpt>
      <trkpt lat="41.160816" lon="1.453643">
        <ele>2.0</ele>
      </trkpt>
      <trkpt lat="41.160863" lon="1.453569">
        <ele>1.7</ele>
      </trkpt>
      <trkpt lat="41.160856" lon="1.453553">
        <ele>1.7</ele>
      </trkpt>
      <trkpt lat="41.160853" lon="1.453535">
        <ele>1.7</ele>
      </trkpt>
      <trkpt lat="41.160852" lon="1.453517">
        <ele>1.7</ele>
      </trkpt>
      <trkpt lat="41.160853" lon="1.453498">
        <ele>1.7</ele>
      </trkpt>
      <trkpt lat="41.160858" lon="1.453481">
        <ele>1.7</ele>
      </trkpt>
      <trkpt lat="41.160865" lon="1.453465">
        <ele>1.7</ele>
      </trkpt>
      <trkpt lat="41.160699" lon="1.453174">
        <ele>1.6</ele>
      </trkpt>
      <trkpt lat="41.160595" lon="1.452885">
        <ele>1.4</ele>
      </trkpt>
      <trkpt lat="41.160513" lon="1.452558">
        <ele>1.4</ele>
      </trkpt>
      <trkpt lat="41.160431" lon="1.452231">
        <ele>1.3</ele>
      </trkpt>
      <trkpt lat="41.160353" lon="1.451901">
        <ele>1.3</ele>
      </trkpt>
      <trkpt lat="41.160275" lon="1.451571">
        <ele>1.4</ele>
      </trkpt>
      <trkpt lat="41.160245" lon="1.451425">
        <ele>1.4</ele>
      </trkpt>
      <trkpt lat="41.160097" lon="1.450973">
        <ele>1.5</ele>
      </trkpt>
      <trkpt lat="41.160015" lon="1.45072">
        <ele>1.5</ele>
      </trkpt>
      <trkpt lat="41.159988" lon="1.450604">
        <ele>1.6</ele>
      </trkpt>
      <trkpt lat="41.159914" lon="1.450319">
        <ele>1.6</ele>
      </trkpt>
      <trkpt lat="41.1598" lon="1.449878">
        <ele>1.4</ele>
      </trkpt>
      <trkpt lat="41.159737" lon="1.449635">
        <ele>1.4</ele>
      </trkpt>
      <trkpt lat="41.159683" lon="1.449686">
        <ele>1.4</ele>
      </trkpt>
      <trkpt lat="41.15955" lon="1.449763">
        <ele>1.3</ele>
      </trkpt>
      <trkpt lat="41.1595" lon="1.449761">
        <ele>1.3</ele>
      </trkpt>
      <trkpt lat="41.159361" lon="1.44987">
        <ele>1.4</ele>
      </trkpt>
      <trkpt lat="41.159265" lon="1.449649">
        <ele>1.6</ele>
      </trkpt>
      <trkpt lat="41.159169" lon="1.449558">
        <ele>1.5</ele>
      </trkpt>
      <trkpt lat="41.159057" lon="1.449241">
        <ele>1.6</ele>
      </trkpt>
      <trkpt lat="41.158945" lon="1.448924">
        <ele>1.0</ele>
      </trkpt>
      <trkpt lat="41.15879" lon="1.448573">
        <ele>1.3</ele>
      </trkpt>
      <trkpt lat="41.158636" lon="1.448222">
        <ele>1.4</ele>
      </trkpt>
      <trkpt lat="41.158489" lon="1.447813">
        <ele>2.1</ele>
      </trkpt>
      <trkpt lat="41.158341" lon="1.447404">
        <ele>1.4</ele>
      </trkpt>
      <trkpt lat="41.158193" lon="1.446994">
        <ele>1.3</ele>
      </trkpt>
      <trkpt lat="41.158139" lon="1.446925">
        <ele>1.3</ele>
        <name>Platja de Creixell, Creixell, Tarragonès</name>
        <extensions>
          <oa:Extension>
            <oa:mapZoom>17</oa:mapZoom>
          </oa:Extension>
        </extensions>
      </trkpt>
      <trkpt lat="41.158112" lon="1.446889">
        <ele>1.3</ele>
      </trkpt>
      <trkpt lat="41.15806" lon="1.446698">
        <ele>0.7</ele>
      </trkpt>
      <trkpt lat="41.158051" lon="1.446474">
        <ele>1.2</ele>
      </trkpt>
      <trkpt lat="41.157916" lon="1.446021">
        <ele>1.8</ele>
      </trkpt>
      <trkpt lat="41.157781" lon="1.445567">
        <ele>1.7</ele>
      </trkpt>
      <trkpt lat="41.157727" lon="1.44544">
        <ele>1.6</ele>
      </trkpt>
      <trkpt lat="41.157591" lon="1.445113">
        <ele>1.8</ele>
      </trkpt>
      <trkpt lat="41.157455" lon="1.444786">
        <ele>1.5</ele>
      </trkpt>
      <trkpt lat="41.157287" lon="1.444384">
        <ele>1.5</ele>
      </trkpt>
      <trkpt lat="41.157238" lon="1.44417">
        <ele>1.6</ele>
      </trkpt>
      <trkpt lat="41.1572" lon="1.444005">
        <ele>1.8</ele>
      </trkpt>
      <trkpt lat="41.15701" lon="1.443495">
        <ele>2.0</ele>
      </trkpt>
      <trkpt lat="41.156842" lon="1.443044">
        <ele>1.9</ele>
      </trkpt>
      <trkpt lat="41.156674" lon="1.442594">
        <ele>2.0</ele>
      </trkpt>
      <trkpt lat="41.156506" lon="1.442144">
        <ele>1.7</ele>
      </trkpt>
      <trkpt lat="41.1564" lon="1.441925">
        <ele>1.6</ele>
      </trkpt>
      <trkpt lat="41.156491" lon="1.441837">
        <ele>1.7</ele>
      </trkpt>
      <trkpt lat="41.156653" lon="1.441703">
        <ele>1.5</ele>
      </trkpt>
      <trkpt lat="41.15684" lon="1.441522">
        <ele>1.5</ele>
      </trkpt>
      <trkpt lat="41.156812" lon="1.44146">
        <ele>1.4</ele>
      </trkpt>
      <trkpt lat="41.156663" lon="1.44115">
        <ele>1.7</ele>
      </trkpt>
      <trkpt lat="41.156554" lon="1.440934">
        <ele>1.7</ele>
      </trkpt>
      <trkpt lat="41.156373" lon="1.440544">
        <ele>1.7</ele>
      </trkpt>
      <trkpt lat="41.156254" lon="1.440305">
        <ele>1.9</ele>
      </trkpt>
      <trkpt lat="41.156169" lon="1.440168">
        <ele>1.6</ele>
      </trkpt>
      <trkpt lat="41.15599" lon="1.439991">
        <ele>1.7</ele>
      </trkpt>
      <trkpt lat="41.155962" lon="1.439931">
        <ele>1.4</ele>
      </trkpt>
      <trkpt lat="41.155957" lon="1.439921">
        <ele>1.4</ele>
      </trkpt>
      <trkpt lat="41.155932" lon="1.439866">
        <ele>1.4</ele>
      </trkpt>
      <trkpt lat="41.155931" lon="1.439863">
        <ele>1.4</ele>
      </trkpt>
      <trkpt lat="41.155876" lon="1.439729">
        <ele>1.3</ele>
      </trkpt>
      <trkpt lat="41.155787" lon="1.439384">
        <ele>1.2</ele>
      </trkpt>
      <trkpt lat="41.155698" lon="1.439039">
        <ele>1.3</ele>
      </trkpt>
      <trkpt lat="41.155626" lon="1.438742">
        <ele>1.3</ele>
      </trkpt>
      <trkpt lat="41.155485" lon="1.438386">
        <ele>1.4</ele>
      </trkpt>
      <trkpt lat="41.155335" lon="1.437959">
        <ele>0.8</ele>
      </trkpt>
      <trkpt lat="41.155253" lon="1.437619">
        <ele>1.2</ele>
      </trkpt>
      <trkpt lat="41.155169" lon="1.43739">
        <ele>1.2</ele>
      </trkpt>
      <trkpt lat="41.155028" lon="1.437076">
        <ele>1.0</ele>
      </trkpt>
      <trkpt lat="41.154814" lon="1.436671">
        <ele>1.1</ele>
      </trkpt>
      <trkpt lat="41.154723" lon="1.436511">
        <ele>1.2</ele>
      </trkpt>
      <trkpt lat="41.154637" lon="1.436333">
        <ele>1.3</ele>
      </trkpt>
      <trkpt lat="41.154557" lon="1.436066">
        <ele>1.2</ele>
      </trkpt>
      <trkpt lat="41.154485" lon="1.435715">
        <ele>1.4</ele>
      </trkpt>
      <trkpt lat="41.154365" lon="1.435395">
        <ele>1.2</ele>
      </trkpt>
      <trkpt lat="41.154256" lon="1.435202">
        <ele>1.2</ele>
      </trkpt>
      <trkpt lat="41.154036" lon="1.434747">
        <ele>1.3</ele>
      </trkpt>
      <trkpt lat="41.153785" lon="1.434254">
        <ele>1.2</ele>
      </trkpt>
      <trkpt lat="41.153787" lon="1.434249">
        <ele>1.2</ele>
      </trkpt>
      <trkpt lat="41.15362" lon="1.433967">
        <ele>1.3</ele>
      </trkpt>
      <trkpt lat="41.153454" lon="1.433684">
        <ele>1.4</ele>
      </trkpt>
      <trkpt lat="41.153256" lon="1.433365">
        <ele>1.4</ele>
      </trkpt>
      <trkpt lat="41.153059" lon="1.433047">
        <ele>1.4</ele>
      </trkpt>
      <trkpt lat="41.152893" lon="1.432768">
        <ele>1.5</ele>
      </trkpt>
      <trkpt lat="41.152722" lon="1.432573">
        <ele>1.6</ele>
      </trkpt>
      <trkpt lat="41.152667" lon="1.432511">
        <ele>1.6</ele>
        <name>Torredembarra, Tarragonès</name>
        <extensions>
          <oa:Extension>
            <oa:mapZoom>17</oa:mapZoom>
          </oa:Extension>
        </extensions>
      </trkpt>
      <trkpt lat="41.152551" lon="1.432378">
        <ele>1.7</ele>
      </trkpt>
      <trkpt lat="41.152483" lon="1.432331">
        <ele>1.7</ele>
      </trkpt>
      <trkpt lat="41.152313" lon="1.43217">
        <ele>1.9</ele>
      </trkpt>
      <trkpt lat="41.152301" lon="1.432134">
        <ele>1.8</ele>
      </trkpt>
      <trkpt lat="41.152256" lon="1.431989">
        <ele>1.6</ele>
      </trkpt>
      <trkpt lat="41.152239" lon="1.431935">
        <ele>1.6</ele>
      </trkpt>
      <trkpt lat="41.152116" lon="1.431531">
        <ele>1.4</ele>
      </trkpt>
      <trkpt lat="41.152041" lon="1.431391">
        <ele>1.4</ele>
      </trkpt>
      <trkpt lat="41.151986" lon="1.431113">
        <ele>1.7</ele>
      </trkpt>
      <trkpt lat="41.151927" lon="1.431106">
        <ele>1.6</ele>
      </trkpt>
      <trkpt lat="41.151693" lon="1.431234">
        <ele>1.5</ele>
      </trkpt>
      <trkpt lat="41.15152" lon="1.430814">
        <ele>1.5</ele>
      </trkpt>
      <trkpt lat="41.151346" lon="1.430395">
        <ele>1.5</ele>
      </trkpt>
      <trkpt lat="41.151315" lon="1.430321">
        <ele>1.5</ele>
        <name>Platja dels Muntanyans, Torredembarra, Tarragonès</name>
        <extensions>
          <oa:Extension>
            <oa:mapZoom>17</oa:mapZoom>
          </oa:Extension>
        </extensions>
      </trkpt>
      <trkpt lat="41.151172" lon="1.429975">
        <ele>1.5</ele>
      </trkpt>
      <trkpt lat="41.150999" lon="1.429555">
        <ele>1.5</ele>
      </trkpt>
      <trkpt lat="41.150802" lon="1.429075">
        <ele>1.5</ele>
      </trkpt>
      <trkpt lat="41.150605" lon="1.428594">
        <ele>1.5</ele>
      </trkpt>
      <trkpt lat="41.150408" lon="1.428113">
        <ele>1.5</ele>
      </trkpt>
      <trkpt lat="41.150211" lon="1.427633">
        <ele>1.2</ele>
      </trkpt>
      <trkpt lat="41.150014" lon="1.427152">
        <ele>1.3</ele>
      </trkpt>
      <trkpt lat="41.149792" lon="1.426673">
        <ele>1.3</ele>
      </trkpt>
      <trkpt lat="41.14957" lon="1.426194">
        <ele>1.3</ele>
      </trkpt>
      <trkpt lat="41.149348" lon="1.425715">
        <ele>1.1</ele>
      </trkpt>
      <trkpt lat="41.149126" lon="1.425236">
        <ele>0.9</ele>
      </trkpt>
      <trkpt lat="41.148904" lon="1.424756">
        <ele>0.9</ele>
      </trkpt>
      <trkpt lat="41.148682" lon="1.424277">
        <ele>0.8</ele>
      </trkpt>
      <trkpt lat="41.14846" lon="1.423798">
        <ele>0.7</ele>
      </trkpt>
      <trkpt lat="41.148238" lon="1.423319">
        <ele>0.7</ele>
      </trkpt>
      <trkpt lat="41.148016" lon="1.42284">
        <ele>0.7</ele>
      </trkpt>
      <trkpt lat="41.147803" lon="1.422414">
        <ele>0.7</ele>
      </trkpt>
      <trkpt lat="41.14759" lon="1.421988">
        <ele>0.7</ele>
      </trkpt>
      <trkpt lat="41.147377" lon="1.421563">
        <ele>0.6</ele>
      </trkpt>
      <trkpt lat="41.147164" lon="1.421137">
        <ele>0.6</ele>
      </trkpt>
      <trkpt lat="41.146978" lon="1.420729">
        <ele>0.8</ele>
      </trkpt>
      <trkpt lat="41.146792" lon="1.420321">
        <ele>0.9</ele>
      </trkpt>
      <trkpt lat="41.146605" lon="1.419913">
        <ele>0.9</ele>
      </trkpt>
      <trkpt lat="41.146419" lon="1.419506">
        <ele>0.9</ele>
      </trkpt>
      <trkpt lat="41.146305" lon="1.419107">
        <ele>1.2</ele>
      </trkpt>
      <trkpt lat="41.14619" lon="1.418709">
        <ele>1.4</ele>
      </trkpt>
      <trkpt lat="41.146065" lon="1.41838">
        <ele>1.4</ele>
      </trkpt>
      <trkpt lat="41.145939" lon="1.418052">
        <ele>1.4</ele>
      </trkpt>
      <trkpt lat="41.145834" lon="1.417615">
        <ele>1.3</ele>
      </trkpt>
      <trkpt lat="41.14573" lon="1.417179">
        <ele>1.4</ele>
      </trkpt>
      <trkpt lat="41.145684" lon="1.417072">
        <ele>1.6</ele>
        <name>Platja dels Muntanyans, Torredembarra, Tarragonès</name>
        <extensions>
          <oa:Extension>
            <oa:mapZoom>16</oa:mapZoom>
          </oa:Extension>
        </extensions>
      </trkpt>
      <trkpt lat="41.145561" lon="1.416785">
        <ele>2.0</ele>
      </trkpt>
      <trkpt lat="41.145392" lon="1.416391">
        <ele>1.8</ele>
      </trkpt>
      <trkpt lat="41.145206" lon="1.415914">
        <ele>1.0</ele>
      </trkpt>
      <trkpt lat="41.145151" lon="1.415774">
        <ele>1.1</ele>
      </trkpt>
      <trkpt lat="41.145164" lon="1.415531">
        <ele>1.6</ele>
      </trkpt>
      <trkpt lat="41.145006" lon="1.415206">
        <ele>1.6</ele>
      </trkpt>
      <trkpt lat="41.144848" lon="1.414881">
        <ele>1.2</ele>
      </trkpt>
      <trkpt lat="41.14464" lon="1.414491">
        <ele>1.7</ele>
      </trkpt>
      <trkpt lat="41.144433" lon="1.414101">
        <ele>1.8</ele>
      </trkpt>
      <trkpt lat="41.144193" lon="1.413651">
        <ele>1.6</ele>
      </trkpt>
      <trkpt lat="41.143954" lon="1.4132">
        <ele>1.2</ele>
      </trkpt>
      <trkpt lat="41.143831" lon="1.412969">
        <ele>1.2</ele>
      </trkpt>
      <trkpt lat="41.143805" lon="1.412922">
        <ele>1.3</ele>
      </trkpt>
      <trkpt lat="41.143738" lon="1.41275">
        <ele>1.6</ele>
      </trkpt>
      <trkpt lat="41.14361" lon="1.412439">
        <ele>1.6</ele>
      </trkpt>
      <trkpt lat="41.143483" lon="1.412129">
        <ele>1.5</ele>
      </trkpt>
      <trkpt lat="41.143416" lon="1.411939">
        <ele>1.6</ele>
      </trkpt>
      <trkpt lat="41.143283" lon="1.411595">
        <ele>1.5</ele>
      </trkpt>
      <trkpt lat="41.14315" lon="1.411251">
        <ele>1.3</ele>
      </trkpt>
      <trkpt lat="41.143044" lon="1.410981">
        <ele>1.6</ele>
      </trkpt>
      <trkpt lat="41.142938" lon="1.410711">
        <ele>1.5</ele>
      </trkpt>
      <trkpt lat="41.142804" lon="1.410369">
        <ele>2.1</ele>
      </trkpt>
      <trkpt lat="41.142697" lon="1.410076">
        <ele>2.2</ele>
      </trkpt>
      <trkpt lat="41.142555" lon="1.409687">
        <ele>2.3</ele>
      </trkpt>
      <trkpt lat="41.142414" lon="1.409299">
        <ele>2.3</ele>
      </trkpt>
      <trkpt lat="41.142296" lon="1.408871">
        <ele>2.6</ele>
      </trkpt>
      <trkpt lat="41.142178" lon="1.408442">
        <ele>2.4</ele>
      </trkpt>
      <trkpt lat="41.14206" lon="1.408014">
        <ele>2.4</ele>
      </trkpt>
      <trkpt lat="41.142108" lon="1.407994">
        <ele>2.4</ele>
        <name>Torredembarra, Tarragonès</name>
        <extensions>
          <oa:Extension>
            <oa:mapZoom>18</oa:mapZoom>
          </oa:Extension>
        </extensions>
      </trkpt>
      <trkpt lat="41.142201" lon="1.407956">
        <ele>2.4</ele>
      </trkpt>
      <trkpt lat="41.142583" lon="1.407763">
        <ele>2.3</ele>
      </trkpt>
      <trkpt lat="41.142966" lon="1.40757">
        <ele>2.5</ele>
      </trkpt>
      <trkpt lat="41.142852" lon="1.407142">
        <ele>2.5</ele>
      </trkpt>
      <trkpt lat="41.142737" lon="1.406713">
        <ele>2.6</ele>
      </trkpt>
      <trkpt lat="41.142622" lon="1.406285">
        <ele>2.8</ele>
      </trkpt>
      <trkpt lat="41.14252" lon="1.405834">
        <ele>2.9</ele>
      </trkpt>
      <trkpt lat="41.142568" lon="1.405813">
        <ele>3.0</ele>
      </trkpt>
      <trkpt lat="41.142607" lon="1.405796">
        <ele>3.1</ele>
      </trkpt>
      <trkpt lat="41.142625" lon="1.405875">
        <ele>3.0</ele>
      </trkpt>
      <trkpt lat="41.142633" lon="1.405909">
        <ele>3.0</ele>
      </trkpt>
      <trkpt lat="41.14271" lon="1.406228">
        <ele>2.4</ele>
      </trkpt>
      <trkpt lat="41.142786" lon="1.406548">
        <ele>1.2</ele>
      </trkpt>
      <trkpt lat="41.143047" lon="1.406446">
        <ele>1.5</ele>
      </trkpt>
      <trkpt lat="41.142976" lon="1.406148">
        <ele>2.6</ele>
      </trkpt>
      <trkpt lat="41.142959" lon="1.406157">
        <ele>3.0</ele>
      </trkpt>
      <trkpt lat="41.143043" lon="1.40651">
        <ele>2.3</ele>
      </trkpt>
      <trkpt lat="41.143025" lon="1.406518">
        <ele>2.9</ele>
      </trkpt>
      <trkpt lat="41.142941" lon="1.406165">
        <ele>3.4</ele>
      </trkpt>
      <trkpt lat="41.142844" lon="1.405683">
        <ele>3.7</ele>
      </trkpt>
      <trkpt lat="41.142833" lon="1.405689">
        <ele>3.7</ele>
        <name>Torredembarra, Torredembarra, Tarragonès</name>
        <extensions>
          <oa:Extension>
            <oa:mapZoom>18</oa:mapZoom>
          </oa:Extension>
        </extensions>
      </trkpt>
    </trkseg>
  </trk>
</gpx>