<?xml version="1.0" encoding="UTF-8"?>
<gpx creator="Garmin Connect" version="1.1"
  xsi:schemaLocation="http://www.topografix.com/GPX/1/1 http://www.topografix.com/GPX/11.xsd"
  xmlns:ns3="http://www.garmin.com/xmlschemas/TrackPointExtension/v1"
  xmlns="http://www.topografix.com/GPX/1/1"
  xmlns:xsi="http://www.w3.org/2001/XMLSchema-instance" xmlns:ns2="http://www.garmin.com/xmlschemas/GpxExtensions/v3">
  <metadata>
    <name>GR92 Etappi 21: Sant Vicenç dels Horts -&gt; Garraf</name>
    <link href="connect.garmin.com">
      <text>Garmin Connect</text>
    </link>
    <time>2026-04-15T08:23:00.000Z</time>
  </metadata>
  <trk>
    <name>GR92 Etappi 21: Sant Vicenç dels Horts -&gt; Garraf</name>
    <trkseg>
      <trkpt lat="41.314764926210046" lon="1.9618029613047838">
        <ele>243.93</ele>
      </trkpt>
      <trkpt lat="41.314632995054126" lon="1.9610179960727692">
        <ele>253.01</ele>
      </trkpt>
      <trkpt lat="41.31406595930457" lon="1.9608919322490692">
        <ele>263.69</ele>
      </trkpt>
      <trkpt lat="41.3136619515717" lon="1.9605899322777987">
        <ele>277.45</ele>
      </trkpt>
      <trkpt lat="41.31299693137407" lon="1.9594949204474688">
        <ele>296.69</ele>
      </trkpt>
      <trkpt lat="41.31360495463014" lon="1.9596749637275934">
        <ele>310.91</ele>
      </trkpt>
      <trkpt lat="41.31294798105955" lon="1.958901984617114">
        <ele>325.85</ele>
      </trkpt>
      <trkpt lat="41.313109919428825" lon="1.958343917503953">
        <ele>338.96</ele>
      </trkpt>
      <trkpt lat="41.31301294080913" lon="1.9581699930131435">
        <ele>347.42</ele>
      </trkpt>
      <trkpt lat="41.31326892413199" lon="1.9578519836068153">
        <ele>356.9</ele>
      </trkpt>
      <trkpt lat="41.31317798048258" lon="1.9575609639286995">
        <ele>362.29</ele>
      </trkpt>
      <trkpt lat="41.31335391663015" lon="1.957382932305336">
        <ele>367.59</ele>
      </trkpt>
      <trkpt lat="41.3135049585253" lon="1.9559039454907179">
        <ele>370.57</ele>
      </trkpt>
      <trkpt lat="41.31414793431759" lon="1.955789951607585">
        <ele>372.52</ele>
      </trkpt>
      <trkpt lat="41.3143149856478" lon="1.9553269352763891">
        <ele>373.05</ele>
      </trkpt>
      <trkpt lat="41.31401994265616" lon="1.954649928957224">
        <ele>371.27</ele>
      </trkpt>
      <trkpt lat="41.313276970759034" lon="1.9539019279181957">
        <ele>366.34</ele>
      </trkpt>
      <trkpt lat="41.31324696354568" lon="1.9530299585312605">
        <ele>364.04</ele>
      </trkpt>
      <trkpt lat="41.31273197941482" lon="1.9521949533373117">
        <ele>359.5</ele>
      </trkpt>
      <trkpt lat="41.3128209952265" lon="1.9516869261860847">
        <ele>357.47</ele>
      </trkpt>
      <trkpt lat="41.31316691637039" lon="1.9512579403817654">
        <ele>357.62</ele>
      </trkpt>
      <trkpt lat="41.31296097300947" lon="1.950777992606163">
        <ele>355.2</ele>
      </trkpt>
      <trkpt lat="41.31314093247056" lon="1.9498269818723202">
        <ele>355.47</ele>
      </trkpt>
      <trkpt lat="41.31305191665888" lon="1.949329935014248">
        <ele>355.96</ele>
      </trkpt>
      <trkpt lat="41.312852930277586" lon="1.9492089841514826">
        <ele>356.5</ele>
      </trkpt>
      <trkpt lat="41.312415981665254" lon="1.9493639655411243">
        <ele>356.62</ele>
      </trkpt>
      <trkpt lat="41.31191197782755" lon="1.9488119333982468">
        <ele>360.38</ele>
      </trkpt>
      <trkpt lat="41.31058596074581" lon="1.9480279739946127">
        <ele>365.62</ele>
      </trkpt>
      <trkpt lat="41.31051697768271" lon="1.9476419873535633">
        <ele>369.57</ele>
      </trkpt>
      <trkpt lat="41.31021992303431" lon="1.9472859241068363">
        <ele>371.39</ele>
      </trkpt>
      <trkpt lat="41.310119926929474" lon="1.946418983861804">
        <ele>373.07</ele>
      </trkpt>
      <trkpt lat="41.310120932757854" lon="1.9450019393116236">
        <ele>374.15</ele>
      </trkpt>
      <trkpt lat="41.310379933565855" lon="1.9444309640675783">
        <ele>374.8</ele>
      </trkpt>
      <trkpt lat="41.31088091991842" lon="1.9444499909877777">
        <ele>376.48</ele>
      </trkpt>
      <trkpt lat="41.31137193180621" lon="1.9440909940749407">
        <ele>378.95</ele>
      </trkpt>
      <trkpt lat="41.31111494265497" lon="1.9423099234700203">
        <ele>378.58</ele>
      </trkpt>
      <trkpt lat="41.31144795566797" lon="1.9419099390506744">
        <ele>380.57</ele>
      </trkpt>
      <trkpt lat="41.31186495535076" lon="1.9418859668076038">
        <ele>383.25</ele>
      </trkpt>
      <trkpt lat="41.31239293143153" lon="1.9422209914773703">
        <ele>388.92</ele>
      </trkpt>
      <trkpt lat="41.3124499283731" lon="1.942117977887392">
        <ele>393.37</ele>
      </trkpt>
      <trkpt lat="41.312464931979775" lon="1.9399199914187193">
        <ele>399.81</ele>
      </trkpt>
      <trkpt lat="41.3128109369427" lon="1.9383919704705477">
        <ele>407.02</ele>
      </trkpt>
      <trkpt lat="41.313365986570716" lon="1.9384019449353218">
        <ele>413.62</ele>
      </trkpt>
      <trkpt lat="41.31347897462547" lon="1.9380609691143036">
        <ele>420.29</ele>
      </trkpt>
      <trkpt lat="41.31363999098539" lon="1.936016958206892">
        <ele>429.9</ele>
      </trkpt>
      <trkpt lat="41.31312299519777" lon="1.9355579651892185">
        <ele>435.42</ele>
      </trkpt>
      <trkpt lat="41.31285594776273" lon="1.9351009838283062">
        <ele>439.91</ele>
      </trkpt>
      <trkpt lat="41.312846979126334" lon="1.9346959702670574">
        <ele>442.64</ele>
      </trkpt>
      <trkpt lat="41.312717981636524" lon="1.9348509516566992">
        <ele>446.92</ele>
      </trkpt>
      <trkpt lat="41.312933983281255" lon="1.935849990695715">
        <ele>450.96</ele>
      </trkpt>
      <trkpt lat="41.312803979963064" lon="1.9359189737588167">
        <ele>456.08</ele>
      </trkpt>
      <trkpt lat="41.312372982501984" lon="1.9352729804813862">
        <ele>463.07</ele>
      </trkpt>
      <trkpt lat="41.31170494481921" lon="1.9353029876947403">
        <ele>471.74</ele>
      </trkpt>
      <trkpt lat="41.311068926006556" lon="1.9349299930036068">
        <ele>481.62</ele>
      </trkpt>
      <trkpt lat="41.31081394851208" lon="1.9350019935518503">
        <ele>492.19</ele>
      </trkpt>
      <trkpt lat="41.31053399294615" lon="1.9343279208987951">
        <ele>502.37</ele>
      </trkpt>
      <trkpt lat="41.30991691723466" lon="1.9339349772781134">
        <ele>511.93</ele>
      </trkpt>
      <trkpt lat="41.30930897779763" lon="1.9331959448754787">
        <ele>523.37</ele>
      </trkpt>
      <trkpt lat="41.309261955320835" lon="1.9327749218791723">
        <ele>530.66</ele>
      </trkpt>
      <trkpt lat="41.30874998867512" lon="1.931943939998746">
        <ele>538.21</ele>
      </trkpt>
      <trkpt lat="41.30856893956661" lon="1.931290989741683">
        <ele>541.51</ele>
      </trkpt>
      <trkpt lat="41.30798798985779" lon="1.9311059173196554">
        <ele>541.54</ele>
      </trkpt>
      <trkpt lat="41.30706598050892" lon="1.9300029426813126">
        <ele>538.83</ele>
      </trkpt>
      <trkpt lat="41.306721987202764" lon="1.9298999290913343">
        <ele>533.14</ele>
      </trkpt>
      <trkpt lat="41.306252935901284" lon="1.929455939680338">
        <ele>525.68</ele>
      </trkpt>
      <trkpt lat="41.30535699427128" lon="1.9291539397090673">
        <ele>513.95</ele>
      </trkpt>
      <trkpt lat="41.303892927244306" lon="1.9272769801318645">
        <ele>499.68</ele>
      </trkpt>
      <trkpt lat="41.30379192531109" lon="1.9268749840557575">
        <ele>491.55</ele>
      </trkpt>
      <trkpt lat="41.30293898284435" lon="1.9257899466902018">
        <ele>484.02</ele>
      </trkpt>
      <trkpt lat="41.30257093347609" lon="1.924959970638156">
        <ele>482.46</ele>
      </trkpt>
      <trkpt lat="41.30190599709749" lon="1.924458984285593">
        <ele>486.23</ele>
      </trkpt>
      <trkpt lat="41.30174799822271" lon="1.924137957394123">
        <ele>491.57</ele>
      </trkpt>
      <trkpt lat="41.300971917808056" lon="1.923879962414503">
        <ele>499.35</ele>
      </trkpt>
      <trkpt lat="41.29989895038307" lon="1.9238619413226843">
        <ele>506.82</ele>
      </trkpt>
      <trkpt lat="41.29920392297208" lon="1.9218959659337997">
        <ele>515.44</ele>
      </trkpt>
      <trkpt lat="41.29842398688197" lon="1.9218169245868921">
        <ele>522.87</ele>
      </trkpt>
      <trkpt lat="41.29807496443391" lon="1.921283919364214">
        <ele>529.08</ele>
      </trkpt>
      <trkpt lat="41.297978991642594" lon="1.9196639489382505">
        <ele>535.46</ele>
      </trkpt>
      <trkpt lat="41.297658970579505" lon="1.9188049715012312">
        <ele>541.59</ele>
      </trkpt>
      <trkpt lat="41.29677291959524" lon="1.9185119401663542">
        <ele>549.35</ele>
      </trkpt>
      <trkpt lat="41.296711983159184" lon="1.9180839601904154">
        <ele>556.76</ele>
      </trkpt>
      <trkpt lat="41.297055976465344" lon="1.9175179302692413">
        <ele>564.14</ele>
      </trkpt>
      <trkpt lat="41.297249933704734" lon="1.9167359825223684">
        <ele>570.85</ele>
      </trkpt>
      <trkpt lat="41.29694298841059" lon="1.916208928450942">
        <ele>577.16</ele>
      </trkpt>
      <trkpt lat="41.29676193930209" lon="1.9161929190158844">
        <ele>579.95</ele>
      </trkpt>
      <trkpt lat="41.296737967059016" lon="1.9156239554286003">
        <ele>580.67</ele>
      </trkpt>
      <trkpt lat="41.29607495851815" lon="1.9156359415501356">
        <ele>578.09</ele>
      </trkpt>
      <trkpt lat="41.295638931915164" lon="1.9154229573905468">
        <ele>572.15</ele>
      </trkpt>
      <trkpt lat="41.295549999922514" lon="1.9155279826372862">
        <ele>565.5</ele>
      </trkpt>
      <trkpt lat="41.294675935059786" lon="1.915343999862671">
        <ele>556.46</ele>
      </trkpt>
      <trkpt lat="41.29330096766353" lon="1.9166269339621067">
        <ele>545.5</ele>
      </trkpt>
      <trkpt lat="41.291492991149426" lon="1.916099963709712">
        <ele>535.07</ele>
      </trkpt>
      <trkpt lat="41.29118193872273" lon="1.9157169945538044">
        <ele>528.74</ele>
      </trkpt>
      <trkpt lat="41.29069092683494" lon="1.9157519470900297">
        <ele>522.91</ele>
      </trkpt>
      <trkpt lat="41.29025297239423" lon="1.9155019987374544">
        <ele>520.12</ele>
      </trkpt>
      <trkpt lat="41.28973798826337" lon="1.9143109302967787">
        <ele>519.63</ele>
      </trkpt>
      <trkpt lat="41.28830493427813" lon="1.9134619273245335">
        <ele>519.05</ele>
      </trkpt>
      <trkpt lat="41.28787393681705" lon="1.9124039635062218">
        <ele>517.66</ele>
      </trkpt>
      <trkpt lat="41.287757931277156" lon="1.9125609565526247">
        <ele>516.71</ele>
      </trkpt>
      <trkpt lat="41.28740094602108" lon="1.912329951301217">
        <ele>515.05</ele>
      </trkpt>
      <trkpt lat="41.286870958283544" lon="1.91246397793293">
        <ele>512.97</ele>
      </trkpt>
      <trkpt lat="41.28649997524917" lon="1.91171295940876">
        <ele>510.9</ele>
      </trkpt>
      <trkpt lat="41.286225970834494" lon="1.9114669505506754">
        <ele>509.13</ele>
      </trkpt>
      <trkpt lat="41.285947943106294" lon="1.9116029888391495">
        <ele>507.46</ele>
      </trkpt>
      <trkpt lat="41.28568097949028" lon="1.9113169983029366">
        <ele>505.31</ele>
      </trkpt>
      <trkpt lat="41.285693971440196" lon="1.9110299181193113">
        <ele>503.0</ele>
      </trkpt>
      <trkpt lat="41.285200947895646" lon="1.9106889422982931">
        <ele>499.95</ele>
      </trkpt>
      <trkpt lat="41.28423593938351" lon="1.9109759386628866">
        <ele>496.5</ele>
      </trkpt>
      <trkpt lat="41.28412697464228" lon="1.9103509839624166">
        <ele>491.95</ele>
      </trkpt>
      <trkpt lat="41.282362919300795" lon="1.9085029419511557">
        <ele>485.67</ele>
      </trkpt>
      <trkpt lat="41.282039964571595" lon="1.9088969752192497">
        <ele>480.07</ele>
      </trkpt>
      <trkpt lat="41.281995959579945" lon="1.9096339959651232">
        <ele>474.49</ele>
      </trkpt>
      <trkpt lat="41.282383957877755" lon="1.9105609506368637">
        <ele>468.21</ele>
      </trkpt>
      <trkpt lat="41.28223895095289" lon="1.9116029888391495">
        <ele>458.6</ele>
      </trkpt>
      <trkpt lat="41.2823349237442" lon="1.9121519196778536">
        <ele>449.62</ele>
      </trkpt>
      <trkpt lat="41.28215597011149" lon="1.9129639584571123">
        <ele>437.53</ele>
      </trkpt>
      <trkpt lat="41.28066893666983" lon="1.9130289182066917">
        <ele>421.25</ele>
      </trkpt>
      <trkpt lat="41.28017297945917" lon="1.9138229358941317">
        <ele>407.28</ele>
      </trkpt>
      <trkpt lat="41.27938298508525" lon="1.9133959617465734">
        <ele>392.55</ele>
      </trkpt>
      <trkpt lat="41.27809594385326" lon="1.9139889813959599">
        <ele>376.24</ele>
      </trkpt>
      <trkpt lat="41.2770679872483" lon="1.9139029830694199">
        <ele>364.49</ele>
      </trkpt>
      <trkpt lat="41.27477193251252" lon="1.9131639506667852">
        <ele>353.77</ele>
      </trkpt>
      <trkpt lat="41.27455391921103" lon="1.913591930642724">
        <ele>347.97</ele>
      </trkpt>
      <trkpt lat="41.274520978331566" lon="1.9149809796363115">
        <ele>343.77</ele>
      </trkpt>
      <trkpt lat="41.27434093505144" lon="1.9154379609972239">
        <ele>340.17</ele>
      </trkpt>
      <trkpt lat="41.27433498390019" lon="1.917798975482583">
        <ele>336.76</ele>
      </trkpt>
      <trkpt lat="41.27403994090855" lon="1.9177399668842554">
        <ele>333.64</ele>
      </trkpt>
      <trkpt lat="41.27276999875903" lon="1.9162389356642962">
        <ele>329.0</ele>
      </trkpt>
      <trkpt lat="41.27149997279048" lon="1.9161819387227297">
        <ele>325.1</ele>
      </trkpt>
      <trkpt lat="41.27130492590368" lon="1.916362987831235">
        <ele>321.39</ele>
      </trkpt>
      <trkpt lat="41.27057997509837" lon="1.9151379726827145">
        <ele>317.52</ele>
      </trkpt>
      <trkpt lat="41.26856496557593" lon="1.9136839639395475">
        <ele>309.5</ele>
      </trkpt>
      <trkpt lat="41.26805693842471" lon="1.9131049420684576">
        <ele>299.24</ele>
      </trkpt>
      <trkpt lat="41.26849095337093" lon="1.9123399257659912">
        <ele>294.79</ele>
      </trkpt>
      <trkpt lat="41.26864995807409" lon="1.9115879852324724">
        <ele>286.04</ele>
      </trkpt>
      <trkpt lat="41.26818895339966" lon="1.9122539274394512">
        <ele>277.88</ele>
      </trkpt>
      <trkpt lat="41.26780196093023" lon="1.9121749699115753">
        <ele>267.01</ele>
      </trkpt>
      <trkpt lat="41.2673629168421" lon="1.9114509411156178">
        <ele>255.38</ele>
      </trkpt>
      <trkpt lat="41.26554999500513" lon="1.9100649934262037">
        <ele>240.5</ele>
      </trkpt>
      <trkpt lat="41.26458699814975" lon="1.9079029653221369">
        <ele>234.43</ele>
      </trkpt>
      <trkpt lat="41.26343892887235" lon="1.9080549292266369">
        <ele>225.84</ele>
      </trkpt>
      <trkpt lat="41.262509962543845" lon="1.9061769638210535">
        <ele>220.4</ele>
      </trkpt>
      <trkpt lat="41.2623449228704" lon="1.906412998214364">
        <ele>216.78</ele>
      </trkpt>
      <trkpt lat="41.262421952560544" lon="1.9074069242924452">
        <ele>213.42</ele>
      </trkpt>
      <trkpt lat="41.26218298450112" lon="1.907968930900097">
        <ele>209.74</ele>
      </trkpt>
      <trkpt lat="41.26087197102606" lon="1.909161927178502">
        <ele>204.27</ele>
      </trkpt>
      <trkpt lat="41.260042916983366" lon="1.9096529390662909">
        <ele>196.65</ele>
      </trkpt>
      <trkpt lat="41.259913919493556" lon="1.9102349784225225">
        <ele>190.43</ele>
      </trkpt>
      <trkpt lat="41.259757932275534" lon="1.9095329940319061">
        <ele>180.24</ele>
      </trkpt>
      <trkpt lat="41.260533928871155" lon="1.9081029575318098">
        <ele>170.17</ele>
      </trkpt>
      <trkpt lat="41.25968392007053" lon="1.9086319394409657">
        <ele>159.01</ele>
      </trkpt>
      <trkpt lat="41.25864699482918" lon="1.908635962754488">
        <ele>147.93</ele>
      </trkpt>
      <trkpt lat="41.25884698703885" lon="1.9102709367871284">
        <ele>140.23</ele>
      </trkpt>
      <trkpt lat="41.25828699208796" lon="1.9109509605914354">
        <ele>129.6</ele>
      </trkpt>
      <trkpt lat="41.25839193351567" lon="1.9117299746721983">
        <ele>123.57</ele>
      </trkpt>
      <trkpt lat="41.2582519557327" lon="1.9132969714701176">
        <ele>116.0</ele>
      </trkpt>
      <trkpt lat="41.25786194577813" lon="1.9147049635648727">
        <ele>106.99</ele>
      </trkpt>
      <trkpt lat="41.25796898268163" lon="1.9139879755675793">
        <ele>102.73</ele>
      </trkpt>
      <trkpt lat="41.25791693106294" lon="1.9129129964858294">
        <ele>96.8</ele>
      </trkpt>
      <trkpt lat="41.25764493830502" lon="1.9122129399329424">
        <ele>90.28</ele>
      </trkpt>
      <trkpt lat="41.25775792635977" lon="1.911677923053503">
        <ele>85.96</ele>
      </trkpt>
      <trkpt lat="41.25702492892742" lon="1.9099299609661102">
        <ele>78.0</ele>
      </trkpt>
      <trkpt lat="41.257458943873644" lon="1.909123957157135">
        <ele>74.3</ele>
      </trkpt>
      <trkpt lat="41.25701394863427" lon="1.908569997176528">
        <ele>66.9</ele>
      </trkpt>
      <trkpt lat="41.257178988307714" lon="1.9093079399317503">
        <ele>61.68</ele>
      </trkpt>
      <trkpt lat="41.256193947046995" lon="1.9094069302082062">
        <ele>51.72</ele>
      </trkpt>
      <trkpt lat="41.25618891790509" lon="1.909087998792529">
        <ele>46.21</ele>
      </trkpt>
      <trkpt lat="41.25645998865366" lon="1.9090199377387762">
        <ele>42.72</ele>
      </trkpt>
      <trkpt lat="41.25661094672978" lon="1.9087339472025633">
        <ele>39.3</ele>
      </trkpt>
      <trkpt lat="41.255933940410614" lon="1.9063449371606112">
        <ele>32.42</ele>
      </trkpt>
      <trkpt lat="41.25620492734015" lon="1.9058809988200665">
        <ele>28.14</ele>
      </trkpt>
      <trkpt lat="41.25736892223358" lon="1.9049709755927324">
        <ele>24.84</ele>
      </trkpt>
      <trkpt lat="41.25764099881053" lon="1.904084924608469">
        <ele>22.33</ele>
      </trkpt>
      <trkpt lat="41.25755994580686" lon="1.904291957616806">
        <ele>20.26</ele>
      </trkpt>
      <trkpt lat="41.25732097774744" lon="1.9038299471139908">
        <ele>18.69</ele>
      </trkpt>
      <trkpt lat="41.2570589594543" lon="1.903798934072256">
        <ele>17.52</ele>
      </trkpt>
      <trkpt lat="41.25610291957855" lon="1.9048479292541742">
        <ele>15.22</ele>
      </trkpt>
      <trkpt lat="41.25482895411551" lon="1.9049859791994095">
        <ele>14.07</ele>
      </trkpt>
      <trkpt lat="41.254212968051434" lon="1.9030199199914932">
        <ele>13.87</ele>
      </trkpt>
      <trkpt lat="41.253916919231415" lon="1.9026389624923468">
        <ele>14.35</ele>
      </trkpt>
      <trkpt lat="41.25401993282139" lon="1.9024509564042091">
        <ele>15.58</ele>
      </trkpt>
    </trkseg>
  </trk>
</gpx>
