<?xml version="1.0" encoding="UTF-8"?>
<gpx creator="Garmin Connect" version="1.1"
  xsi:schemaLocation="http://www.topografix.com/GPX/1/1 http://www.topografix.com/GPX/11.xsd"
  xmlns:ns3="http://www.garmin.com/xmlschemas/TrackPointExtension/v1"
  xmlns="http://www.topografix.com/GPX/1/1"
  xmlns:xsi="http://www.w3.org/2001/XMLSchema-instance" xmlns:ns2="http://www.garmin.com/xmlschemas/GpxExtensions/v3">
  <metadata>
    <name>GR92 Etappi 16: Coll de Can Bordoi -&gt; Alzina surera de la Molinera</name>
    <link href="connect.garmin.com">
      <text>Garmin Connect</text>
    </link>
    <time>2026-04-15T06:28:16.000Z</time>
  </metadata>
  <trk>
    <name>GR92 Etappi 16: Coll de Can Bordoi -&gt; Alzina surera de la Molinera</name>
    <trkseg>
      <trkpt lat="41.62422101944685" lon="2.4041209369897842">
        <ele>321.68</ele>
      </trkpt>
      <trkpt lat="41.62417181767523" lon="2.404031753540039">
        <ele>321.8</ele>
      </trkpt>
      <trkpt lat="41.62421473301947" lon="2.4039459228515625">
        <ele>322.11</ele>
      </trkpt>
      <trkpt lat="41.62421464920044" lon="2.4039459228515625">
        <ele>322.61</ele>
      </trkpt>
      <trkpt lat="41.624343395233154" lon="2.4036669731140137">
        <ele>323.54</ele>
      </trkpt>
      <trkpt lat="41.62425194866955" lon="2.403339073061943">
        <ele>324.54</ele>
      </trkpt>
      <trkpt lat="41.62416058592498" lon="2.403011256828904">
        <ele>325.65</ele>
      </trkpt>
      <trkpt lat="41.62406922318041" lon="2.4026834405958652">
        <ele>326.63</ele>
      </trkpt>
      <trkpt lat="41.62397861480713" lon="2.402358055114746">
        <ele>327.77</ele>
      </trkpt>
      <trkpt lat="41.62388549186289" lon="2.402078602463007">
        <ele>329.31</ele>
      </trkpt>
      <trkpt lat="41.62379236891866" lon="2.401799149811268">
        <ele>331.28</ele>
      </trkpt>
      <trkpt lat="41.62369974888861" lon="2.4015212059020996">
        <ele>333.55</ele>
      </trkpt>
      <trkpt lat="41.6237211227417" lon="2.4013924598693848">
        <ele>335.77</ele>
      </trkpt>
      <trkpt lat="41.623978279531" lon="2.4012959841638803">
        <ele>338.09</ele>
      </trkpt>
      <trkpt lat="41.62423610687256" lon="2.4011993408203125">
        <ele>340.08</ele>
      </trkpt>
      <trkpt lat="41.6242790222168" lon="2.401113510131836">
        <ele>341.96</ele>
      </trkpt>
      <trkpt lat="41.6242790222168" lon="2.400737078860402">
        <ele>344.28</ele>
      </trkpt>
      <trkpt lat="41.6242790222168" lon="2.400362491607666">
        <ele>346.37</ele>
      </trkpt>
      <trkpt lat="41.62440776824951" lon="2.400083541870117">
        <ele>347.91</ele>
      </trkpt>
      <trkpt lat="41.62442922592163" lon="2.399911880493164">
        <ele>349.29</ele>
      </trkpt>
      <trkpt lat="41.62440785206854" lon="2.399740219116211">
        <ele>350.49</ele>
      </trkpt>
      <trkpt lat="41.62440776824951" lon="2.399740219116211">
        <ele>351.58</ele>
      </trkpt>
      <trkpt lat="41.624364936724305" lon="2.3996543884277344">
        <ele>352.53</ele>
      </trkpt>
      <trkpt lat="41.624204171821475" lon="2.3996864911168814">
        <ele>353.63</ele>
      </trkpt>
      <trkpt lat="41.62404307164252" lon="2.399718761444092">
        <ele>354.64</ele>
      </trkpt>
      <trkpt lat="41.62391424179077" lon="2.3996973037719727">
        <ele>355.56</ele>
      </trkpt>
      <trkpt lat="41.62368549965322" lon="2.399554308503866">
        <ele>356.46</ele>
      </trkpt>
      <trkpt lat="41.62345675751567" lon="2.3994113970547915">
        <ele>357.57</ele>
      </trkpt>
      <trkpt lat="41.62322759628296" lon="2.39926815032959">
        <ele>358.37</ele>
      </trkpt>
      <trkpt lat="41.62303472869098" lon="2.399235963821411">
        <ele>359.19</ele>
      </trkpt>
      <trkpt lat="41.622841358184814" lon="2.3992037773132324">
        <ele>359.94</ele>
      </trkpt>
      <trkpt lat="41.62262703292072" lon="2.399132279679179">
        <ele>360.6</ele>
      </trkpt>
      <trkpt lat="41.62241270765662" lon="2.3990608658641577">
        <ele>361.15</ele>
      </trkpt>
      <trkpt lat="41.62219762802124" lon="2.398989200592041">
        <ele>361.59</ele>
      </trkpt>
      <trkpt lat="41.62204750813544" lon="2.398892641067505">
        <ele>361.96</ele>
      </trkpt>
      <trkpt lat="41.62189722061157" lon="2.3987960815429688">
        <ele>362.22</ele>
      </trkpt>
      <trkpt lat="41.62168272770941" lon="2.3986029624938965">
        <ele>362.3</ele>
      </trkpt>
      <trkpt lat="41.62152187898755" lon="2.39851713180542">
        <ele>362.34</ele>
      </trkpt>
      <trkpt lat="41.621360862627625" lon="2.3984313011169434">
        <ele>362.33</ele>
      </trkpt>
      <trkpt lat="41.62118911743164" lon="2.398195266723633">
        <ele>362.28</ele>
      </trkpt>
      <trkpt lat="41.621081829071045" lon="2.3978090286254883">
        <ele>362.33</ele>
      </trkpt>
      <trkpt lat="41.62091000005603" lon="2.397558493539691">
        <ele>362.39</ele>
      </trkpt>
      <trkpt lat="41.62073825486004" lon="2.3973080422729254">
        <ele>362.5</ele>
      </trkpt>
      <trkpt lat="41.620566844940186" lon="2.3970580101013184">
        <ele>362.65</ele>
      </trkpt>
      <trkpt lat="41.62048101425171" lon="2.396693229675293">
        <ele>362.64</ele>
      </trkpt>
      <trkpt lat="41.620509680360556" lon="2.3964136093854904">
        <ele>362.53</ele>
      </trkpt>
      <trkpt lat="41.6205383464694" lon="2.3961340729147196">
        <ele>362.33</ele>
      </trkpt>
      <trkpt lat="41.620566844940186" lon="2.3958563804626465">
        <ele>361.91</ele>
      </trkpt>
      <trkpt lat="41.620545387268066" lon="2.395749092102051">
        <ele>361.53</ele>
      </trkpt>
      <trkpt lat="41.62050255574286" lon="2.3957061767578125">
        <ele>361.19</ele>
      </trkpt>
      <trkpt lat="41.62050247192383" lon="2.3957061767578125">
        <ele>360.82</ele>
      </trkpt>
      <trkpt lat="41.620281022042036" lon="2.395698968321085">
        <ele>360.65</ele>
      </trkpt>
      <trkpt lat="41.620059572160244" lon="2.395691843703389">
        <ele>360.32</ele>
      </trkpt>
      <trkpt lat="41.619837284088135" lon="2.3956847190856934">
        <ele>359.95</ele>
      </trkpt>
      <trkpt lat="41.61963762715459" lon="2.3955442383885384">
        <ele>359.51</ele>
      </trkpt>
      <trkpt lat="41.61943780258298" lon="2.39540359005332">
        <ele>359.09</ele>
      </trkpt>
      <trkpt lat="41.619437634944916" lon="2.395403506234288">
        <ele>358.78</ele>
      </trkpt>
      <trkpt lat="41.61943746730685" lon="2.395403338596225">
        <ele>358.53</ele>
      </trkpt>
      <trkpt lat="41.61925792694092" lon="2.3952770233154297">
        <ele>358.29</ele>
      </trkpt>
      <trkpt lat="41.61923102103174" lon="2.394943591207266">
        <ele>358.18</ele>
      </trkpt>
      <trkpt lat="41.61920411512256" lon="2.3946102429181337">
        <ele>358.24</ele>
      </trkpt>
      <trkpt lat="41.619177209213376" lon="2.3942768946290016">
        <ele>358.45</ele>
      </trkpt>
      <trkpt lat="41.61915063858032" lon="2.393946647644043">
        <ele>358.75</ele>
      </trkpt>
      <trkpt lat="41.619064807891846" lon="2.3935604095458984">
        <ele>359.26</ele>
      </trkpt>
      <trkpt lat="41.61892524920404" lon="2.393356394022703">
        <ele>359.97</ele>
      </trkpt>
      <trkpt lat="41.61878594197333" lon="2.3931527137756348">
        <ele>360.78</ele>
      </trkpt>
      <trkpt lat="41.6187858581543" lon="2.3931527137756348">
        <ele>361.87</ele>
      </trkpt>
      <trkpt lat="41.6185818426311" lon="2.3928735964000225">
        <ele>363.08</ele>
      </trkpt>
      <trkpt lat="41.61837816238403" lon="2.392594814300537">
        <ele>364.66</ele>
      </trkpt>
      <trkpt lat="41.61819560453296" lon="2.392261801287532">
        <ele>366.66</ele>
      </trkpt>
      <trkpt lat="41.61801346577704" lon="2.3919296264648438">
        <ele>368.91</ele>
      </trkpt>
      <trkpt lat="41.61799192428589" lon="2.3918652534484863">
        <ele>371.17</ele>
      </trkpt>
      <trkpt lat="41.61792763508856" lon="2.3915863037109375">
        <ele>373.71</ele>
      </trkpt>
      <trkpt lat="41.617863178253174" lon="2.3912644386291504">
        <ele>376.5</ele>
      </trkpt>
      <trkpt lat="41.61788463592529" lon="2.391221523284912">
        <ele>379.23</ele>
      </trkpt>
      <trkpt lat="41.61770744249225" lon="2.3909100517630577">
        <ele>382.42</ele>
      </trkpt>
      <trkpt lat="41.6175302490592" lon="2.3905985802412033">
        <ele>385.82</ele>
      </trkpt>
      <trkpt lat="41.617353055626154" lon="2.3902871925383806">
        <ele>389.21</ele>
      </trkpt>
      <trkpt lat="41.61717653274536" lon="2.389976978302002">
        <ele>392.54</ele>
      </trkpt>
      <trkpt lat="41.617305278778076" lon="2.389976978302002">
        <ele>395.48</ele>
      </trkpt>
      <trkpt lat="41.61704778671265" lon="2.3897838592529297">
        <ele>398.64</ele>
      </trkpt>
      <trkpt lat="41.6167688369751" lon="2.389655113220215">
        <ele>401.8</ele>
      </trkpt>
      <trkpt lat="41.616811752319336" lon="2.3895263671875">
        <ele>404.55</ele>
      </trkpt>
      <trkpt lat="41.61704753525555" lon="2.3894513491541147">
        <ele>407.14</ele>
      </trkpt>
      <trkpt lat="41.61728390492499" lon="2.389376163482666">
        <ele>409.54</ele>
      </trkpt>
      <trkpt lat="41.61739110946655" lon="2.3889899253845215">
        <ele>412.28</ele>
      </trkpt>
      <trkpt lat="41.617326736450195" lon="2.388947010040283">
        <ele>414.34</ele>
      </trkpt>
      <trkpt lat="41.617069244384766" lon="2.388796806335449">
        <ele>416.15</ele>
      </trkpt>
      <trkpt lat="41.61708357743919" lon="2.3884885199368">
        <ele>417.87</ele>
      </trkpt>
      <trkpt lat="41.61709791049361" lon="2.388180233538151">
        <ele>419.27</ele>
      </trkpt>
      <trkpt lat="41.617112159729004" lon="2.387874126434326">
        <ele>420.39</ele>
      </trkpt>
      <trkpt lat="41.61717661656439" lon="2.3877668380737305">
        <ele>421.24</ele>
      </trkpt>
      <trkpt lat="41.617391193285584" lon="2.3876380920410156">
        <ele>421.9</ele>
      </trkpt>
      <trkpt lat="41.617455650120974" lon="2.387347826734185">
        <ele>422.32</ele>
      </trkpt>
      <trkpt lat="41.61751985549927" lon="2.387058734893799">
        <ele>422.43</ele>
      </trkpt>
      <trkpt lat="41.617637956514955" lon="2.386811636388302">
        <ele>422.34</ele>
      </trkpt>
      <trkpt lat="41.61775588989258" lon="2.3865652084350586">
        <ele>422.15</ele>
      </trkpt>
      <trkpt lat="41.61794171668589" lon="2.386422213166952">
        <ele>421.98</ele>
      </trkpt>
      <trkpt lat="41.618127627298236" lon="2.3862792178988457">
        <ele>421.65</ele>
      </trkpt>
      <trkpt lat="41.61831387318671" lon="2.386136054992676">
        <ele>421.22</ele>
      </trkpt>
      <trkpt lat="41.61837816238403" lon="2.3860931396484375">
        <ele>420.7</ele>
      </trkpt>
      <trkpt lat="41.618571281433105" lon="2.3861145973205566">
        <ele>420.14</ele>
      </trkpt>
      <trkpt lat="41.61863565444946" lon="2.3860931396484375">
        <ele>419.48</ele>
      </trkpt>
      <trkpt lat="41.6186785697937" lon="2.386007308959961">
        <ele>418.69</ele>
      </trkpt>
      <trkpt lat="41.618549823760986" lon="2.385857105255127">
        <ele>417.85</ele>
      </trkpt>
      <trkpt lat="41.61847312934697" lon="2.3855509981513023">
        <ele>416.85</ele>
      </trkpt>
      <trkpt lat="41.61847329698503" lon="2.385551417246461">
        <ele>415.98</ele>
      </trkpt>
      <trkpt lat="41.618473464623094" lon="2.3855518363416195">
        <ele>415.08</ele>
      </trkpt>
      <trkpt lat="41.61844253540039" lon="2.385427951812744">
        <ele>414.07</ele>
      </trkpt>
      <trkpt lat="41.61822812631726" lon="2.38532074727118">
        <ele>413.06</ele>
      </trkpt>
      <trkpt lat="41.61801338195801" lon="2.3852133750915527">
        <ele>411.98</ele>
      </trkpt>
      <trkpt lat="41.61801346577704" lon="2.3852133750915527">
        <ele>411.0</ele>
      </trkpt>
      <trkpt lat="41.61792763508856" lon="2.385084629058838">
        <ele>409.93</ele>
      </trkpt>
      <trkpt lat="41.617720099166036" lon="2.384812720119953">
        <ele>408.74</ele>
      </trkpt>
      <trkpt lat="41.61751256324351" lon="2.3845408111810684">
        <ele>407.6</ele>
      </trkpt>
      <trkpt lat="41.617305278778076" lon="2.3842692375183105">
        <ele>406.52</ele>
      </trkpt>
      <trkpt lat="41.61719799041748" lon="2.3839259147644043">
        <ele>405.5</ele>
      </trkpt>
      <trkpt lat="41.61717661656439" lon="2.3835182189941406">
        <ele>404.45</ele>
      </trkpt>
      <trkpt lat="41.61714426241815" lon="2.3832924105226994">
        <ele>403.23</ele>
      </trkpt>
      <trkpt lat="41.617112159729004" lon="2.3830676078796387">
        <ele>401.96</ele>
      </trkpt>
      <trkpt lat="41.61696195602417" lon="2.3827672004699707">
        <ele>400.51</ele>
      </trkpt>
      <trkpt lat="41.616822481155396" lon="2.382659912109375">
        <ele>399.13</ele>
      </trkpt>
      <trkpt lat="41.61668300628662" lon="2.3825526237487793">
        <ele>397.7</ele>
      </trkpt>
      <trkpt lat="41.61668300628662" lon="2.3822736740112305">
        <ele>396.09</ele>
      </trkpt>
      <trkpt lat="41.61679029464722" lon="2.382016181945801">
        <ele>394.35</ele>
      </trkpt>
      <trkpt lat="41.61656524054706" lon="2.3820268269628286">
        <ele>392.81</ele>
      </trkpt>
      <trkpt lat="41.616339683532715" lon="2.38203763961792">
        <ele>391.24</ele>
      </trkpt>
      <trkpt lat="41.61608252674341" lon="2.3819947242736816">
        <ele>389.53</ele>
      </trkpt>
      <trkpt lat="41.61582536995411" lon="2.381951892748475">
        <ele>387.77</ele>
      </trkpt>
      <trkpt lat="41.615567207336426" lon="2.381908893585205">
        <ele>386.04</ele>
      </trkpt>
      <trkpt lat="41.61550283432007" lon="2.3819947242736816">
        <ele>384.39</ele>
      </trkpt>
      <trkpt lat="41.61539554595947" lon="2.38203763961792">
        <ele>382.69</ele>
      </trkpt>
      <trkpt lat="41.61512749269605" lon="2.3818660620599985">
        <ele>380.8</ele>
      </trkpt>
      <trkpt lat="41.614859104156494" lon="2.3816943168640137">
        <ele>378.92</ele>
      </trkpt>
      <trkpt lat="41.61468744277954" lon="2.381436824798584">
        <ele>376.99</ele>
      </trkpt>
      <trkpt lat="41.61463011056185" lon="2.381371781229973">
        <ele>375.31</ele>
      </trkpt>
      <trkpt lat="41.614629942923784" lon="2.3813716135919094">
        <ele>373.8</ele>
      </trkpt>
      <trkpt lat="41.61462977528572" lon="2.381371445953846">
        <ele>372.34</ele>
      </trkpt>
      <trkpt lat="41.614497592672706" lon="2.3812216613441706">
        <ele>370.65</ele>
      </trkpt>
      <trkpt lat="41.614365577697754" lon="2.3810720443725586">
        <ele>369.07</ele>
      </trkpt>
      <trkpt lat="41.61434420384467" lon="2.380964756011963">
        <ele>367.73</ele>
      </trkpt>
      <trkpt lat="41.61427974700928" lon="2.381007671356201">
        <ele>366.48</ele>
      </trkpt>
      <trkpt lat="41.61421520635486" lon="2.3812225833535194">
        <ele>365.33</ele>
      </trkpt>
      <trkpt lat="41.61415100097656" lon="2.381436824798584">
        <ele>364.2</ele>
      </trkpt>
      <trkpt lat="41.613893592730165" lon="2.3815441131591797">
        <ele>362.94</ele>
      </trkpt>
      <trkpt lat="41.613593101501465" lon="2.3816299438476562">
        <ele>361.7</ele>
      </trkpt>
      <trkpt lat="41.61348581314087" lon="2.3816943168640137">
        <ele>360.59</ele>
      </trkpt>
      <trkpt lat="41.61337852478027" lon="2.3818016052246094">
        <ele>359.52</ele>
      </trkpt>
      <trkpt lat="41.613335609436035" lon="2.3818230628967285">
        <ele>358.37</ele>
      </trkpt>
      <trkpt lat="41.61320686340332" lon="2.381758689880371">
        <ele>357.13</ele>
      </trkpt>
      <trkpt lat="41.61314249038696" lon="2.3813939094543457">
        <ele>355.73</ele>
      </trkpt>
      <trkpt lat="41.6130352858454" lon="2.3812007904052734">
        <ele>354.18</ele>
      </trkpt>
      <trkpt lat="41.61301374435425" lon="2.381157875061035">
        <ele>352.6</ele>
      </trkpt>
      <trkpt lat="41.61292791366577" lon="2.3812222480773926">
        <ele>350.95</ele>
      </trkpt>
      <trkpt lat="41.612777626141906" lon="2.381415367126465">
        <ele>349.11</ele>
      </trkpt>
      <trkpt lat="41.6126275062561" lon="2.381608486175537">
        <ele>346.97</ele>
      </trkpt>
      <trkpt lat="41.61252021789551" lon="2.3816514015197754">
        <ele>344.71</ele>
      </trkpt>
      <trkpt lat="41.612348556518555" lon="2.3816299438476562">
        <ele>342.25</ele>
      </trkpt>
      <trkpt lat="41.61219843663275" lon="2.381715690717101">
        <ele>339.61</ele>
      </trkpt>
      <trkpt lat="41.61204814910889" lon="2.3818016052246094">
        <ele>336.84</ele>
      </trkpt>
      <trkpt lat="41.611855030059814" lon="2.3816514015197754">
        <ele>333.8</ele>
      </trkpt>
      <trkpt lat="41.61170482635498" lon="2.3816299438476562">
        <ele>330.72</ele>
      </trkpt>
      <trkpt lat="41.611576080322266" lon="2.381715774536133">
        <ele>327.69</ele>
      </trkpt>
      <trkpt lat="41.6115761641413" lon="2.381715774536133">
        <ele>324.8</ele>
      </trkpt>
      <trkpt lat="41.61140441894531" lon="2.381865978240967">
        <ele>321.58</ele>
      </trkpt>
      <trkpt lat="41.6112220287323" lon="2.3817050457000732">
        <ele>318.29</ele>
      </trkpt>
      <trkpt lat="41.61103963851929" lon="2.3815441131591797">
        <ele>314.91</ele>
      </trkpt>
      <trkpt lat="41.61095389164984" lon="2.381565570831299">
        <ele>311.85</ele>
      </trkpt>
      <trkpt lat="41.61093243397772" lon="2.381565570831299">
        <ele>308.94</ele>
      </trkpt>
      <trkpt lat="41.610814249143004" lon="2.3817373160272837">
        <ele>306.02</ele>
      </trkpt>
      <trkpt lat="41.61069631576538" lon="2.381908893585205">
        <ele>303.2</ele>
      </trkpt>
      <trkpt lat="41.610610485076904" lon="2.3819732666015625">
        <ele>300.42</ele>
      </trkpt>
      <trkpt lat="41.61050319671631" lon="2.382080554962158">
        <ele>297.72</ele>
      </trkpt>
      <trkpt lat="41.61039590835571" lon="2.3823165893554688">
        <ele>295.09</ele>
      </trkpt>
      <trkpt lat="41.610267162323" lon="2.3824238777160645">
        <ele>292.43</ele>
      </trkpt>
      <trkpt lat="41.61013841629028" lon="2.382380962371826">
        <ele>289.87</ele>
      </trkpt>
      <trkpt lat="41.60997748374939" lon="2.3822414875030518">
        <ele>287.37</ele>
      </trkpt>
      <trkpt lat="41.609816551208496" lon="2.3821020126342773">
        <ele>284.98</ele>
      </trkpt>
      <trkpt lat="41.6095591429621" lon="2.38203763961792">
        <ele>282.71</ele>
      </trkpt>
      <trkpt lat="41.609419668093324" lon="2.381930351257324">
        <ele>280.6</ele>
      </trkpt>
      <trkpt lat="41.6092808637768" lon="2.381823565810919">
        <ele>278.6</ele>
      </trkpt>
      <trkpt lat="41.609280444681644" lon="2.3818233143538237">
        <ele>276.74</ele>
      </trkpt>
      <trkpt lat="41.60928010940552" lon="2.3818230628967285">
        <ele>274.96</ele>
      </trkpt>
      <trkpt lat="41.60918338224292" lon="2.381629692390561">
        <ele>273.18</ele>
      </trkpt>
      <trkpt lat="41.609086990356445" lon="2.381436824798584">
        <ele>271.46</ele>
      </trkpt>
      <trkpt lat="41.60880820825696" lon="2.3816190473735332">
        <ele>269.88</ele>
      </trkpt>
      <trkpt lat="41.60852909088135" lon="2.3818016052246094">
        <ele>268.32</ele>
      </trkpt>
      <trkpt lat="41.60822876729071" lon="2.381887435913086">
        <ele>266.94</ele>
      </trkpt>
      <trkpt lat="41.608035899698734" lon="2.381898080930114">
        <ele>265.78</ele>
      </trkpt>
      <trkpt lat="41.60784252919257" lon="2.381908893585205">
        <ele>264.73</ele>
      </trkpt>
      <trkpt lat="41.607627868652344" lon="2.381887435913086">
        <ele>263.83</ele>
      </trkpt>
      <trkpt lat="41.60747774876654" lon="2.3818230628967285">
        <ele>263.13</ele>
      </trkpt>
      <trkpt lat="41.60741329193115" lon="2.381737232208252">
        <ele>262.65</ele>
      </trkpt>
      <trkpt lat="41.60732729360461" lon="2.3814469669014215">
        <ele>262.31</ele>
      </trkpt>
      <trkpt lat="41.6072416305542" lon="2.381157875061035">
        <ele>262.18</ele>
      </trkpt>
      <trkpt lat="41.6071343421936" lon="2.3812437057495117">
        <ele>262.4</ele>
      </trkpt>
      <trkpt lat="41.607091426849365" lon="2.3810935020446777">
        <ele>262.79</ele>
      </trkpt>
      <trkpt lat="41.60700559616089" lon="2.3810505867004395">
        <ele>263.45</ele>
      </trkpt>
      <trkpt lat="41.606855392456055" lon="2.3807501792907715">
        <ele>264.49</ele>
      </trkpt>
      <trkpt lat="41.60674818791449" lon="2.380642890930176">
        <ele>265.66</ele>
      </trkpt>
      <trkpt lat="41.60664081573486" lon="2.3805785179138184">
        <ele>267.03</ele>
      </trkpt>
      <trkpt lat="41.606576442718506" lon="2.3805999755859375">
        <ele>268.54</ele>
      </trkpt>
      <trkpt lat="41.606340324506164" lon="2.380857467651367">
        <ele>270.3</ele>
      </trkpt>
      <trkpt lat="41.606104373931885" lon="2.381114959716797">
        <ele>272.25</ele>
      </trkpt>
      <trkpt lat="41.60597562789917" lon="2.3810935020446777">
        <ele>274.42</ele>
      </trkpt>
      <trkpt lat="41.605825424194336" lon="2.3807501792907715">
        <ele>276.86</ele>
      </trkpt>
      <trkpt lat="41.605632305145264" lon="2.380557060241699">
        <ele>279.3</ele>
      </trkpt>
      <trkpt lat="41.60543918609619" lon="2.380363941192627">
        <ele>281.78</ele>
      </trkpt>
      <trkpt lat="41.60531069152057" lon="2.3801942076534033">
        <ele>284.25</ele>
      </trkpt>
      <trkpt lat="41.605182867497206" lon="2.380025228485465">
        <ele>286.79</ele>
      </trkpt>
      <trkpt lat="41.60518261604011" lon="2.380024893209338">
        <ele>289.14</ele>
      </trkpt>
      <trkpt lat="41.60518244840205" lon="2.380024641752243">
        <ele>291.48</ele>
      </trkpt>
      <trkpt lat="41.605010284110904" lon="2.3797971569001675">
        <ele>293.98</ele>
      </trkpt>
      <trkpt lat="41.604838371276855" lon="2.3795700073242188">
        <ele>296.42</ele>
      </trkpt>
      <trkpt lat="41.60473099909723" lon="2.3794089071452618">
        <ele>298.71</ele>
      </trkpt>
      <trkpt lat="41.604623794555664" lon="2.3792481422424316">
        <ele>300.89</ele>
      </trkpt>
      <trkpt lat="41.604484068229795" lon="2.3789580445736647">
        <ele>303.08</ele>
      </trkpt>
      <trkpt lat="41.604344844818115" lon="2.378668785095215">
        <ele>305.1</ele>
      </trkpt>
      <trkpt lat="41.6041624546051" lon="2.3785078525543213">
        <ele>306.92</ele>
      </trkpt>
      <trkpt lat="41.60398006439209" lon="2.3783469200134277">
        <ele>308.59</ele>
      </trkpt>
      <trkpt lat="41.60390479490161" lon="2.378078196197748">
        <ele>310.21</ele>
      </trkpt>
      <trkpt lat="41.603829860687256" lon="2.377810478210449">
        <ele>311.73</ele>
      </trkpt>
      <trkpt lat="41.603797590360045" lon="2.3775308579206467">
        <ele>313.12</ele>
      </trkpt>
      <trkpt lat="41.6037654876709" lon="2.3772525787353516">
        <ele>314.28</ele>
      </trkpt>
      <trkpt lat="41.60362592898309" lon="2.377070104703307">
        <ele>315.19</ele>
      </trkpt>
      <trkpt lat="41.60348653793335" lon="2.376887798309326">
        <ele>315.98</ele>
      </trkpt>
      <trkpt lat="41.60329350270331" lon="2.3769307136535645">
        <ele>316.53</ele>
      </trkpt>
      <trkpt lat="41.603100299835205" lon="2.3769736289978027">
        <ele>317.05</ele>
      </trkpt>
      <trkpt lat="41.60282880999148" lon="2.3770378343760967">
        <ele>317.59</ele>
      </trkpt>
      <trkpt lat="41.602557403966784" lon="2.3771021235734224">
        <ele>318.04</ele>
      </trkpt>
      <trkpt lat="41.60228490829468" lon="2.377166748046875">
        <ele>318.46</ele>
      </trkpt>
      <trkpt lat="41.602063458412886" lon="2.3772167041897774">
        <ele>318.94</ele>
      </trkpt>
      <trkpt lat="41.601842092350125" lon="2.3772667441517115">
        <ele>319.59</ele>
      </trkpt>
      <trkpt lat="41.601619804278016" lon="2.377316951751709">
        <ele>320.36</ele>
      </trkpt>
      <trkpt lat="41.60139827057719" lon="2.377374032512307">
        <ele>321.22</ele>
      </trkpt>
      <trkpt lat="41.6011768206954" lon="2.377431197091937">
        <ele>322.09</ele>
      </trkpt>
      <trkpt lat="41.60095453262329" lon="2.377488613128662">
        <ele>323.16</ele>
      </trkpt>
      <trkpt lat="41.60069025121629" lon="2.377460030838847">
        <ele>324.52</ele>
      </trkpt>
      <trkpt lat="41.600425969809294" lon="2.377431448549032">
        <ele>325.97</ele>
      </trkpt>
      <trkpt lat="41.60016059875488" lon="2.3774027824401855">
        <ele>327.46</ele>
      </trkpt>
      <trkpt lat="41.599860191345215" lon="2.377316951751709">
        <ele>329.05</ele>
      </trkpt>
      <trkpt lat="41.599704287946224" lon="2.3772487230598927">
        <ele>330.68</ele>
      </trkpt>
      <trkpt lat="41.59954913891852" lon="2.377180829644203">
        <ele>332.4</ele>
      </trkpt>
      <trkpt lat="41.5995485521853" lon="2.377180578187108">
        <ele>334.13</ele>
      </trkpt>
      <trkpt lat="41.59954804927111" lon="2.3771804105490446">
        <ele>335.94</ele>
      </trkpt>
      <trkpt lat="41.59951686859131" lon="2.377166748046875">
        <ele>337.85</ele>
      </trkpt>
      <trkpt lat="41.59932349808514" lon="2.376837423071265">
        <ele>340.14</ele>
      </trkpt>
      <trkpt lat="41.599130211398005" lon="2.3765080980956554">
        <ele>342.42</ele>
      </trkpt>
      <trkpt lat="41.59893751144409" lon="2.3761796951293945">
        <ele>344.64</ele>
      </trkpt>
      <trkpt lat="41.59870147705078" lon="2.3759865760803223">
        <ele>346.78</ele>
      </trkpt>
      <trkpt lat="41.59848698414862" lon="2.37583645619452">
        <ele>348.92</ele>
      </trkpt>
      <trkpt lat="41.5982723236084" lon="2.3756861686706543">
        <ele>351.05</ele>
      </trkpt>
      <trkpt lat="41.59797191619873" lon="2.3755788803100586">
        <ele>353.05</ele>
      </trkpt>
      <trkpt lat="41.5978111512959" lon="2.37554669380188">
        <ele>355.0</ele>
      </trkpt>
      <trkpt lat="41.59765005111694" lon="2.375514507293701">
        <ele>356.95</ele>
      </trkpt>
      <trkpt lat="41.59743547439575" lon="2.375771999359131">
        <ele>358.79</ele>
      </trkpt>
      <trkpt lat="41.59736020490527" lon="2.3760406393557787">
        <ele>360.45</ele>
      </trkpt>
      <trkpt lat="41.59728527069092" lon="2.3763084411621094">
        <ele>361.96</ele>
      </trkpt>
      <trkpt lat="41.59728535450995" lon="2.3763084411621094">
        <ele>363.37</ele>
      </trkpt>
      <trkpt lat="41.59712073393166" lon="2.3765015602111816">
        <ele>364.87</ele>
      </trkpt>
      <trkpt lat="41.5969561971724" lon="2.376694679260254">
        <ele>366.04</ele>
      </trkpt>
      <trkpt lat="41.59679174423218" lon="2.376887798309326">
        <ele>366.98</ele>
      </trkpt>
      <trkpt lat="41.59649133682251" lon="2.376866340637207">
        <ele>367.98</ele>
      </trkpt>
      <trkpt lat="41.596234096214175" lon="2.376794843003154">
        <ele>368.75</ele>
      </trkpt>
      <trkpt lat="41.59597693942487" lon="2.3767234291881323">
        <ele>369.19</ele>
      </trkpt>
      <trkpt lat="41.59571886062622" lon="2.3766517639160156">
        <ele>369.52</ele>
      </trkpt>
      <trkpt lat="41.595440078526735" lon="2.3764759115874767">
        <ele>369.9</ele>
      </trkpt>
      <trkpt lat="41.59516138024628" lon="2.376300059258938">
        <ele>370.08</ele>
      </trkpt>
      <trkpt lat="41.594882598146796" lon="2.3761242907494307">
        <ele>369.89</ele>
      </trkpt>
      <trkpt lat="41.59460389986634" lon="2.3759484384208918">
        <ele>369.37</ele>
      </trkpt>
      <trkpt lat="41.59432411193848" lon="2.375771999359131">
        <ele>368.56</ele>
      </trkpt>
      <trkpt lat="41.59430273808539" lon="2.3757505416870117">
        <ele>367.68</ele>
      </trkpt>
      <trkpt lat="41.59406687133014" lon="2.3756004218012094">
        <ele>366.43</ele>
      </trkpt>
      <trkpt lat="41.593831004574895" lon="2.375450301915407">
        <ele>364.98</ele>
      </trkpt>
      <trkpt lat="41.59359463490546" lon="2.3752999305725098">
        <ele>363.34</ele>
      </trkpt>
      <trkpt lat="41.59344149753451" lon="2.3752010241150856">
        <ele>361.62</ele>
      </trkpt>
      <trkpt lat="41.59344091080129" lon="2.3752006888389587">
        <ele>359.88</ele>
      </trkpt>
      <trkpt lat="41.5934404078871" lon="2.3752004373818636">
        <ele>357.99</ele>
      </trkpt>
      <trkpt lat="41.5934404078871" lon="2.3752005212008953">
        <ele>355.97</ele>
      </trkpt>
      <trkpt lat="41.59317746758461" lon="2.3750308714807034">
        <ele>353.6</ele>
      </trkpt>
      <trkpt lat="41.59291461110115" lon="2.374861305579543">
        <ele>351.18</ele>
      </trkpt>
      <trkpt lat="41.59265175461769" lon="2.374691655859351">
        <ele>348.74</ele>
      </trkpt>
      <trkpt lat="41.59238889813423" lon="2.374522089958191">
        <ele>346.27</ele>
      </trkpt>
      <trkpt lat="41.59212604165077" lon="2.374352440237999">
        <ele>343.69</ele>
      </trkpt>
      <trkpt lat="41.59186318516731" lon="2.3741828743368387">
        <ele>341.08</ele>
      </trkpt>
      <trkpt lat="41.591598987579346" lon="2.3740124702453613">
        <ele>338.44</ele>
      </trkpt>
      <trkpt lat="41.59134183079004" lon="2.374019594863057">
        <ele>335.7</ele>
      </trkpt>
      <trkpt lat="41.59108475781977" lon="2.374026719480753">
        <ele>332.84</ele>
      </trkpt>
      <trkpt lat="41.59082659520209" lon="2.3740339279174805">
        <ele>329.98</ele>
      </trkpt>
      <trkpt lat="41.59060154110193" lon="2.3740338440984488">
        <ele>327.17</ele>
      </trkpt>
      <trkpt lat="41.590375900268555" lon="2.3740339279174805">
        <ele>324.53</ele>
      </trkpt>
      <trkpt lat="41.590096950531006" lon="2.374119758605957">
        <ele>322.05</ele>
      </trkpt>
      <trkpt lat="41.58992528915405" lon="2.3743056692183018">
        <ele>319.76</ele>
      </trkpt>
      <trkpt lat="41.5897536277771" lon="2.3744916636496782">
        <ele>317.53</ele>
      </trkpt>
      <trkpt lat="41.58958205021918" lon="2.3746776580810547">
        <ele>315.54</ele>
      </trkpt>
      <trkpt lat="41.589410388842225" lon="2.374827777966857">
        <ele>313.8</ele>
      </trkpt>
      <trkpt lat="41.58923864364624" lon="2.3749780654907227">
        <ele>312.27</ele>
      </trkpt>
      <trkpt lat="41.589131355285645" lon="2.374999523162842">
        <ele>310.98</ele>
      </trkpt>
      <trkpt lat="41.58902406692505" lon="2.3749351501464844">
        <ele>309.9</ele>
      </trkpt>
      <trkpt lat="41.58893823623657" lon="2.3748278617858887">
        <ele>309.09</ele>
      </trkpt>
      <trkpt lat="41.58884150907397" lon="2.3745484091341496">
        <ele>308.56</ele>
      </trkpt>
      <trkpt lat="41.5887451171875" lon="2.374269962310791">
        <ele>308.25</ele>
      </trkpt>
      <trkpt lat="41.58865928649902" lon="2.374098300933838">
        <ele>308.05</ele>
      </trkpt>
      <trkpt lat="41.58838058821857" lon="2.373982546851039">
        <ele>307.8</ele>
      </trkpt>
      <trkpt lat="41.58810197375715" lon="2.37386679276824">
        <ele>307.81</ele>
      </trkpt>
      <trkpt lat="41.587823359295726" lon="2.373751038685441">
        <ele>307.91</ele>
      </trkpt>
      <trkpt lat="41.58754466101527" lon="2.373635284602642">
        <ele>308.13</ele>
      </trkpt>
      <trkpt lat="41.58726453781128" lon="2.373518943786621">
        <ele>308.53</ele>
      </trkpt>
      <trkpt lat="41.58726462163031" lon="2.373518943786621">
        <ele>309.01</ele>
      </trkpt>
      <trkpt lat="41.587135791778564" lon="2.3734331130981445">
        <ele>309.59</ele>
      </trkpt>
      <trkpt lat="41.58699614927173" lon="2.3731860984116793">
        <ele>310.3</ele>
      </trkpt>
      <trkpt lat="41.58685692586005" lon="2.3729395866394043">
        <ele>311.06</ele>
      </trkpt>
      <trkpt lat="41.58671191893518" lon="2.372676394879818">
        <ele>311.75</ele>
      </trkpt>
      <trkpt lat="41.58656691201031" lon="2.3724132869392633">
        <ele>312.39</ele>
      </trkpt>
      <trkpt lat="41.586421905085444" lon="2.3721501789987087">
        <ele>313.12</ele>
      </trkpt>
      <trkpt lat="41.5862774848938" lon="2.3718881607055664">
        <ele>313.9</ele>
      </trkpt>
      <trkpt lat="41.58627756871283" lon="2.3718881607055664">
        <ele>314.52</ele>
      </trkpt>
      <trkpt lat="41.5861701965332" lon="2.371695041656494">
        <ele>315.08</ele>
      </trkpt>
      <trkpt lat="41.58608444966376" lon="2.3714160919189453">
        <ele>315.54</ele>
      </trkpt>
      <trkpt lat="41.58601990900934" lon="2.371222637593746">
        <ele>315.96</ele>
      </trkpt>
      <trkpt lat="41.58595570363104" lon="2.371029853820801">
        <ele>316.26</ele>
      </trkpt>
      <trkpt lat="41.58585445024073" lon="2.3707195557653904">
        <ele>316.61</ele>
      </trkpt>
      <trkpt lat="41.58575369976461" lon="2.3704105988144875">
        <ele>316.86</ele>
      </trkpt>
      <trkpt lat="41.58575361594558" lon="2.3704103473573923">
        <ele>316.84</ele>
      </trkpt>
      <trkpt lat="41.585633754730225" lon="2.3700428009033203">
        <ele>316.86</ele>
      </trkpt>
      <trkpt lat="41.58536930568516" lon="2.3698783479630947">
        <ele>316.67</ele>
      </trkpt>
      <trkpt lat="41.5851048566401" lon="2.369713978841901">
        <ele>316.24</ele>
      </trkpt>
      <trkpt lat="41.584839820861816" lon="2.36954927444458">
        <ele>315.67</ele>
      </trkpt>
      <trkpt lat="41.58462516032159" lon="2.369313156232238">
        <ele>314.87</ele>
      </trkpt>
      <trkpt lat="41.5844105836004" lon="2.3690771218389273">
        <ele>313.93</ele>
      </trkpt>
      <trkpt lat="41.58419609069824" lon="2.3688411712646484">
        <ele>313.0</ele>
      </trkpt>
      <trkpt lat="41.58398134633899" lon="2.368547720834613">
        <ele>312.03</ele>
      </trkpt>
      <trkpt lat="41.583766685798764" lon="2.368254354223609">
        <ele>311.02</ele>
      </trkpt>
      <trkpt lat="41.58355236053467" lon="2.3679614067077637">
        <ele>309.92</ele>
      </trkpt>
      <trkpt lat="41.58344507217407" lon="2.367682456970215">
        <ele>308.96</ele>
      </trkpt>
      <trkpt lat="41.58338053151965" lon="2.367343744263053">
        <ele>308.05</ele>
      </trkpt>
      <trkpt lat="41.58331599086523" lon="2.3670051153749228">
        <ele>307.24</ele>
      </trkpt>
      <trkpt lat="41.58325153402984" lon="2.366666402667761">
        <ele>306.62</ele>
      </trkpt>
      <trkpt lat="41.58318758010864" lon="2.366330623626709">
        <ele>306.17</ele>
      </trkpt>
      <trkpt lat="41.5831018332392" lon="2.3661160469055176">
        <ele>305.76</ele>
      </trkpt>
      <trkpt lat="41.582851549610496" lon="2.3658943455666304">
        <ele>305.43</ele>
      </trkpt>
      <trkpt lat="41.58260126598179" lon="2.365672644227743">
        <ele>305.3</ele>
      </trkpt>
      <trkpt lat="41.58235081471503" lon="2.365450859069824">
        <ele>305.31</ele>
      </trkpt>
      <trkpt lat="41.58222206868231" lon="2.365236282348633">
        <ele>305.56</ele>
      </trkpt>
      <trkpt lat="41.582157611846924" lon="2.3648500442504883">
        <ele>306.03</ele>
      </trkpt>
      <trkpt lat="41.58207178115845" lon="2.364785671234131">
        <ele>306.65</ele>
      </trkpt>
      <trkpt lat="41.581900119781494" lon="2.3646140098571777">
        <ele>307.54</ele>
      </trkpt>
      <trkpt lat="41.58172845840454" lon="2.3648929595947266">
        <ele>308.52</ele>
      </trkpt>
      <trkpt lat="41.581664085388184" lon="2.364957332611084">
        <ele>309.49</ele>
      </trkpt>
      <trkpt lat="41.581449592486024" lon="2.364828586578369">
        <ele>310.68</ele>
      </trkpt>
      <trkpt lat="41.5812349319458" lon="2.3647642135620117">
        <ele>311.87</ele>
      </trkpt>
      <trkpt lat="41.581030916422606" lon="2.36447436735034">
        <ele>313.27</ele>
      </trkpt>
      <trkpt lat="41.58082723617554" lon="2.364184856414795">
        <ele>314.6</ele>
      </trkpt>
      <trkpt lat="41.5806770324707" lon="2.364013195037842">
        <ele>315.84</ele>
      </trkpt>
      <trkpt lat="41.58054828643799" lon="2.3639702796936035">
        <ele>316.97</ele>
      </trkpt>
      <trkpt lat="41.580398082733154" lon="2.3638415336608887">
        <ele>318.27</ele>
      </trkpt>
      <trkpt lat="41.58024787902832" lon="2.363712787628174">
        <ele>319.51</ele>
      </trkpt>
      <trkpt lat="41.58009775914252" lon="2.3636484146118164">
        <ele>320.71</ele>
      </trkpt>
      <trkpt lat="41.57994747161865" lon="2.363584041595459">
        <ele>321.76</ele>
      </trkpt>
      <trkpt lat="41.579883098602295" lon="2.36356258392334">
        <ele>322.62</ele>
      </trkpt>
      <trkpt lat="41.579711604863405" lon="2.3636054154485464">
        <ele>323.35</ele>
      </trkpt>
      <trkpt lat="41.57953977584839" lon="2.3636484146118164">
        <ele>323.86</ele>
      </trkpt>
      <trkpt lat="41.57947540283203" lon="2.3636269569396973">
        <ele>324.42</ele>
      </trkpt>
      <trkpt lat="41.579389572143555" lon="2.3634982109069824">
        <ele>324.91</ele>
      </trkpt>
      <trkpt lat="41.57919645309448" lon="2.3635411262512207">
        <ele>325.05</ele>
      </trkpt>
      <trkpt lat="41.57908916473389" lon="2.3634767532348633">
        <ele>325.4</ele>
      </trkpt>
      <trkpt lat="41.57893870957196" lon="2.3631759267300367">
        <ele>325.77</ele>
      </trkpt>
      <trkpt lat="41.57878875732422" lon="2.3628759384155273">
        <ele>326.21</ele>
      </trkpt>
      <trkpt lat="41.57874584197998" lon="2.362682819366455">
        <ele>326.71</ele>
      </trkpt>
      <trkpt lat="41.57874584197998" lon="2.3625540733337402">
        <ele>327.22</ele>
      </trkpt>
      <trkpt lat="41.578638553619385" lon="2.3622751235961914">
        <ele>327.75</ele>
      </trkpt>
      <trkpt lat="41.57857418060303" lon="2.3621463775634766">
        <ele>328.25</ele>
      </trkpt>
      <trkpt lat="41.5785098914057" lon="2.361888885498047">
        <ele>328.8</ele>
      </trkpt>
      <trkpt lat="41.57835968770087" lon="2.3616743087768555">
        <ele>329.43</ele>
      </trkpt>
      <trkpt lat="41.57821451313794" lon="2.361556040123105">
        <ele>329.97</ele>
      </trkpt>
      <trkpt lat="41.57821384258568" lon="2.3615555372089148">
        <ele>330.27</ele>
      </trkpt>
      <trkpt lat="41.578213423490524" lon="2.361555201932788">
        <ele>330.5</ele>
      </trkpt>
      <trkpt lat="41.5779969189316" lon="2.361378762871027">
        <ele>330.9</ele>
      </trkpt>
      <trkpt lat="41.57778033055365" lon="2.3612022399902344">
        <ele>331.11</ele>
      </trkpt>
      <trkpt lat="41.57753390260041" lon="2.3611700534820557">
        <ele>331.09</ele>
      </trkpt>
      <trkpt lat="41.57728680409491" lon="2.361137866973877">
        <ele>330.76</ele>
      </trkpt>
      <trkpt lat="41.577104330062866" lon="2.360944664105773">
        <ele>330.55</ele>
      </trkpt>
      <trkpt lat="41.57692193984985" lon="2.3607516288757324">
        <ele>330.31</ele>
      </trkpt>
      <trkpt lat="41.576685989275575" lon="2.36055850982666">
        <ele>330.06</ele>
      </trkpt>
      <trkpt lat="41.57644987106323" lon="2.360365390777588">
        <ele>329.72</ele>
      </trkpt>
      <trkpt lat="41.576288770884275" lon="2.360113011673093">
        <ele>329.43</ele>
      </trkpt>
      <trkpt lat="41.57612775452435" lon="2.3598607163876295">
        <ele>329.02</ele>
      </trkpt>
      <trkpt lat="41.57596665434539" lon="2.359608421102166">
        <ele>328.6</ele>
      </trkpt>
      <trkpt lat="41.57580614089966" lon="2.3593568801879883">
        <ele>328.18</ele>
      </trkpt>
      <trkpt lat="41.57560572959483" lon="2.3590634297579527">
        <ele>327.86</ele>
      </trkpt>
      <trkpt lat="41.575405318289995" lon="2.358769979327917">
        <ele>327.41</ele>
      </trkpt>
      <trkpt lat="41.57520532608032" lon="2.3584771156311035">
        <ele>327.12</ele>
      </trkpt>
      <trkpt lat="41.57531261444092" lon="2.3583483695983887">
        <ele>327.08</ele>
      </trkpt>
      <trkpt lat="41.57533407211304" lon="2.358133289963007">
        <ele>327.11</ele>
      </trkpt>
      <trkpt lat="41.575355529785156" lon="2.357919216156006">
        <ele>327.2</ele>
      </trkpt>
      <trkpt lat="41.575290989130735" lon="2.357704220339656">
        <ele>327.39</ele>
      </trkpt>
      <trkpt lat="41.57522678375244" lon="2.357490062713623">
        <ele>327.62</ele>
      </trkpt>
      <trkpt lat="41.57520532608032" lon="2.3572325706481934">
        <ele>327.8</ele>
      </trkpt>
      <trkpt lat="41.575188310816884" lon="2.357173226773739">
        <ele>328.06</ele>
      </trkpt>
      <trkpt lat="41.57518814317882" lon="2.3571724724024534">
        <ele>328.35</ele>
      </trkpt>
      <trkpt lat="41.57518797554076" lon="2.3571718856692314">
        <ele>328.68</ele>
      </trkpt>
      <trkpt lat="41.57518797554076" lon="2.3571718018501997">
        <ele>329.05</ele>
      </trkpt>
      <trkpt lat="41.575119495391846" lon="2.3569321632385254">
        <ele>329.49</ele>
      </trkpt>
      <trkpt lat="41.57495839521289" lon="2.35664214938879">
        <ele>329.91</ele>
      </trkpt>
      <trkpt lat="41.57479763031006" lon="2.3563528060913086">
        <ele>330.5</ele>
      </trkpt>
      <trkpt lat="41.57475479878485" lon="2.356095314025879">
        <ele>330.93</ele>
      </trkpt>
      <trkpt lat="41.57475471496582" lon="2.356095314025879">
        <ele>331.36</ele>
      </trkpt>
      <trkpt lat="41.57471179962158" lon="2.355966567993164">
        <ele>331.78</ele>
      </trkpt>
      <trkpt lat="41.57456159591675" lon="2.3558270931243896">
        <ele>332.32</ele>
      </trkpt>
      <trkpt lat="41.574411392211914" lon="2.3556876182556152">
        <ele>332.76</ele>
      </trkpt>
      <trkpt lat="41.57415943220258" lon="2.3555267695337534">
        <ele>333.09</ele>
      </trkpt>
      <trkpt lat="41.57390747219324" lon="2.3553659208118916">
        <ele>333.39</ele>
      </trkpt>
      <trkpt lat="41.573655512183905" lon="2.3552051559090614">
        <ele>333.71</ele>
      </trkpt>
      <trkpt lat="41.573402881622314" lon="2.355043888092041">
        <ele>334.05</ele>
      </trkpt>
      <trkpt lat="41.573316883295774" lon="2.354861246421933">
        <ele>334.2</ele>
      </trkpt>
      <trkpt lat="41.57323122024536" lon="2.3546791076660156">
        <ele>334.27</ele>
      </trkpt>
      <trkpt lat="41.57314547337592" lon="2.354614734649658">
        <ele>334.37</ele>
      </trkpt>
      <trkpt lat="41.573145389556885" lon="2.354614734649658">
        <ele>334.44</ele>
      </trkpt>
      <trkpt lat="41.57295252196491" lon="2.354614734649658">
        <ele>334.6</ele>
      </trkpt>
      <trkpt lat="41.57275915145874" lon="2.354614734649658">
        <ele>334.75</ele>
      </trkpt>
      <trkpt lat="41.57252311706543" lon="2.3546576499938965">
        <ele>334.82</ele>
      </trkpt>
      <trkpt lat="41.57243728637695" lon="2.3547863960266113">
        <ele>334.8</ele>
      </trkpt>
      <trkpt lat="41.57230862416327" lon="2.3548078536987305">
        <ele>334.83</ele>
      </trkpt>
      <trkpt lat="41.57222270965576" lon="2.354743480682373">
        <ele>335.04</ele>
      </trkpt>
      <trkpt lat="41.57205121591687" lon="2.354722023010254">
        <ele>335.18</ele>
      </trkpt>
      <trkpt lat="41.571879386901855" lon="2.3547005653381348">
        <ele>335.38</ele>
      </trkpt>
      <trkpt lat="41.57179355621338" lon="2.35457181930542">
        <ele>335.93</ele>
      </trkpt>
      <trkpt lat="41.57172901555896" lon="2.3543675523251295">
        <ele>336.75</ele>
      </trkpt>
      <trkpt lat="41.571664810180664" lon="2.3541641235351562">
        <ele>337.86</ele>
      </trkpt>
      <trkpt lat="41.57152877189219" lon="2.353942170739174">
        <ele>338.99</ele>
      </trkpt>
      <trkpt lat="41.571392733603716" lon="2.3537203017622232">
        <ele>340.27</ele>
      </trkpt>
      <trkpt lat="41.5712571144104" lon="2.353498935699463">
        <ele>341.68</ele>
      </trkpt>
      <trkpt lat="41.571171283721924" lon="2.3533272743225098">
        <ele>343.25</ele>
      </trkpt>
      <trkpt lat="41.57115837559104" lon="2.3532800003886223">
        <ele>344.77</ele>
      </trkpt>
      <trkpt lat="41.571158124133945" lon="2.3532790783792734">
        <ele>346.34</ele>
      </trkpt>
      <trkpt lat="41.57115795649588" lon="2.3532784916460514">
        <ele>348.01</ele>
      </trkpt>
      <trkpt lat="41.571106910705566" lon="2.353091239929199">
        <ele>350.01</ele>
      </trkpt>
      <trkpt lat="41.57102108001709" lon="2.3529839515686035">
        <ele>351.93</ele>
      </trkpt>
      <trkpt lat="41.570756547152996" lon="2.352790916338563">
        <ele>353.81</ele>
      </trkpt>
      <trkpt lat="41.570492098107934" lon="2.3525978811085224">
        <ele>356.01</ele>
      </trkpt>
      <trkpt lat="41.57022714614868" lon="2.3524045944213867">
        <ele>358.41</ele>
      </trkpt>
      <trkpt lat="41.57003402709961" lon="2.352125644683838">
        <ele>360.89</ele>
      </trkpt>
      <trkpt lat="41.5698944684118" lon="2.351975357159972">
        <ele>363.18</ele>
      </trkpt>
      <trkpt lat="41.56975507736206" lon="2.35182523727417">
        <ele>365.55</ele>
      </trkpt>
      <trkpt lat="41.5696907043457" lon="2.351717948913574">
        <ele>367.95</ele>
      </trkpt>
      <trkpt lat="41.56977653503418" lon="2.351696491241455">
        <ele>370.5</ele>
      </trkpt>
      <trkpt lat="41.56994819641113" lon="2.35182523727417">
        <ele>372.85</ele>
      </trkpt>
      <trkpt lat="41.570191103965044" lon="2.351932357996702">
        <ele>375.33</ele>
      </trkpt>
      <trkpt lat="41.570434011518955" lon="2.352039562538266">
        <ele>377.81</ele>
      </trkpt>
      <trkpt lat="41.570677757263184" lon="2.352147102355957">
        <ele>380.26</ele>
      </trkpt>
      <trkpt lat="41.57084941864014" lon="2.351975440979004">
        <ele>383.02</ele>
      </trkpt>
      <trkpt lat="41.57097816467285" lon="2.3519539833068848">
        <ele>385.27</ele>
      </trkpt>
      <trkpt lat="41.57102108001709" lon="2.3517823219299316">
        <ele>387.64</ele>
      </trkpt>
      <trkpt lat="41.57101035118103" lon="2.35156724229455">
        <ele>389.92</ele>
      </trkpt>
      <trkpt lat="41.570999706164" lon="2.351353168487549">
        <ele>392.02</ele>
      </trkpt>
      <trkpt lat="41.571013955399394" lon="2.3510090075433254">
        <ele>394.11</ele>
      </trkpt>
      <trkpt lat="41.57102828845382" lon="2.3506649304181337">
        <ele>395.92</ele>
      </trkpt>
      <trkpt lat="41.57104253768921" lon="2.35032320022583">
        <ele>397.17</ele>
      </trkpt>
      <trkpt lat="41.57108545303345" lon="2.3499584197998047">
        <ele>398.21</ele>
      </trkpt>
      <trkpt lat="41.57096131704748" lon="2.349586011841893">
        <ele>399.46</ele>
      </trkpt>
      <trkpt lat="41.5708376839757" lon="2.349215531721711">
        <ele>400.57</ele>
      </trkpt>
      <trkpt lat="41.570837600156665" lon="2.3492151126265526">
        <ele>401.51</ele>
      </trkpt>
      <trkpt lat="41.570837600156665" lon="2.349214944988489">
        <ele>402.34</ele>
      </trkpt>
      <trkpt lat="41.57078504562378" lon="2.349057197570801">
        <ele>403.1</ele>
      </trkpt>
      <trkpt lat="41.57061313278973" lon="2.348713455721736">
        <ele>403.85</ele>
      </trkpt>
      <trkpt lat="41.57044172286987" lon="2.3483705520629883">
        <ele>404.53</ele>
      </trkpt>
      <trkpt lat="41.57027701847255" lon="2.3481056839227676">
        <ele>405.18</ele>
      </trkpt>
      <trkpt lat="41.57011239789426" lon="2.347840815782547">
        <ele>405.71</ele>
      </trkpt>
      <trkpt lat="41.56994819641113" lon="2.34757661819458">
        <ele>406.26</ele>
      </trkpt>
      <trkpt lat="41.56984090805054" lon="2.3473405838012695">
        <ele>406.71</ele>
      </trkpt>
      <trkpt lat="41.56981945037842" lon="2.3471903800964355">
        <ele>407.04</ele>
      </trkpt>
      <trkpt lat="41.56986244954169" lon="2.346932888031006">
        <ele>407.27</ele>
      </trkpt>
      <trkpt lat="41.569862365722656" lon="2.346932888031006">
        <ele>407.61</ele>
      </trkpt>
      <trkpt lat="41.56984090805054" lon="2.3468470573425293">
        <ele>407.96</ele>
      </trkpt>
      <trkpt lat="41.56975507736206" lon="2.3467612266540527">
        <ele>408.41</ele>
      </trkpt>
      <trkpt lat="41.569626331329346" lon="2.3467183113098145">
        <ele>408.78</ele>
      </trkpt>
      <trkpt lat="41.56949758529663" lon="2.3467612266540527">
        <ele>409.19</ele>
      </trkpt>
      <trkpt lat="41.56949766911566" lon="2.3467612266540527">
        <ele>409.59</ele>
      </trkpt>
      <trkpt lat="41.569411754608154" lon="2.346782684326172">
        <ele>409.96</ele>
      </trkpt>
      <trkpt lat="41.56930446624756" lon="2.3468899726867676">
        <ele>410.31</ele>
      </trkpt>
      <trkpt lat="41.5692400932312" lon="2.3469972610473633">
        <ele>410.75</ele>
      </trkpt>
      <trkpt lat="41.569168427959085" lon="2.347283838316798">
        <ele>411.34</ele>
      </trkpt>
      <trkpt lat="41.56909676268697" lon="2.347570499405265">
        <ele>412.09</ele>
      </trkpt>
      <trkpt lat="41.56902551651001" lon="2.347855567932129">
        <ele>412.77</ele>
      </trkpt>
      <trkpt lat="41.56898260116577" lon="2.3479413986206055">
        <ele>413.28</ele>
      </trkpt>
      <trkpt lat="41.56874656677246" lon="2.3481130599975586">
        <ele>413.75</ele>
      </trkpt>
      <trkpt lat="41.56859636306763" lon="2.348177433013916">
        <ele>414.14</ele>
      </trkpt>
      <trkpt lat="41.568424701690674" lon="2.348155975341797">
        <ele>414.56</ele>
      </trkpt>
      <trkpt lat="41.5683388710022" lon="2.3479413986206055">
        <ele>414.88</ele>
      </trkpt>
      <trkpt lat="41.568145751953125" lon="2.3476409912109375">
        <ele>415.27</ele>
      </trkpt>
      <trkpt lat="41.56795984134078" lon="2.3474622052162886">
        <ele>415.53</ele>
      </trkpt>
      <trkpt lat="41.567773930728436" lon="2.3472834192216396">
        <ele>415.49</ele>
      </trkpt>
      <trkpt lat="41.56758793629706" lon="2.347104549407959">
        <ele>415.28</ele>
      </trkpt>
      <trkpt lat="41.56734117306769" lon="2.3468685150146484">
        <ele>415.03</ele>
      </trkpt>
      <trkpt lat="41.56709432601929" lon="2.346632480621338">
        <ele>414.68</ele>
      </trkpt>
      <trkpt lat="41.56698703765869" lon="2.3465895652770996">
        <ele>414.26</ele>
      </trkpt>
      <trkpt lat="41.5667724609375" lon="2.3465895652770996">
        <ele>413.46</ele>
      </trkpt>
      <trkpt lat="41.566584622487426" lon="2.3462521098554134">
        <ele>412.61</ele>
      </trkpt>
      <trkpt lat="41.56639678403735" lon="2.345914738252759">
        <ele>411.77</ele>
      </trkpt>
      <trkpt lat="41.56620894558728" lon="2.3455773666501045">
        <ele>410.96</ele>
      </trkpt>
      <trkpt lat="41.5660211071372" lon="2.34523999504745">
        <ele>409.9</ele>
      </trkpt>
      <trkpt lat="41.5658347774297" lon="2.344905389472842">
        <ele>408.82</ele>
      </trkpt>
      <trkpt lat="41.56583444215357" lon="2.3449047189205885">
        <ele>407.76</ele>
      </trkpt>
      <trkpt lat="41.56583427451551" lon="2.34490429982543">
        <ele>406.66</ele>
      </trkpt>
      <trkpt lat="41.56572388485074" lon="2.3447059839963913">
        <ele>405.56</ele>
      </trkpt>
      <trkpt lat="41.565613746643066" lon="2.344508171081543">
        <ele>404.43</ele>
      </trkpt>
      <trkpt lat="41.565377712249756" lon="2.3442721366882324">
        <ele>403.08</ele>
      </trkpt>
      <trkpt lat="41.565141677856445" lon="2.344036102294922">
        <ele>401.7</ele>
      </trkpt>
      <trkpt lat="41.56503438949585" lon="2.3438429832458496">
        <ele>400.55</ele>
      </trkpt>
      <trkpt lat="41.564905643463135" lon="2.3435211181640625">
        <ele>399.46</ele>
      </trkpt>
      <trkpt lat="41.56473398208618" lon="2.3433709144592285">
        <ele>398.2</ele>
      </trkpt>
      <trkpt lat="41.56458377838135" lon="2.3430705070495605">
        <ele>396.86</ele>
      </trkpt>
      <trkpt lat="41.56451940536499" lon="2.343006134033203">
        <ele>395.89</ele>
      </trkpt>
      <trkpt lat="41.564412117004395" lon="2.3430275917053223">
        <ele>395.12</ele>
      </trkpt>
      <trkpt lat="41.564390659332275" lon="2.3430919647216797">
        <ele>394.55</ele>
      </trkpt>
      <trkpt lat="41.56436928547919" lon="2.343285083770752">
        <ele>394.23</ele>
      </trkpt>
      <trkpt lat="41.56432628631592" lon="2.3433709144592285">
        <ele>393.89</ele>
      </trkpt>
      <trkpt lat="41.56426191329956" lon="2.343413829803467">
        <ele>393.63</ele>
      </trkpt>
      <trkpt lat="41.563961589708924" lon="2.343413829803467">
        <ele>393.35</ele>
      </trkpt>
      <trkpt lat="41.563897132873535" lon="2.343413829803467">
        <ele>393.31</ele>
      </trkpt>
      <trkpt lat="41.563682556152344" lon="2.3433709144592285">
        <ele>393.31</ele>
      </trkpt>
      <trkpt lat="41.56346831470728" lon="2.343392288312316">
        <ele>393.49</ele>
      </trkpt>
      <trkpt lat="41.56325348652899" lon="2.343413829803467">
        <ele>393.82</ele>
      </trkpt>
      <trkpt lat="41.56300705857575" lon="2.343408465385437">
        <ele>394.24</ele>
      </trkpt>
      <trkpt lat="41.562760630622506" lon="2.3434031009674072">
        <ele>394.69</ele>
      </trkpt>
      <trkpt lat="41.56251420266926" lon="2.3433977365493774">
        <ele>395.26</ele>
      </trkpt>
      <trkpt lat="41.56226643361151" lon="2.3433923721313477">
        <ele>396.03</ele>
      </trkpt>
      <trkpt lat="41.56211614608765" lon="2.3433923721313477">
        <ele>396.69</ele>
      </trkpt>
      <trkpt lat="41.5620303992182" lon="2.343456745147705">
        <ele>397.15</ele>
      </trkpt>
      <trkpt lat="41.56190165318549" lon="2.3435425758361816">
        <ele>397.55</ele>
      </trkpt>
      <trkpt lat="41.561687076464295" lon="2.343714153394103">
        <ele>397.8</ele>
      </trkpt>
      <trkpt lat="41.56147241592407" lon="2.343885898590088">
        <ele>398.02</ele>
      </trkpt>
      <trkpt lat="41.56136512756348" lon="2.3439502716064453">
        <ele>398.21</ele>
      </trkpt>
      <trkpt lat="41.56123638153076" lon="2.3439931869506836">
        <ele>398.31</ele>
      </trkpt>
      <trkpt lat="41.561022056266665" lon="2.343982458114624">
        <ele>398.28</ele>
      </trkpt>
      <trkpt lat="41.56080722808838" lon="2.3439717292785645">
        <ele>398.1</ele>
      </trkpt>
      <trkpt lat="41.560657024383545" lon="2.343928813934326">
        <ele>397.92</ele>
      </trkpt>
      <trkpt lat="41.56052182428539" lon="2.343840217217803">
        <ele>397.76</ele>
      </trkpt>
      <trkpt lat="41.56052081845701" lon="2.343839630484581">
        <ele>397.62</ele>
      </trkpt>
      <trkpt lat="41.56052006408572" lon="2.3438392113894224">
        <ele>397.46</ele>
      </trkpt>
      <trkpt lat="41.56052006408572" lon="2.343839295208454">
        <ele>397.28</ele>
      </trkpt>
      <trkpt lat="41.560309678316116" lon="2.343701748177409">
        <ele>396.96</ele>
      </trkpt>
      <trkpt lat="41.56009912490845" lon="2.343564033508301">
        <ele>396.73</ele>
      </trkpt>
      <trkpt lat="41.55988479964435" lon="2.3435746785253286">
        <ele>396.39</ele>
      </trkpt>
      <trkpt lat="41.559669971466064" lon="2.34358549118042">
        <ele>396.09</ele>
      </trkpt>
      <trkpt lat="41.55949831008911" lon="2.343564033508301">
        <ele>395.84</ele>
      </trkpt>
      <trkpt lat="41.559412479400635" lon="2.3433923721313477">
        <ele>395.92</ele>
      </trkpt>
      <trkpt lat="41.55936939641833" lon="2.343134293332696">
        <ele>396.06</ele>
      </trkpt>
      <trkpt lat="41.55932664871216" lon="2.3428773880004883">
        <ele>396.08</ele>
      </trkpt>
      <trkpt lat="41.5592622756958" lon="2.3427915573120117">
        <ele>395.98</ele>
      </trkpt>
      <trkpt lat="41.55898332595825" lon="2.3427700996398926">
        <ele>395.86</ele>
      </trkpt>
      <trkpt lat="41.55873681418598" lon="2.3428557626903057">
        <ele>395.61</ele>
      </trkpt>
      <trkpt lat="41.55848979949951" lon="2.3429417610168457">
        <ele>395.28</ele>
      </trkpt>
      <trkpt lat="41.558382511138916" lon="2.3429417610168457">
        <ele>394.94</ele>
      </trkpt>
      <trkpt lat="41.55838259495795" lon="2.3429417610168457">
        <ele>394.59</ele>
      </trkpt>
      <trkpt lat="41.558175310492516" lon="2.3428345564752817">
        <ele>394.23</ele>
      </trkpt>
      <trkpt lat="41.55796802602708" lon="2.3427273519337177">
        <ele>393.71</ele>
      </trkpt>
      <trkpt lat="41.55776023864746" lon="2.3426198959350586">
        <ele>393.04</ele>
      </trkpt>
      <trkpt lat="41.55748162418604" lon="2.3425448779016733">
        <ele>392.39</ele>
      </trkpt>
      <trkpt lat="41.55720233917236" lon="2.3424696922302246">
        <ele>391.95</ele>
      </trkpt>
      <trkpt lat="41.557202422991395" lon="2.3424696922302246">
        <ele>391.49</ele>
      </trkpt>
      <trkpt lat="41.556934453547" lon="2.3423946741968393">
        <ele>390.97</ele>
      </trkpt>
      <trkpt lat="41.556665897369385" lon="2.3423194885253906">
        <ele>390.51</ele>
      </trkpt>
      <trkpt lat="41.55645157210529" lon="2.342319404706359">
        <ele>390.05</ele>
      </trkpt>
      <trkpt lat="41.556237330660224" lon="2.342319404706359">
        <ele>389.58</ele>
      </trkpt>
      <trkpt lat="41.55602216720581" lon="2.3423194885253906">
        <ele>389.05</ele>
      </trkpt>
      <trkpt lat="41.55572175979614" lon="2.342383861541748">
        <ele>388.62</ele>
      </trkpt>
      <trkpt lat="41.55546451918781" lon="2.3424552753567696">
        <ele>388.45</ele>
      </trkpt>
      <trkpt lat="41.555207362398505" lon="2.342526689171791">
        <ele>388.41</ele>
      </trkpt>
      <trkpt lat="41.55494928359985" lon="2.3425984382629395">
        <ele>388.45</ele>
      </trkpt>
      <trkpt lat="41.55484199523926" lon="2.342684268951416">
        <ele>388.45</ele>
      </trkpt>
      <trkpt lat="41.55473470687866" lon="2.342813014984131">
        <ele>388.47</ele>
      </trkpt>
      <trkpt lat="41.554691791534424" lon="2.343006134033203">
        <ele>388.39</ele>
      </trkpt>
      <trkpt lat="41.55468097887933" lon="2.343242671340704">
        <ele>388.21</ele>
      </trkpt>
      <trkpt lat="41.554670333862305" lon="2.343478202819824">
        <ele>387.92</ele>
      </trkpt>
      <trkpt lat="41.55460596084595" lon="2.3436713218688965">
        <ele>387.83</ele>
      </trkpt>
      <trkpt lat="41.554434299468994" lon="2.343778610229492">
        <ele>387.92</ele>
      </trkpt>
      <trkpt lat="41.554434383288026" lon="2.343778610229492">
        <ele>387.78</ele>
      </trkpt>
      <trkpt lat="41.554155349731445" lon="2.3438000679016113">
        <ele>387.72</ele>
      </trkpt>
      <trkpt lat="41.55415543355048" lon="2.3438000679016113">
        <ele>387.53</ele>
      </trkpt>
      <trkpt lat="41.553983772173524" lon="2.3436498641967773">
        <ele>387.1</ele>
      </trkpt>
      <trkpt lat="41.55381202697754" lon="2.3434996604919434">
        <ele>386.64</ele>
      </trkpt>
      <trkpt lat="41.55361890792847" lon="2.343306541442871">
        <ele>386.19</ele>
      </trkpt>
      <trkpt lat="41.553425788879395" lon="2.343113422393799">
        <ele>385.87</ele>
      </trkpt>
      <trkpt lat="41.55326468870044" lon="2.3428664077073336">
        <ele>385.8</ele>
      </trkpt>
      <trkpt lat="41.55310392379761" lon="2.3426198959350586">
        <ele>385.83</ele>
      </trkpt>
      <trkpt lat="41.552910804748535" lon="2.342555522918701">
        <ele>385.67</ele>
      </trkpt>
      <trkpt lat="41.55277132987976" lon="2.3426841851323843">
        <ele>385.33</ele>
      </trkpt>
      <trkpt lat="41.552631855010986" lon="2.342813014984131">
        <ele>385.07</ele>
      </trkpt>
      <trkpt lat="41.55252456665039" lon="2.342855930328369">
        <ele>384.86</ele>
      </trkpt>
      <trkpt lat="41.552395820617676" lon="2.3428988456726074">
        <ele>384.69</ele>
      </trkpt>
      <trkpt lat="41.5522027015686" lon="2.3428773880004883">
        <ele>384.67</ele>
      </trkpt>
      <trkpt lat="41.55200958251953" lon="2.3427700996398926">
        <ele>384.53</ele>
      </trkpt>
      <trkpt lat="41.55177354812622" lon="2.342555522918701">
        <ele>384.34</ele>
      </trkpt>
      <trkpt lat="41.55158051289618" lon="2.3424160480499268">
        <ele>384.16</ele>
      </trkpt>
      <trkpt lat="41.551387310028076" lon="2.3422765731811523">
        <ele>384.09</ele>
      </trkpt>
      <trkpt lat="41.551194190979004" lon="2.342104911804199">
        <ele>384.03</ele>
      </trkpt>
      <trkpt lat="41.551008112728596" lon="2.3418831266462803">
        <ele>383.95</ele>
      </trkpt>
      <trkpt lat="41.55082211829722" lon="2.3416613414883614">
        <ele>383.84</ele>
      </trkpt>
      <trkpt lat="41.550636291503906" lon="2.341439723968506">
        <ele>383.91</ele>
      </trkpt>
      <trkpt lat="41.55048608779907" lon="2.3413538932800293">
        <ele>383.89</ele>
      </trkpt>
      <trkpt lat="41.550282491371036" lon="2.341364538297057">
        <ele>383.77</ele>
      </trkpt>
      <trkpt lat="41.55007839202881" lon="2.3413753509521484">
        <ele>383.58</ele>
      </trkpt>
      <trkpt lat="41.549949645996094" lon="2.3413538932800293">
        <ele>383.41</ele>
      </trkpt>
      <trkpt lat="41.54976733960211" lon="2.3412466887384653">
        <ele>383.23</ele>
      </trkpt>
      <trkpt lat="41.54958486557007" lon="2.341139316558838">
        <ele>383.07</ele>
      </trkpt>
      <trkpt lat="41.54937028884888" lon="2.3410964012145996">
        <ele>382.81</ele>
      </trkpt>
      <trkpt lat="41.549155712127686" lon="2.3410964012145996">
        <ele>382.5</ele>
      </trkpt>
      <trkpt lat="41.54890911653638" lon="2.341224979609251">
        <ele>382.2</ele>
      </trkpt>
      <trkpt lat="41.548662185668945" lon="2.3413538932800293">
        <ele>381.76</ele>
      </trkpt>
      <trkpt lat="41.548447608947754" lon="2.341310977935791">
        <ele>381.56</ele>
      </trkpt>
      <trkpt lat="41.54825457371771" lon="2.341182231903076">
        <ele>381.38</ele>
      </trkpt>
      <trkpt lat="41.548190200701356" lon="2.3412036895751953">
        <ele>381.1</ele>
      </trkpt>
      <trkpt lat="41.54808291234076" lon="2.3412680625915527">
        <ele>380.8</ele>
      </trkpt>
      <trkpt lat="41.54791829176247" lon="2.341482723131776">
        <ele>380.56</ele>
      </trkpt>
      <trkpt lat="41.54775367118418" lon="2.341697383671999">
        <ele>380.28</ele>
      </trkpt>
      <trkpt lat="41.54758930206299" lon="2.341911792755127">
        <ele>380.0</ele>
      </trkpt>
      <trkpt lat="41.54758938588202" lon="2.341911792755127">
        <ele>379.71</ele>
      </trkpt>
      <trkpt lat="41.5473676007241" lon="2.342162160202861">
        <ele>379.47</ele>
      </trkpt>
      <trkpt lat="41.54714581556618" lon="2.3424125276505947">
        <ele>379.19</ele>
      </trkpt>
      <trkpt lat="41.546924114227295" lon="2.342662811279297">
        <ele>378.98</ele>
      </trkpt>
      <trkpt lat="41.54685974121094" lon="2.3427915573120117">
        <ele>378.66</ele>
      </trkpt>
      <trkpt lat="41.54678086750209" lon="2.343071009963751">
        <ele>378.23</ele>
      </trkpt>
      <trkpt lat="41.54670207761228" lon="2.34335046261549">
        <ele>377.89</ele>
      </trkpt>
      <trkpt lat="41.54662370681763" lon="2.343628406524658">
        <ele>377.52</ele>
      </trkpt>
      <trkpt lat="41.54655933380127" lon="2.3436927795410156">
        <ele>377.3</ele>
      </trkpt>
      <trkpt lat="41.546452045440674" lon="2.343628406524658">
        <ele>377.23</ele>
      </trkpt>
      <trkpt lat="41.54631592333317" lon="2.3433705791831017">
        <ele>377.3</ele>
      </trkpt>
      <trkpt lat="41.546179885044694" lon="2.343112835660577">
        <ele>377.43</ele>
      </trkpt>
      <trkpt lat="41.54604434967041" lon="2.342855930328369">
        <ele>377.68</ele>
      </trkpt>
      <trkpt lat="41.545915603637695" lon="2.342684268951416">
        <ele>377.92</ele>
      </trkpt>
      <trkpt lat="41.54571192339063" lon="2.342598522081971">
        <ele>378.1</ele>
      </trkpt>
      <trkpt lat="41.54550790786743" lon="2.342512607574463">
        <ele>378.43</ele>
      </trkpt>
      <trkpt lat="41.545250415802" lon="2.342534065246582">
        <ele>378.73</ele>
      </trkpt>
      <trkpt lat="41.54501438140869" lon="2.3427271842956543">
        <ele>378.98</ele>
      </trkpt>
      <trkpt lat="41.54484272003174" lon="2.343006134033203">
        <ele>379.21</ele>
      </trkpt>
      <trkpt lat="41.54475697316229" lon="2.3430919647216797">
        <ele>379.52</ele>
      </trkpt>
      <trkpt lat="41.544456565752625" lon="2.343156337738037">
        <ele>379.99</ele>
      </trkpt>
      <trkpt lat="41.54430644586682" lon="2.343220626935363">
        <ele>380.28</ele>
      </trkpt>
      <trkpt lat="41.544156074523926" lon="2.343285083770752">
        <ele>380.63</ele>
      </trkpt>
      <trkpt lat="41.543984496966004" lon="2.343413829803467">
        <ele>381.05</ele>
      </trkpt>
      <trkpt lat="41.543878046795726" lon="2.343583730980754">
        <ele>381.69</ele>
      </trkpt>
      <trkpt lat="41.54387720860541" lon="2.34358549118042">
        <ele>382.3</ele>
      </trkpt>
      <trkpt lat="41.54383429326117" lon="2.3437142372131348">
        <ele>383.03</ele>
      </trkpt>
      <trkpt lat="41.54385575093329" lon="2.3441013135015965">
        <ele>383.8</ele>
      </trkpt>
      <trkpt lat="41.54387712478638" lon="2.344486713409424">
        <ele>384.63</ele>
      </trkpt>
      <trkpt lat="41.54385566711426" lon="2.3447227478027344">
        <ele>385.68</ele>
      </trkpt>
      <trkpt lat="41.54374837875366" lon="2.3450446128845215">
        <ele>386.89</ele>
      </trkpt>
      <trkpt lat="41.54359817504883" lon="2.3452377319335938">
        <ele>388.27</ele>
      </trkpt>
      <trkpt lat="41.54334797523916" lon="2.3454092256724834">
        <ele>389.69</ele>
      </trkpt>
      <trkpt lat="41.54309777542949" lon="2.345580803230405">
        <ele>391.16</ele>
      </trkpt>
      <trkpt lat="41.54284715652466" lon="2.345752716064453">
        <ele>392.53</ele>
      </trkpt>
      <trkpt lat="41.54270759783685" lon="2.345945918932557">
        <ele>393.87</ele>
      </trkpt>
      <trkpt lat="41.54256820678711" lon="2.3461389541625977">
        <ele>395.36</ele>
      </trkpt>
      <trkpt lat="41.54241775162518" lon="2.3464826960116625">
        <ele>397.04</ele>
      </trkpt>
      <trkpt lat="41.54226779937744" lon="2.34682559967041">
        <ele>398.97</ele>
      </trkpt>
      <trkpt lat="41.54207468032837" lon="2.3470616340637207">
        <ele>400.97</ele>
      </trkpt>
      <trkpt lat="41.541945934295654" lon="2.3473405838012695">
        <ele>402.96</ele>
      </trkpt>
      <trkpt lat="41.541903018951416" lon="2.34757661819458">
        <ele>404.99</ele>
      </trkpt>
      <trkpt lat="41.541859935969114" lon="2.3478346131742">
        <ele>407.03</ele>
      </trkpt>
      <trkpt lat="41.54181718826294" lon="2.3480916023254395">
        <ele>409.13</ele>
      </trkpt>
      <trkpt lat="41.54175281524658" lon="2.348306179046631">
        <ele>411.37</ele>
      </trkpt>
      <trkpt lat="41.54160261154175" lon="2.348456382751465">
        <ele>413.7</ele>
      </trkpt>
      <trkpt lat="41.541495407000184" lon="2.348477840423584">
        <ele>416.14</ele>
      </trkpt>
      <trkpt lat="41.54123783111572" lon="2.348306179046631">
        <ele>418.82</ele>
      </trkpt>
      <trkpt lat="41.54105535708368" lon="2.348112976178527">
        <ele>421.29</ele>
      </trkpt>
      <trkpt lat="41.5408730506897" lon="2.3479199409484863">
        <ele>423.65</ele>
      </trkpt>
      <trkpt lat="41.54063726775348" lon="2.3478627763688564">
        <ele>426.15</ele>
      </trkpt>
      <trkpt lat="41.5404015686363" lon="2.3478056117892265">
        <ele>428.41</ele>
      </trkpt>
      <trkpt lat="41.540164947509766" lon="2.347748279571533">
        <ele>430.45</ele>
      </trkpt>
      <trkpt lat="41.53994517400861" lon="2.3476303461939096">
        <ele>432.15</ele>
      </trkpt>
      <trkpt lat="41.53972540050745" lon="2.347512412816286">
        <ele>433.84</ele>
      </trkpt>
      <trkpt lat="41.539505710825324" lon="2.3473944794386625">
        <ele>435.97</ele>
      </trkpt>
      <trkpt lat="41.53928518295288" lon="2.347276210784912">
        <ele>438.14</ele>
      </trkpt>
      <trkpt lat="41.53913506306708" lon="2.3469972610473633">
        <ele>439.86</ele>
      </trkpt>
      <trkpt lat="41.53904906474054" lon="2.3468146193772554">
        <ele>441.3</ele>
      </trkpt>
      <trkpt lat="41.538963317871094" lon="2.346632480621338">
        <ele>442.59</ele>
      </trkpt>
      <trkpt lat="41.538812946528196" lon="2.346396194770932">
        <ele>443.77</ele>
      </trkpt>
      <trkpt lat="41.538662910461426" lon="2.346160411834717">
        <ele>444.78</ele>
      </trkpt>
      <trkpt lat="41.53866299428046" lon="2.346160411834717">
        <ele>445.64</ele>
      </trkpt>
      <trkpt lat="41.538448417559266" lon="2.3459243774414062">
        <ele>446.2</ele>
      </trkpt>
      <trkpt lat="41.53822319582105" lon="2.3457635287195444">
        <ele>446.68</ele>
      </trkpt>
      <trkpt lat="41.53799772262573" lon="2.345602512359619">
        <ele>447.18</ele>
      </trkpt>
      <trkpt lat="41.53777878731489" lon="2.345357844606042">
        <ele>447.75</ele>
      </trkpt>
      <trkpt lat="41.53755993582308" lon="2.3451131768524647">
        <ele>448.38</ele>
      </trkpt>
      <trkpt lat="41.53734100051224" lon="2.3448685090988874">
        <ele>448.63</ele>
      </trkpt>
      <trkpt lat="41.53712214902043" lon="2.344623925164342">
        <ele>448.72</ele>
      </trkpt>
      <trkpt lat="41.536903381347656" lon="2.344379425048828">
        <ele>448.84</ele>
      </trkpt>
      <trkpt lat="41.536667346954346" lon="2.3441684525460005">
        <ele>448.99</ele>
      </trkpt>
      <trkpt lat="41.53643139638007" lon="2.343957480043173">
        <ele>448.99</ele>
      </trkpt>
      <trkpt lat="41.53619544580579" lon="2.343746591359377">
        <ele>448.75</ele>
      </trkpt>
      <trkpt lat="41.53595949523151" lon="2.3435356188565493">
        <ele>448.33</ele>
      </trkpt>
      <trkpt lat="41.53572354465723" lon="2.3433246463537216">
        <ele>447.97</ele>
      </trkpt>
      <trkpt lat="41.535487258806825" lon="2.343113422393799">
        <ele>447.53</ele>
      </trkpt>
      <trkpt lat="41.5352728497237" lon="2.3430490493774414">
        <ele>447.01</ele>
      </trkpt>
      <trkpt lat="41.53505802154541" lon="2.342984676361084">
        <ele>446.32</ele>
      </trkpt>
      <trkpt lat="41.53477513231337" lon="2.3429589439183474">
        <ele>445.43</ele>
      </trkpt>
      <trkpt lat="41.53449232690036" lon="2.3429332114756107">
        <ele>444.18</ele>
      </trkpt>
      <trkpt lat="41.53420943766832" lon="2.342907479032874">
        <ele>442.81</ele>
      </trkpt>
      <trkpt lat="41.533926632255316" lon="2.3428817465901375">
        <ele>441.43</ele>
      </trkpt>
      <trkpt lat="41.53364181518555" lon="2.342855930328369">
        <ele>440.03</ele>
      </trkpt>
      <trkpt lat="41.533398907631636" lon="2.342813014984131">
        <ele>438.48</ele>
      </trkpt>
      <trkpt lat="41.533156083896756" lon="2.3427701834589243">
        <ele>436.89</ele>
      </trkpt>
      <trkpt lat="41.532912254333496" lon="2.3427271842956543">
        <ele>435.18</ele>
      </trkpt>
      <trkpt lat="41.53269784525037" lon="2.3426092509180307">
        <ele>433.37</ele>
      </trkpt>
      <trkpt lat="41.532483184710145" lon="2.3424911499023438">
        <ele>431.54</ele>
      </trkpt>
      <trkpt lat="41.53237589634955" lon="2.3424482345581055">
        <ele>429.77</ele>
      </trkpt>
      <trkpt lat="41.53209686279297" lon="2.3422765731811523">
        <ele>427.85</ele>
      </trkpt>
      <trkpt lat="41.531855799257755" lon="2.3422979470342398">
        <ele>426.02</ele>
      </trkpt>
      <trkpt lat="41.53161473572254" lon="2.342319404706359">
        <ele>424.3</ele>
      </trkpt>
      <trkpt lat="41.53137367218733" lon="2.3423407785594463">
        <ele>422.67</ele>
      </trkpt>
      <trkpt lat="41.53113126754761" lon="2.342362403869629">
        <ele>421.05</ele>
      </trkpt>
      <trkpt lat="41.53097050264478" lon="2.34233021736145">
        <ele>419.28</ele>
      </trkpt>
      <trkpt lat="41.53080940246582" lon="2.3422980308532715">
        <ele>417.42</ele>
      </trkpt>
      <trkpt lat="41.53080948628485" lon="2.3422980308532715">
        <ele>415.57</ele>
      </trkpt>
      <trkpt lat="41.53057781048119" lon="2.3421178199350834">
        <ele>413.54</ele>
      </trkpt>
      <trkpt lat="41.53034613467753" lon="2.341937692835927">
        <ele>411.35</ele>
      </trkpt>
      <trkpt lat="41.5301145426929" lon="2.341757481917739">
        <ele>409.08</ele>
      </trkpt>
      <trkpt lat="41.52988286688924" lon="2.3415773548185825">
        <ele>406.76</ele>
      </trkpt>
      <trkpt lat="41.52965068817139" lon="2.3413968086242676">
        <ele>404.43</ele>
      </trkpt>
      <trkpt lat="41.529411720111966" lon="2.3412221297621727">
        <ele>402.04</ele>
      </trkpt>
      <trkpt lat="41.529172752052546" lon="2.3410475347191095">
        <ele>399.51</ele>
      </trkpt>
      <trkpt lat="41.528933783993125" lon="2.3408728558570147">
        <ele>396.73</ele>
      </trkpt>
      <trkpt lat="41.528694815933704" lon="2.3406982608139515">
        <ele>393.97</ele>
      </trkpt>
      <trkpt lat="41.528455847874284" lon="2.3405236657708883">
        <ele>391.23</ele>
      </trkpt>
      <trkpt lat="41.52821687981486" lon="2.3403489869087934">
        <ele>388.33</ele>
      </trkpt>
      <trkpt lat="41.527976989746094" lon="2.3401737213134766">
        <ele>385.25</ele>
      </trkpt>
      <trkpt lat="41.527762580662966" lon="2.3400450590997934">
        <ele>382.09</ele>
      </trkpt>
      <trkpt lat="41.52754783630371" lon="2.339916229248047">
        <ele>378.98</ele>
      </trkpt>
      <trkpt lat="41.52732269838452" lon="2.3398197535425425">
        <ele>376.05</ele>
      </trkpt>
      <trkpt lat="41.52709722518921" lon="2.3397231101989746">
        <ele>373.3</ele>
      </trkpt>
      <trkpt lat="41.52681827545166" lon="2.3397016525268555">
        <ele>370.62</ele>
      </trkpt>
      <trkpt lat="41.52658232487738" lon="2.3397445678710938">
        <ele>368.27</ele>
      </trkpt>
      <trkpt lat="41.52645357884467" lon="2.339766025543213">
        <ele>366.35</ele>
      </trkpt>
      <trkpt lat="41.52628183364868" lon="2.3398518562316895">
        <ele>364.75</ele>
      </trkpt>
      <trkpt lat="41.52602434158325" lon="2.340066432952881">
        <ele>363.38</ele>
      </trkpt>
      <trkpt lat="41.52580976486206" lon="2.3403239250183105">
        <ele>362.33</ele>
      </trkpt>
      <trkpt lat="41.525745475664735" lon="2.3403453826904297">
        <ele>361.58</ele>
      </trkpt>
      <trkpt lat="41.52559518814087" lon="2.340238094329834">
        <ele>361.14</ele>
      </trkpt>
      <trkpt lat="41.5255952719599" lon="2.340238094329834">
        <ele>360.95</ele>
      </trkpt>
      <trkpt lat="41.52546635828912" lon="2.3400340788066387">
        <ele>361.07</ele>
      </trkpt>
      <trkpt lat="41.52533777989447" lon="2.3398303985595703">
        <ele>361.46</ele>
      </trkpt>
      <trkpt lat="41.525230407714844" lon="2.3397016525268555">
        <ele>362.12</ele>
      </trkpt>
      <trkpt lat="41.525026727467775" lon="2.3395944479852915">
        <ele>363.08</ele>
      </trkpt>
      <trkpt lat="41.52482279576361" lon="2.339487075805664">
        <ele>364.35</ele>
      </trkpt>
      <trkpt lat="41.524715423583984" lon="2.3393797874450684">
        <ele>365.68</ele>
      </trkpt>
      <trkpt lat="41.524522472172976" lon="2.339304769411683">
        <ele>367.23</ele>
      </trkpt>
      <trkpt lat="41.52432918548584" lon="2.3392295837402344">
        <ele>368.93</ele>
      </trkpt>
      <trkpt lat="41.52415752410889" lon="2.3390793800354004">
        <ele>370.7</ele>
      </trkpt>
      <trkpt lat="41.52402852661908" lon="2.338757012039423">
        <ele>372.52</ele>
      </trkpt>
      <trkpt lat="41.52390003204346" lon="2.338435649871826">
        <ele>374.36</ele>
      </trkpt>
      <trkpt lat="41.52377128601074" lon="2.3383069038391113">
        <ele>376.39</ele>
      </trkpt>
      <trkpt lat="41.52351379394531" lon="2.338135242462158">
        <ele>378.6</ele>
      </trkpt>
      <trkpt lat="41.523427963256836" lon="2.3380064964294434">
        <ele>380.49</ele>
      </trkpt>
      <trkpt lat="41.523363422602415" lon="2.337640877813101">
        <ele>382.26</ele>
      </trkpt>
      <trkpt lat="41.52329921722412" lon="2.3372769355773926">
        <ele>384.22</ele>
      </trkpt>
      <trkpt lat="41.52314901351929" lon="2.337040901184082">
        <ele>386.24</ele>
      </trkpt>
      <trkpt lat="41.52304180897772" lon="2.337019443511963">
        <ele>388.26</ele>
      </trkpt>
      <trkpt lat="41.52282748371363" lon="2.337019359692931">
        <ele>390.26</ele>
      </trkpt>
      <trkpt lat="41.52261315844953" lon="2.337019359692931">
        <ele>392.14</ele>
      </trkpt>
      <trkpt lat="41.52239799499512" lon="2.337019443511963">
        <ele>394.03</ele>
      </trkpt>
      <trkpt lat="41.52218366973102" lon="2.33709798194468">
        <ele>395.96</ele>
      </trkpt>
      <trkpt lat="41.521969344466925" lon="2.3371766041964293">
        <ele>397.68</ele>
      </trkpt>
      <trkpt lat="41.52175426483154" lon="2.3372554779052734">
        <ele>399.34</ele>
      </trkpt>
      <trkpt lat="41.521504232659936" lon="2.337305434048176">
        <ele>400.85</ele>
      </trkpt>
      <trkpt lat="41.52125420048833" lon="2.33735547401011">
        <ele>402.2</ele>
      </trkpt>
      <trkpt lat="41.52100324630737" lon="2.3374056816101074">
        <ele>403.46</ele>
      </trkpt>
      <trkpt lat="41.521003330126405" lon="2.3374056816101074">
        <ele>404.6</ele>
      </trkpt>
      <trkpt lat="41.52077819220722" lon="2.3375128023326397">
        <ele>405.82</ele>
      </trkpt>
      <trkpt lat="41.52055263519287" lon="2.337620258331299">
        <ele>406.9</ele>
      </trkpt>
      <trkpt lat="41.520306123420596" lon="2.3376951925456524">
        <ele>407.83</ele>
      </trkpt>
      <trkpt lat="41.52005910873413" lon="2.337770462036133">
        <ele>408.71</ele>
      </trkpt>
      <trkpt lat="41.51975870132446" lon="2.337791919708252">
        <ele>409.57</ele>
      </trkpt>
      <trkpt lat="41.519458293914795" lon="2.337770462036133">
        <ele>410.42</ele>
      </trkpt>
      <trkpt lat="41.51925469748676" lon="2.3377060890197754">
        <ele>411.24</ele>
      </trkpt>
      <trkpt lat="41.51905059814453" lon="2.337641716003418">
        <ele>411.96</ele>
      </trkpt>
      <trkpt lat="41.51905068196356" lon="2.337641716003418">
        <ele>412.75</ele>
      </trkpt>
      <trkpt lat="41.51883635669947" lon="2.3376845475286245">
        <ele>413.7</ele>
      </trkpt>
      <trkpt lat="41.51862144470215" lon="2.3377275466918945">
        <ele>414.78</ele>
      </trkpt>
      <trkpt lat="41.51838541030884" lon="2.3375773429870605">
        <ele>416.07</ele>
      </trkpt>
      <trkpt lat="41.51824585162103" lon="2.3373733274638653">
        <ele>417.03</ele>
      </trkpt>
      <trkpt lat="41.51810646057129" lon="2.337169647216797">
        <ele>417.89</ele>
      </trkpt>
      <trkpt lat="41.51801576837897" lon="2.3368218820542097">
        <ele>418.4</ele>
      </trkpt>
    </trkseg>
  </trk>
</gpx>
