<?xml version="1.0" encoding="UTF-8"?>
<gpx creator="Garmin Connect" version="1.1"
  xsi:schemaLocation="http://www.topografix.com/GPX/1/1 http://www.topografix.com/GPX/11.xsd"
  xmlns:ns3="http://www.garmin.com/xmlschemas/TrackPointExtension/v1"
  xmlns="http://www.topografix.com/GPX/1/1"
  xmlns:xsi="http://www.w3.org/2001/XMLSchema-instance" xmlns:ns2="http://www.garmin.com/xmlschemas/GpxExtensions/v3">
  <metadata>
    <name>GR92 Etappi 14: Hortsavinyà -&gt; Vallgorguina</name>
    <link href="connect.garmin.com">
      <text>Garmin Connect</text>
    </link>
    <time>2026-04-15T06:03:31.000Z</time>
  </metadata>
  <trk>
    <name>GR92 Etappi 14: Hortsavinyà -&gt; Vallgorguina</name>
    <trkseg>
      <trkpt lat="41.66405148804188" lon="2.61464886367321">
        <ele>525.3</ele>
      </trkpt>
      <trkpt lat="41.664018630981445" lon="2.6146817207336426">
        <ele>525.67</ele>
      </trkpt>
      <trkpt lat="41.66388988494873" lon="2.614595890045166">
        <ele>526.18</ele>
      </trkpt>
      <trkpt lat="41.663782596588135" lon="2.6144027709960938">
        <ele>526.79</ele>
      </trkpt>
      <trkpt lat="41.66371822357178" lon="2.6140379905700684">
        <ele>527.22</ele>
      </trkpt>
      <trkpt lat="41.66369668208063" lon="2.6138120982795954">
        <ele>527.55</ele>
      </trkpt>
      <trkpt lat="41.66367530822754" lon="2.6135873794555664">
        <ele>527.83</ele>
      </trkpt>
      <trkpt lat="41.66356801986694" lon="2.6132869720458984">
        <ele>528.88</ele>
      </trkpt>
      <trkpt lat="41.663568103685975" lon="2.6132869720458984">
        <ele>529.45</ele>
      </trkpt>
      <trkpt lat="41.663503646850586" lon="2.6131153106689453">
        <ele>530.26</ele>
      </trkpt>
      <trkpt lat="41.663525104522705" lon="2.6129651069641113">
        <ele>530.46</ele>
      </trkpt>
      <trkpt lat="41.663600290194154" lon="2.6127393823117018">
        <ele>529.84</ele>
      </trkpt>
      <trkpt lat="41.66367530822754" lon="2.6125144958496094">
        <ele>528.95</ele>
      </trkpt>
      <trkpt lat="41.66367530822754" lon="2.6124072074890137">
        <ele>528.45</ele>
      </trkpt>
      <trkpt lat="41.66365385055542" lon="2.612321376800537">
        <ele>528.2</ele>
      </trkpt>
      <trkpt lat="41.66350347921252" lon="2.6121066324412823">
        <ele>529.27</ele>
      </trkpt>
      <trkpt lat="41.66335344314575" lon="2.6118922233581543">
        <ele>530.97</ele>
      </trkpt>
      <trkpt lat="41.66333198547363" lon="2.611720561981201">
        <ele>532.14</ele>
      </trkpt>
      <trkpt lat="41.66341781616211" lon="2.6114630699157715">
        <ele>532.37</ele>
      </trkpt>
      <trkpt lat="41.66358947753906" lon="2.6111197471618652">
        <ele>531.47</ele>
      </trkpt>
      <trkpt lat="41.66361093521118" lon="2.6109695434570312">
        <ele>531.1</ele>
      </trkpt>
      <trkpt lat="41.66361093521118" lon="2.6108837127685547">
        <ele>530.9</ele>
      </trkpt>
      <trkpt lat="41.66347146034241" lon="2.6107656955718994">
        <ele>531.62</ele>
      </trkpt>
      <trkpt lat="41.66333198547363" lon="2.610647678375244">
        <ele>532.66</ele>
      </trkpt>
      <trkpt lat="41.66320323944092" lon="2.61049747467041">
        <ele>533.66</ele>
      </trkpt>
      <trkpt lat="41.66318278759718" lon="2.610384989529848">
        <ele>534.21</ele>
      </trkpt>
      <trkpt lat="41.66316032409668" lon="2.6102614402770996">
        <ele>534.66</ele>
      </trkpt>
      <trkpt lat="41.66320323944092" lon="2.609982490539551">
        <ele>534.38</ele>
      </trkpt>
      <trkpt lat="41.66320323944092" lon="2.609875202178955">
        <ele>534.55</ele>
      </trkpt>
      <trkpt lat="41.66313886642456" lon="2.6097464561462402">
        <ele>534.95</ele>
      </trkpt>
      <trkpt lat="41.66293158195913" lon="2.6096392516046762">
        <ele>535.93</ele>
      </trkpt>
      <trkpt lat="41.66272438131273" lon="2.6095320470631123">
        <ele>536.98</ele>
      </trkpt>
      <trkpt lat="41.662516593933105" lon="2.609424591064453">
        <ele>538.05</ele>
      </trkpt>
      <trkpt lat="41.662345100194216" lon="2.6093709468841553">
        <ele>539.45</ele>
      </trkpt>
      <trkpt lat="41.6621732711792" lon="2.6093173027038574">
        <ele>541.19</ele>
      </trkpt>
      <trkpt lat="41.66208744049072" lon="2.609231472015381">
        <ele>542.73</ele>
      </trkpt>
      <trkpt lat="41.662001609802246" lon="2.6090383529663086">
        <ele>544.06</ele>
      </trkpt>
      <trkpt lat="41.66198015213013" lon="2.6089096069335938">
        <ele>545.08</ele>
      </trkpt>
      <trkpt lat="41.662044525146484" lon="2.608652114868164">
        <ele>545.72</ele>
      </trkpt>
      <trkpt lat="41.662001609802246" lon="2.608458995819092">
        <ele>546.79</ele>
      </trkpt>
      <trkpt lat="41.66214116849005" lon="2.6081904396414757">
        <ele>546.89</ele>
      </trkpt>
      <trkpt lat="41.662280559539795" lon="2.6079225540161133">
        <ele>547.01</ele>
      </trkpt>
      <trkpt lat="41.66232347488403" lon="2.6075363159179688">
        <ele>547.36</ele>
      </trkpt>
      <trkpt lat="41.66243076324463" lon="2.6071715354919434">
        <ele>547.23</ele>
      </trkpt>
      <trkpt lat="41.66240930557251" lon="2.6069998741149902">
        <ele>547.44</ele>
      </trkpt>
      <trkpt lat="41.66234493255615" lon="2.606935501098633">
        <ele>547.79</ele>
      </trkpt>
      <trkpt lat="41.66204494424164" lon="2.6069461461156607">
        <ele>548.52</ele>
      </trkpt>
      <trkpt lat="41.661744117736816" lon="2.606956958770752">
        <ele>549.21</ele>
      </trkpt>
      <trkpt lat="41.661508083343506" lon="2.607107162475586">
        <ele>550.57</ele>
      </trkpt>
      <trkpt lat="41.66131521575153" lon="2.607139265164733">
        <ele>551.68</ele>
      </trkpt>
      <trkpt lat="41.66112184524536" lon="2.6071715354919434">
        <ele>552.87</ele>
      </trkpt>
      <trkpt lat="41.66099293157458" lon="2.6069423742592335">
        <ele>553.48</ele>
      </trkpt>
      <trkpt lat="41.66086410172284" lon="2.6067132968455553">
        <ele>554.11</ele>
      </trkpt>
      <trkpt lat="41.66073560714722" lon="2.606484889984131">
        <ele>554.73</ele>
      </trkpt>
      <trkpt lat="41.66055749170482" lon="2.6063321717083454">
        <ele>555.62</ele>
      </trkpt>
      <trkpt lat="41.660421285778284" lon="2.606215411797166">
        <ele>556.53</ele>
      </trkpt>
      <trkpt lat="41.660284996032715" lon="2.6060986518859863">
        <ele>557.43</ele>
      </trkpt>
      <trkpt lat="41.66009170934558" lon="2.605819534510374">
        <ele>558.24</ele>
      </trkpt>
      <trkpt lat="41.65989875793457" lon="2.6055407524108887">
        <ele>559.11</ele>
      </trkpt>
      <trkpt lat="41.65972709655762" lon="2.605412006378174">
        <ele>560.05</ele>
      </trkpt>
      <trkpt lat="41.6597056388855" lon="2.6053690910339355">
        <ele>560.6</ele>
      </trkpt>
      <trkpt lat="41.65972709655762" lon="2.605133056640625">
        <ele>560.89</ele>
      </trkpt>
      <trkpt lat="41.659770011901855" lon="2.6049399375915527">
        <ele>561.13</ele>
      </trkpt>
      <trkpt lat="41.660048961639404" lon="2.6047682762145996">
        <ele>560.78</ele>
      </trkpt>
      <trkpt lat="41.66007041931152" lon="2.604532241821289">
        <ele>560.79</ele>
      </trkpt>
      <trkpt lat="41.660027503967285" lon="2.6041460037231445">
        <ele>560.74</ele>
      </trkpt>
      <trkpt lat="41.65987730026245" lon="2.6039528846740723">
        <ele>560.91</ele>
      </trkpt>
      <trkpt lat="41.65984502993524" lon="2.6036732643842697">
        <ele>560.84</ele>
      </trkpt>
      <trkpt lat="41.659812927246094" lon="2.6033949851989746">
        <ele>560.89</ele>
      </trkpt>
      <trkpt lat="41.65985584259033" lon="2.6032662391662598">
        <ele>560.64</ele>
      </trkpt>
      <trkpt lat="41.65998458862305" lon="2.603094493970275">
        <ele>560.07</ele>
      </trkpt>
      <trkpt lat="41.66011333465576" lon="2.6029229164123535">
        <ele>559.51</ele>
      </trkpt>
      <trkpt lat="41.66027435101569" lon="2.602654444053769">
        <ele>558.98</ele>
      </trkpt>
      <trkpt lat="41.66043519973755" lon="2.602386474609375">
        <ele>558.39</ele>
      </trkpt>
      <trkpt lat="41.66047811508179" lon="2.6022791862487793">
        <ele>557.88</ele>
      </trkpt>
      <trkpt lat="41.660499572753906" lon="2.6021504402160645">
        <ele>557.42</ele>
      </trkpt>
      <trkpt lat="41.660435032099485" lon="2.6018709037452936">
        <ele>557.02</ele>
      </trkpt>
      <trkpt lat="41.66037082672119" lon="2.601592540740967">
        <ele>556.47</ele>
      </trkpt>
      <trkpt lat="41.66034534573555" lon="2.6015416625887156">
        <ele>556.1</ele>
      </trkpt>
      <trkpt lat="41.66034542955458" lon="2.6015416625887156">
        <ele>555.77</ele>
      </trkpt>
      <trkpt lat="41.66032791137695" lon="2.6015067100524902">
        <ele>555.48</ele>
      </trkpt>
      <trkpt lat="41.66007041931152" lon="2.6013565063476562">
        <ele>555.67</ele>
      </trkpt>
      <trkpt lat="41.660006046295166" lon="2.6012063026428223">
        <ele>555.42</ele>
      </trkpt>
      <trkpt lat="41.65998458862305" lon="2.600991725921631">
        <ele>555.06</ele>
      </trkpt>
      <trkpt lat="41.659930776804686" lon="2.6006583776324987">
        <ele>554.75</ele>
      </trkpt>
      <trkpt lat="41.65987730026245" lon="2.6003265380859375">
        <ele>554.52</ele>
      </trkpt>
      <trkpt lat="41.65994167327881" lon="2.599961757659912">
        <ele>554.02</ele>
      </trkpt>
      <trkpt lat="41.65992021560669" lon="2.5998330116271973">
        <ele>553.76</ele>
      </trkpt>
      <trkpt lat="41.659791469573975" lon="2.5995755195617676">
        <ele>553.78</ele>
      </trkpt>
      <trkpt lat="41.659770011901855" lon="2.599318027496338">
        <ele>553.68</ele>
      </trkpt>
      <trkpt lat="41.65987738408148" lon="2.5991354696452618">
        <ele>553.12</ele>
      </trkpt>
      <trkpt lat="41.65998458862305" lon="2.5989532470703125">
        <ele>552.57</ele>
      </trkpt>
      <trkpt lat="41.65998458862305" lon="2.598738670349121">
        <ele>552.38</ele>
      </trkpt>
      <trkpt lat="41.660027503967285" lon="2.5986313819885254">
        <ele>551.89</ele>
      </trkpt>
      <trkpt lat="41.66015625" lon="2.598395347595215">
        <ele>551.26</ele>
      </trkpt>
      <trkpt lat="41.660284996032715" lon="2.598245143890381">
        <ele>550.49</ele>
      </trkpt>
      <trkpt lat="41.660542488098145" lon="2.5982236862182617">
        <ele>549.25</ele>
      </trkpt>
      <trkpt lat="41.66064977645874" lon="2.598395347595215">
        <ele>547.88</ele>
      </trkpt>
      <trkpt lat="41.660757064819336" lon="2.598438262939453">
        <ele>546.7</ele>
      </trkpt>
      <trkpt lat="41.66082143783569" lon="2.5983309745788574">
        <ele>545.78</ele>
      </trkpt>
      <trkpt lat="41.66090726852417" lon="2.598116397857666">
        <ele>545.03</ele>
      </trkpt>
      <trkpt lat="41.66097164154053" lon="2.5980305671691895">
        <ele>543.99</ele>
      </trkpt>
      <trkpt lat="41.661250591278076" lon="2.597987651824951">
        <ele>542.54</ele>
      </trkpt>
      <trkpt lat="41.66137933731079" lon="2.5977730751037598">
        <ele>541.51</ele>
      </trkpt>
      <trkpt lat="41.66152937337756" lon="2.597665786743164">
        <ele>540.15</ele>
      </trkpt>
      <trkpt lat="41.66167974472046" lon="2.5975584983825684">
        <ele>538.64</ele>
      </trkpt>
      <trkpt lat="41.661787033081055" lon="2.597365379333496">
        <ele>537.23</ele>
      </trkpt>
      <trkpt lat="41.661744117736816" lon="2.5969791412353516">
        <ele>536.21</ele>
      </trkpt>
      <trkpt lat="41.661797845736146" lon="2.596731875091791">
        <ele>534.9</ele>
      </trkpt>
      <trkpt lat="41.66185140609741" lon="2.5964856147766113">
        <ele>533.54</ele>
      </trkpt>
      <trkpt lat="41.66200236417353" lon="2.5962590519338846">
        <ele>531.82</ele>
      </trkpt>
      <trkpt lat="41.66215323843062" lon="2.5960329081863165">
        <ele>530.09</ele>
      </trkpt>
      <trkpt lat="41.66234577074647" lon="2.5957440678030252">
        <ele>528.42</ele>
      </trkpt>
      <trkpt lat="41.662538051605225" lon="2.5954556465148926">
        <ele>526.83</ele>
      </trkpt>
      <trkpt lat="41.662752628326416" lon="2.59552001953125">
        <ele>524.66</ele>
      </trkpt>
      <trkpt lat="41.66290283203125" lon="2.5954771041870117">
        <ele>522.75</ele>
      </trkpt>
      <trkpt lat="41.66299947537482" lon="2.595305275171995">
        <ele>521.13</ele>
      </trkpt>
      <trkpt lat="41.66309595108032" lon="2.5951337814331055">
        <ele>519.52</ele>
      </trkpt>
      <trkpt lat="41.66322469711304" lon="2.5950050354003906">
        <ele>517.73</ele>
      </trkpt>
      <trkpt lat="41.66341781616211" lon="2.5949621200561523">
        <ele>515.68</ele>
      </trkpt>
      <trkpt lat="41.66365385055542" lon="2.5950050354003906">
        <ele>513.66</ele>
      </trkpt>
      <trkpt lat="41.66384680196643" lon="2.5951444264501333">
        <ele>511.44</ele>
      </trkpt>
      <trkpt lat="41.664040088653564" lon="2.5952839851379395">
        <ele>509.22</ele>
      </trkpt>
      <trkpt lat="41.66428651660681" lon="2.5953911058604717">
        <ele>507.2</ele>
      </trkpt>
      <trkpt lat="41.664533615112305" lon="2.595498561859131">
        <ele>505.23</ele>
      </trkpt>
      <trkpt lat="41.664533698931336" lon="2.595498561859131">
        <ele>503.41</ele>
      </trkpt>
      <trkpt lat="41.66459798812866" lon="2.5954556465148926">
        <ele>501.61</ele>
      </trkpt>
      <trkpt lat="41.6646409034729" lon="2.595369815826416">
        <ele>499.81</ele>
      </trkpt>
      <trkpt lat="41.66468381881714" lon="2.5951337814331055">
        <ele>497.98</ele>
      </trkpt>
      <trkpt lat="41.66461944580078" lon="2.594876289367676">
        <ele>496.44</ele>
      </trkpt>
      <trkpt lat="41.664490699768066" lon="2.594618797302246">
        <ele>495.13</ele>
      </trkpt>
      <trkpt lat="41.66446924209595" lon="2.5943398475646973">
        <ele>493.52</ele>
      </trkpt>
      <trkpt lat="41.664512157440186" lon="2.5940823554992676">
        <ele>491.54</ele>
      </trkpt>
      <trkpt lat="41.66462170891464" lon="2.5938267074525356">
        <ele>489.1</ele>
      </trkpt>
      <trkpt lat="41.6646409034729" lon="2.5937819480895996">
        <ele>487.4</ele>
      </trkpt>
      <trkpt lat="41.664458429440856" lon="2.5935672875493765">
        <ele>486.13</ele>
      </trkpt>
      <trkpt lat="41.664276123046875" lon="2.593352794647217">
        <ele>484.54</ele>
      </trkpt>
      <trkpt lat="41.6641902923584" lon="2.5932884216308594">
        <ele>483.17</ele>
      </trkpt>
      <trkpt lat="41.664018630981445" lon="2.593245506286621">
        <ele>481.98</ele>
      </trkpt>
      <trkpt lat="41.663793325424194" lon="2.5930416584014893">
        <ele>480.7</ele>
      </trkpt>
      <trkpt lat="41.66356801986694" lon="2.5928378105163574">
        <ele>479.63</ele>
      </trkpt>
      <trkpt lat="41.663546562194824" lon="2.5927305221557617">
        <ele>478.43</ele>
      </trkpt>
      <trkpt lat="41.66361093521118" lon="2.5926876068115234">
        <ele>477.16</ele>
      </trkpt>
      <trkpt lat="41.66384696960449" lon="2.5925803184509277">
        <ele>475.66</ele>
      </trkpt>
      <trkpt lat="41.66388988494873" lon="2.5925159454345703">
        <ele>474.54</ele>
      </trkpt>
      <trkpt lat="41.66386842727661" lon="2.592451572418213">
        <ele>473.63</ele>
      </trkpt>
      <trkpt lat="41.66365385055542" lon="2.592194080352783">
        <ele>473.24</ele>
      </trkpt>
      <trkpt lat="41.66369676589966" lon="2.5920867919921875">
        <ele>472.51</ele>
      </trkpt>
      <trkpt lat="41.663761138916016" lon="2.5920653343200684">
        <ele>471.66</ele>
      </trkpt>
      <trkpt lat="41.664039669558406" lon="2.5921188946813345">
        <ele>470.48</ele>
      </trkpt>
      <trkpt lat="41.66431903839111" lon="2.592172622680664">
        <ele>469.42</ele>
      </trkpt>
      <trkpt lat="41.66457653045654" lon="2.5920867919921875">
        <ele>468.85</ele>
      </trkpt>
      <trkpt lat="41.66483402252197" lon="2.592194080352783">
        <ele>468.01</ele>
      </trkpt>
      <trkpt lat="41.66507005691528" lon="2.5921082496643066">
        <ele>467.76</ele>
      </trkpt>
      <trkpt lat="41.665241718292236" lon="2.5921082496643066">
        <ele>467.39</ele>
      </trkpt>
      <trkpt lat="41.665284633636475" lon="2.5920867919921875">
        <ele>467.31</ele>
      </trkpt>
      <trkpt lat="41.665284717455506" lon="2.5917863845825195">
        <ele>467.77</ele>
      </trkpt>
      <trkpt lat="41.665284633636475" lon="2.5914959516376257">
        <ele>468.2</ele>
      </trkpt>
      <trkpt lat="41.665284633636475" lon="2.5912070274353027">
        <ele>468.67</ele>
      </trkpt>
      <trkpt lat="41.66526325978339" lon="2.590970993041992">
        <ele>469.21</ele>
      </trkpt>
      <trkpt lat="41.66521707549691" lon="2.5907116569578648">
        <ele>469.85</ele>
      </trkpt>
      <trkpt lat="41.66517114266753" lon="2.5904534943401814">
        <ele>470.58</ele>
      </trkpt>
      <trkpt lat="41.665131160989404" lon="2.590228943154216">
        <ele>471.43</ele>
      </trkpt>
      <trkpt lat="41.6650915145874" lon="2.590005397796631">
        <ele>472.31</ele>
      </trkpt>
      <trkpt lat="41.66489839553833" lon="2.589747905731201">
        <ele>473.46</ele>
      </trkpt>
      <trkpt lat="41.66466244496405" lon="2.58956559933722">
        <ele>474.85</ele>
      </trkpt>
      <trkpt lat="41.66442632675171" lon="2.589383125305176">
        <ele>476.39</ele>
      </trkpt>
      <trkpt lat="41.66442632675171" lon="2.58927583694458">
        <ele>477.44</ele>
      </trkpt>
      <trkpt lat="41.664512157440186" lon="2.5891900062561035">
        <ele>478.25</ele>
      </trkpt>
      <trkpt lat="41.66476939804852" lon="2.5890398863703012">
        <ele>478.79</ele>
      </trkpt>
      <trkpt lat="41.665027141571045" lon="2.5888895988464355">
        <ele>479.39</ele>
      </trkpt>
      <trkpt lat="41.66511297225952" lon="2.5887608528137207">
        <ele>480.29</ele>
      </trkpt>
      <trkpt lat="41.66509143076837" lon="2.5883736927062273">
        <ele>481.48</ele>
      </trkpt>
      <trkpt lat="41.66507005691528" lon="2.5879883766174316">
        <ele>482.48</ele>
      </trkpt>
      <trkpt lat="41.665027141571045" lon="2.587902545928955">
        <ele>483.29</ele>
      </trkpt>
      <trkpt lat="41.66481256484985" lon="2.5876665115356445">
        <ele>484.4</ele>
      </trkpt>
      <trkpt lat="41.664769649505615" lon="2.587580680847168">
        <ele>484.99</ele>
      </trkpt>
      <trkpt lat="41.66481256484985" lon="2.5874948501586914">
        <ele>485.3</ele>
      </trkpt>
      <trkpt lat="41.665058908984065" lon="2.587484121322632">
        <ele>485.22</ele>
      </trkpt>
      <trkpt lat="41.665306091308594" lon="2.5874733924865723">
        <ele>485.05</ele>
      </trkpt>
      <trkpt lat="41.665520668029785" lon="2.587580680847168">
        <ele>484.68</ele>
      </trkpt>
      <trkpt lat="41.665724348276854" lon="2.58774152956903">
        <ele>484.29</ele>
      </trkpt>
      <trkpt lat="41.66592836380005" lon="2.587902545928955">
        <ele>483.86</ele>
      </trkpt>
      <trkpt lat="41.66614260524511" lon="2.587966835126281">
        <ele>483.49</ele>
      </trkpt>
      <trkpt lat="41.66635693050921" lon="2.5880311243236065">
        <ele>482.89</ele>
      </trkpt>
      <trkpt lat="41.66657209396362" lon="2.5880956649780273">
        <ele>482.31</ele>
      </trkpt>
      <trkpt lat="41.66667938232422" lon="2.5880956649780273">
        <ele>481.66</ele>
      </trkpt>
      <trkpt lat="41.666765213012695" lon="2.5879454612731934">
        <ele>480.93</ele>
      </trkpt>
      <trkpt lat="41.666786670684814" lon="2.587752342224121">
        <ele>480.05</ele>
      </trkpt>
      <trkpt lat="41.666743755340576" lon="2.587580680847168">
        <ele>479.23</ele>
      </trkpt>
      <trkpt lat="41.66691541671753" lon="2.5873446464538574">
        <ele>477.76</ele>
      </trkpt>
      <trkpt lat="41.66715145111084" lon="2.587130069732666">
        <ele>475.86</ele>
      </trkpt>
      <trkpt lat="41.667237281799316" lon="2.5868940353393555">
        <ele>474.27</ele>
      </trkpt>
      <trkpt lat="41.6672158241272" lon="2.586636543273926">
        <ele>472.96</ele>
      </trkpt>
      <trkpt lat="41.66714055463672" lon="2.586378548294306">
        <ele>471.59</ele>
      </trkpt>
      <trkpt lat="41.66706562042236" lon="2.5861215591430664">
        <ele>470.04</ele>
      </trkpt>
      <trkpt lat="41.667065704241395" lon="2.5861215591430664">
        <ele>468.62</ele>
      </trkpt>
      <trkpt lat="41.667001163586974" lon="2.5858850218355656">
        <ele>467.08</ele>
      </trkpt>
      <trkpt lat="41.66693687438965" lon="2.5856494903564453">
        <ele>465.79</ele>
      </trkpt>
      <trkpt lat="41.66693687438965" lon="2.58528470993042">
        <ele>463.85</ele>
      </trkpt>
      <trkpt lat="41.66689395904541" lon="2.585155963897705">
        <ele>462.45</ele>
      </trkpt>
      <trkpt lat="41.66678650304675" lon="2.584951864555478">
        <ele>461.15</ele>
      </trkpt>
      <trkpt lat="41.66667938232422" lon="2.5847482681274414">
        <ele>459.81</ele>
      </trkpt>
      <trkpt lat="41.66648609563708" lon="2.584469150751829">
        <ele>458.77</ele>
      </trkpt>
      <trkpt lat="41.66629289276898" lon="2.584190033376217">
        <ele>457.84</ele>
      </trkpt>
      <trkpt lat="41.666100025177" lon="2.583911418914795">
        <ele>457.38</ele>
      </trkpt>
      <trkpt lat="41.666100025177" lon="2.5838255882263184">
        <ele>456.49</ele>
      </trkpt>
      <trkpt lat="41.66632876731455" lon="2.5836181361228228">
        <ele>455.05</ele>
      </trkpt>
      <trkpt lat="41.666557593271136" lon="2.583410767838359">
        <ele>453.94</ele>
      </trkpt>
      <trkpt lat="41.666786670684814" lon="2.5832033157348633">
        <ele>452.7</ele>
      </trkpt>
      <trkpt lat="41.666786670684814" lon="2.582859992980957">
        <ele>452.33</ele>
      </trkpt>
      <trkpt lat="41.666808128356934" lon="2.582709789276123">
        <ele>451.79</ele>
      </trkpt>
      <trkpt lat="41.66687250137329" lon="2.582581043243408">
        <ele>451.17</ele>
      </trkpt>
      <trkpt lat="41.66706562042236" lon="2.5822806358337402">
        <ele>450.66</ele>
      </trkpt>
      <trkpt lat="41.66717299260199" lon="2.5820549950003624">
        <ele>450.36</ele>
      </trkpt>
      <trkpt lat="41.667280197143555" lon="2.5818300247192383">
        <ele>450.11</ele>
      </trkpt>
      <trkpt lat="41.66743040084839" lon="2.581615447998047">
        <ele>449.92</ele>
      </trkpt>
      <trkpt lat="41.667623268440366" lon="2.581508243456483">
        <ele>449.55</ele>
      </trkpt>
      <trkpt lat="41.66781663894653" lon="2.5814008712768555">
        <ele>449.26</ele>
      </trkpt>
      <trkpt lat="41.66784522123635" lon="2.581353262066841">
        <ele>449.14</ele>
      </trkpt>
      <trkpt lat="41.66788101196289" lon="2.5812935829162598">
        <ele>449.07</ele>
      </trkpt>
      <trkpt lat="41.66792392730713" lon="2.581164836883545">
        <ele>449.08</ele>
      </trkpt>
      <trkpt lat="41.66790246963501" lon="2.581014633178711">
        <ele>449.1</ele>
      </trkpt>
      <trkpt lat="41.66781663894653" lon="2.5808215141296387">
        <ele>449.19</ele>
      </trkpt>
      <trkpt lat="41.6676664352417" lon="2.5806283950805664">
        <ele>449.2</ele>
      </trkpt>
      <trkpt lat="41.667480524629354" lon="2.5804710667580366">
        <ele>449.3</ele>
      </trkpt>
      <trkpt lat="41.66729461401701" lon="2.580313738435507">
        <ele>449.35</ele>
      </trkpt>
      <trkpt lat="41.6671085357666" lon="2.5801563262939453">
        <ele>449.45</ele>
      </trkpt>
      <trkpt lat="41.66692622937262" lon="2.5800491217523813">
        <ele>449.67</ele>
      </trkpt>
      <trkpt lat="41.666743755340576" lon="2.579941749572754">
        <ele>449.98</ele>
      </trkpt>
      <trkpt lat="41.6666579246521" lon="2.579641342163086">
        <ele>449.99</ele>
      </trkpt>
      <trkpt lat="41.666529178619385" lon="2.579491138458252">
        <ele>450.28</ele>
      </trkpt>
      <trkpt lat="41.66637905873358" lon="2.5794053077697754">
        <ele>450.74</ele>
      </trkpt>
      <trkpt lat="41.66622877120972" lon="2.579319477081299">
        <ele>451.22</ele>
      </trkpt>
      <trkpt lat="41.66618585586548" lon="2.5792336463928223">
        <ele>451.38</ele>
      </trkpt>
      <trkpt lat="41.6662073135376" lon="2.5791263580322266">
        <ele>451.42</ele>
      </trkpt>
      <trkpt lat="41.666293144226074" lon="2.579019069671631">
        <ele>451.32</ele>
      </trkpt>
      <trkpt lat="41.66637897491455" lon="2.5789546966552734">
        <ele>451.22</ele>
      </trkpt>
      <trkpt lat="41.6666579246521" lon="2.5789332389831543">
        <ele>450.67</ele>
      </trkpt>
      <trkpt lat="41.66688666678965" lon="2.5787329953163862">
        <ele>450.4</ele>
      </trkpt>
      <trkpt lat="41.667115492746234" lon="2.578532751649618">
        <ele>450.24</ele>
      </trkpt>
      <trkpt lat="41.66734457015991" lon="2.5783324241638184">
        <ele>449.84</ele>
      </trkpt>
      <trkpt lat="41.66738748550415" lon="2.5782036781311035">
        <ele>449.59</ele>
      </trkpt>
      <trkpt lat="41.667301654815674" lon="2.5780534744262695">
        <ele>449.72</ele>
      </trkpt>
      <trkpt lat="41.66717282496393" lon="2.5778817292302847">
        <ele>449.99</ele>
      </trkpt>
      <trkpt lat="41.667044162750244" lon="2.5777101516723633">
        <ele>450.24</ele>
      </trkpt>
      <trkpt lat="41.667044246569276" lon="2.5777101516723633">
        <ele>450.23</ele>
      </trkpt>
      <trkpt lat="41.66685104370117" lon="2.577388286590576">
        <ele>450.61</ele>
      </trkpt>
      <trkpt lat="41.66685146279633" lon="2.5773823354393244">
        <ele>450.62</ele>
      </trkpt>
      <trkpt lat="41.666879961267114" lon="2.5770115200430155">
        <ele>450.36</ele>
      </trkpt>
      <trkpt lat="41.6669084597379" lon="2.5766407046467066">
        <ele>450.17</ele>
      </trkpt>
      <trkpt lat="41.66693687438965" lon="2.576272487640381">
        <ele>449.96</ele>
      </trkpt>
      <trkpt lat="41.6668186057359" lon="2.575960848480463">
        <ele>450.22</ele>
      </trkpt>
      <trkpt lat="41.66670083999634" lon="2.575650215148926">
        <ele>450.46</ele>
      </trkpt>
      <trkpt lat="41.66669002734125" lon="2.575316783040762">
        <ele>450.44</ele>
      </trkpt>
      <trkpt lat="41.66667938232422" lon="2.5749850273132324">
        <ele>450.37</ele>
      </trkpt>
      <trkpt lat="41.66651819832623" lon="2.5746734719723463">
        <ele>450.7</ele>
      </trkpt>
      <trkpt lat="41.66635751724243" lon="2.5743627548217773">
        <ele>450.85</ele>
      </trkpt>
      <trkpt lat="41.666314685717225" lon="2.5742125511169434">
        <ele>450.99</ele>
      </trkpt>
      <trkpt lat="41.66631460189819" lon="2.5742125511169434">
        <ele>451.18</ele>
      </trkpt>
      <trkpt lat="41.666314685717225" lon="2.5742125511169434">
        <ele>450.99</ele>
      </trkpt>
      <trkpt lat="41.666217874735594" lon="2.5739115569740534">
        <ele>451.67</ele>
      </trkpt>
      <trkpt lat="41.66612148284912" lon="2.5736117362976074">
        <ele>452.08</ele>
      </trkpt>
      <trkpt lat="41.665992736816406" lon="2.573268413543701">
        <ele>452.65</ele>
      </trkpt>
      <trkpt lat="41.66599282063544" lon="2.573268413543701">
        <ele>452.85</ele>
      </trkpt>
      <trkpt lat="41.666014194488525" lon="2.5731825828552246">
        <ele>453.12</ele>
      </trkpt>
      <trkpt lat="41.666057109832764" lon="2.5731396675109863">
        <ele>453.27</ele>
      </trkpt>
      <trkpt lat="41.666250228881836" lon="2.5730538368225098">
        <ele>453.39</ele>
      </trkpt>
      <trkpt lat="41.666550636291504" lon="2.5730323791503906">
        <ele>453.42</ele>
      </trkpt>
      <trkpt lat="41.666743755340576" lon="2.573118209838867">
        <ele>453.23</ele>
      </trkpt>
      <trkpt lat="41.66687250137329" lon="2.5729894638061523">
        <ele>453.68</ele>
      </trkpt>
      <trkpt lat="41.66697978973389" lon="2.573096752166748">
        <ele>453.63</ele>
      </trkpt>
      <trkpt lat="41.66708707809448" lon="2.5733542442321777">
        <ele>453.43</ele>
      </trkpt>
      <trkpt lat="41.66725857183337" lon="2.573482906445861">
        <ele>453.57</ele>
      </trkpt>
      <trkpt lat="41.66743040084839" lon="2.5736117362976074">
        <ele>453.76</ele>
      </trkpt>
      <trkpt lat="41.66760206222534" lon="2.5735902786254883">
        <ele>454.34</ele>
      </trkpt>
      <trkpt lat="41.6677594743669" lon="2.57340420037508">
        <ele>455.39</ele>
      </trkpt>
      <trkpt lat="41.667916886508465" lon="2.5732182059437037">
        <ele>456.39</ele>
      </trkpt>
      <trkpt lat="41.668074214830995" lon="2.5730323791503906">
        <ele>457.25</ele>
      </trkpt>
      <trkpt lat="41.66820287704468" lon="2.573096752166748">
        <ele>457.51</ele>
      </trkpt>
      <trkpt lat="41.668288707733154" lon="2.5734615325927734">
        <ele>457.17</ele>
      </trkpt>
      <trkpt lat="41.66837453842163" lon="2.573568820953369">
        <ele>457.51</ele>
      </trkpt>
      <trkpt lat="41.668524742126465" lon="2.5735902786254883">
        <ele>458.08</ele>
      </trkpt>
      <trkpt lat="41.668825233355165" lon="2.573525905609131">
        <ele>458.86</ele>
      </trkpt>
      <trkpt lat="41.669114492833614" lon="2.573445523157716">
        <ele>459.66</ele>
      </trkpt>
      <trkpt lat="41.669403752312064" lon="2.5733651407063007">
        <ele>460.53</ele>
      </trkpt>
      <trkpt lat="41.669693011790514" lon="2.5732847582548857">
        <ele>461.5</ele>
      </trkpt>
      <trkpt lat="41.669983863830566" lon="2.5732040405273438">
        <ele>462.45</ele>
      </trkpt>
      <trkpt lat="41.67018737643957" lon="2.5732683297246695">
        <ele>463.05</ele>
      </trkpt>
      <trkpt lat="41.67039155960083" lon="2.5733327865600586">
        <ele>463.62</ele>
      </trkpt>
      <trkpt lat="41.67060613632202" lon="2.5732040405273438">
        <ele>464.46</ele>
      </trkpt>
      <trkpt lat="41.67067050933838" lon="2.573096752166748">
        <ele>465.43</ele>
      </trkpt>
      <trkpt lat="41.67064905166626" lon="2.5727319717407227">
        <ele>467.08</ele>
      </trkpt>
      <trkpt lat="41.67082062922418" lon="2.572571039199829">
        <ele>468.01</ele>
      </trkpt>
      <trkpt lat="41.670992374420166" lon="2.5724101066589355">
        <ele>469.06</ele>
      </trkpt>
      <trkpt lat="41.671110559254885" lon="2.5721414666622877">
        <ele>470.35</ele>
      </trkpt>
      <trkpt lat="41.67122849263251" lon="2.571873664855957">
        <ele>471.45</ele>
      </trkpt>
      <trkpt lat="41.671292865648866" lon="2.5714874267578125">
        <ele>472.64</ele>
      </trkpt>
      <trkpt lat="41.671292781829834" lon="2.5711969938129187">
        <ele>473.87</ele>
      </trkpt>
      <trkpt lat="41.671292781829834" lon="2.5709080696105957">
        <ele>475.15</ele>
      </trkpt>
      <trkpt lat="41.67135715484619" lon="2.5707364082336426">
        <ele>476.27</ele>
      </trkpt>
      <trkpt lat="41.671550273895264" lon="2.5705647468566895">
        <ele>477.12</ele>
      </trkpt>
      <trkpt lat="41.67174305766821" lon="2.5705432891845703">
        <ele>477.82</ele>
      </trkpt>
      <trkpt lat="41.67193651199341" lon="2.570521831512451">
        <ele>478.61</ele>
      </trkpt>
      <trkpt lat="41.67206525802612" lon="2.5704360008239746">
        <ele>479.59</ele>
      </trkpt>
      <trkpt lat="41.67207598686218" lon="2.570156380534172">
        <ele>480.96</ele>
      </trkpt>
      <trkpt lat="41.67208671569824" lon="2.569878101348877">
        <ele>482.19</ele>
      </trkpt>
      <trkpt lat="41.67206525802612" lon="2.5696206092834473">
        <ele>483.61</ele>
      </trkpt>
      <trkpt lat="41.671925615519285" lon="2.569352053105831">
        <ele>485.35</ele>
      </trkpt>
      <trkpt lat="41.671786308288574" lon="2.5690841674804688">
        <ele>487.06</ele>
      </trkpt>
      <trkpt lat="41.67182922363281" lon="2.568955421447754">
        <ele>488.6</ele>
      </trkpt>
      <trkpt lat="41.672011613845825" lon="2.568740760907531">
        <ele>490.2</ele>
      </trkpt>
      <trkpt lat="41.67219400405884" lon="2.568526268005371">
        <ele>491.85</ele>
      </trkpt>
      <trkpt lat="41.672301292419434" lon="2.5682687759399414">
        <ele>493.62</ele>
      </trkpt>
      <trkpt lat="41.67234420776367" lon="2.5679898262023926">
        <ele>495.27</ele>
      </trkpt>
      <trkpt lat="41.67217254638672" lon="2.5683116912841797">
        <ele>497.51</ele>
      </trkpt>
      <trkpt lat="41.671926034614444" lon="2.5683866254985332">
        <ele>499.74</ele>
      </trkpt>
      <trkpt lat="41.67167901992798" lon="2.5684618949890137">
        <ele>501.96</ele>
      </trkpt>
      <trkpt lat="41.671507358551025" lon="2.568526268005371">
        <ele>504.19</ele>
      </trkpt>
      <trkpt lat="41.6714430693537" lon="2.5682902336120605">
        <ele>506.44</ele>
      </trkpt>
      <trkpt lat="41.671507358551025" lon="2.5679898262023926">
        <ele>508.37</ele>
      </trkpt>
      <trkpt lat="41.671507358551025" lon="2.567625045776367">
        <ele>510.13</ele>
      </trkpt>
      <trkpt lat="41.67142152786255" lon="2.567431926727295">
        <ele>512.0</ele>
      </trkpt>
      <trkpt lat="41.67119991034269" lon="2.567303264513612">
        <ele>513.99</ele>
      </trkpt>
      <trkpt lat="41.67097837664187" lon="2.5671746022999287">
        <ele>515.94</ele>
      </trkpt>
      <trkpt lat="41.670756340026855" lon="2.5670456886291504">
        <ele>517.88</ele>
      </trkpt>
      <trkpt lat="41.670724069699645" lon="2.5668306089937687">
        <ele>519.35</ele>
      </trkpt>
      <trkpt lat="41.6706919670105" lon="2.5666165351867676">
        <ele>520.8</ele>
      </trkpt>
      <trkpt lat="41.67055240832269" lon="2.566434061154723">
        <ele>522.41</ele>
      </trkpt>
      <trkpt lat="41.67041301727295" lon="2.566251754760742">
        <ele>523.87</ele>
      </trkpt>
      <trkpt lat="41.67016273364425" lon="2.5660443864762783">
        <ele>525.3</ele>
      </trkpt>
      <trkpt lat="41.66991253383458" lon="2.5658370181918144">
        <ele>526.37</ele>
      </trkpt>
      <trkpt lat="41.66966199874878" lon="2.565629482269287">
        <ele>527.19</ele>
      </trkpt>
      <trkpt lat="41.669769287109375" lon="2.565457820892334">
        <ele>527.61</ele>
      </trkpt>
      <trkpt lat="41.669940864667296" lon="2.5653076171875">
        <ele>528.03</ele>
      </trkpt>
      <trkpt lat="41.67011260986328" lon="2.565157413482666">
        <ele>528.32</ele>
      </trkpt>
      <trkpt lat="41.67023062705994" lon="2.5650071259588003">
        <ele>528.52</ele>
      </trkpt>
      <trkpt lat="41.67034864425659" lon="2.564857006072998">
        <ele>528.57</ele>
      </trkpt>
      <trkpt lat="41.67047739028931" lon="2.5646424293518066">
        <ele>528.49</ele>
      </trkpt>
      <trkpt lat="41.670541763305664" lon="2.5644278526306152">
        <ele>528.34</ele>
      </trkpt>
      <trkpt lat="41.67034864425659" lon="2.5645995140075684">
        <ele>528.15</ele>
      </trkpt>
      <trkpt lat="41.670241355895996" lon="2.5646424293518066">
        <ele>527.86</ele>
      </trkpt>
      <trkpt lat="41.66994094848633" lon="2.564663887023926">
        <ele>527.4</ele>
      </trkpt>
      <trkpt lat="41.66987657546997" lon="2.564706802368164">
        <ele>527.17</ele>
      </trkpt>
      <trkpt lat="41.66979057714343" lon="2.5649001728743315">
        <ele>527.09</ele>
      </trkpt>
      <trkpt lat="41.66970491409302" lon="2.5650930404663086">
        <ele>526.98</ele>
      </trkpt>
      <trkpt lat="41.6695761680603" lon="2.565178871154785">
        <ele>526.78</ele>
      </trkpt>
      <trkpt lat="41.66946887969971" lon="2.565157413482666">
        <ele>526.54</ele>
      </trkpt>
      <trkpt lat="41.66929705068469" lon="2.5648889411240816">
        <ele>526.06</ele>
      </trkpt>
      <trkpt lat="41.6691255569458" lon="2.5646209716796875">
        <ele>525.5</ele>
      </trkpt>
      <trkpt lat="41.66906118392944" lon="2.56455659866333">
        <ele>525.24</ele>
      </trkpt>
      <trkpt lat="41.66893243789673" lon="2.564513683319092">
        <ele>525.16</ele>
      </trkpt>
      <trkpt lat="41.66869070380926" lon="2.564548132941127">
        <ele>525.31</ele>
      </trkpt>
      <trkpt lat="41.66844838298857" lon="2.564582834020257">
        <ele>525.44</ele>
      </trkpt>
      <trkpt lat="41.66818141937256" lon="2.5646209716796875">
        <ele>525.65</ele>
      </trkpt>
      <trkpt lat="41.66794538497925" lon="2.564578056335449">
        <ele>525.95</ele>
      </trkpt>
      <trkpt lat="41.66770960204303" lon="2.564610159024596">
        <ele>526.48</ele>
      </trkpt>
      <trkpt lat="41.66747331619263" lon="2.5646424293518066">
        <ele>527.37</ele>
      </trkpt>
      <trkpt lat="41.667494773864746" lon="2.564406394958496">
        <ele>527.47</ele>
      </trkpt>
      <trkpt lat="41.6675591468811" lon="2.564213275909424">
        <ele>527.79</ele>
      </trkpt>
      <trkpt lat="41.66756987571716" lon="2.5639336556196213">
        <ele>528.45</ele>
      </trkpt>
      <trkpt lat="41.66758060455322" lon="2.563655376434326">
        <ele>529.23</ele>
      </trkpt>
      <trkpt lat="41.66754808276892" lon="2.563349101692438">
        <ele>530.22</ele>
      </trkpt>
      <trkpt lat="41.66751556098461" lon="2.56304282695055">
        <ele>531.22</ele>
      </trkpt>
      <trkpt lat="41.66748337447643" lon="2.562738647684455">
        <ele>532.29</ele>
      </trkpt>
      <trkpt lat="41.66748337447643" lon="2.5627387315034866">
        <ele>533.48</ele>
      </trkpt>
      <trkpt lat="41.66745680384338" lon="2.5624883640557528">
        <ele>534.79</ele>
      </trkpt>
      <trkpt lat="41.66743040084839" lon="2.562239170074463">
        <ele>536.2</ele>
      </trkpt>
      <trkpt lat="41.66734457015991" lon="2.5620675086975098">
        <ele>537.71</ele>
      </trkpt>
      <trkpt lat="41.66712303645909" lon="2.5619674287736416">
        <ele>539.63</ele>
      </trkpt>
      <trkpt lat="41.666901502758265" lon="2.561867432668805">
        <ele>541.45</ele>
      </trkpt>
      <trkpt lat="41.66667938232422" lon="2.561767101287842">
        <ele>543.25</ele>
      </trkpt>
      <trkpt lat="41.66642189025879" lon="2.5617027282714844">
        <ele>545.03</ele>
      </trkpt>
      <trkpt lat="41.66622877120972" lon="2.561831474304199">
        <ele>547.28</ele>
      </trkpt>
      <trkpt lat="41.66604621335864" lon="2.5621105916798115">
        <ele>549.82</ele>
      </trkpt>
      <trkpt lat="41.66586399078369" lon="2.562389373779297">
        <ele>552.26</ele>
      </trkpt>
      <trkpt lat="41.66573524475098" lon="2.5625181198120117">
        <ele>554.6</ele>
      </trkpt>
      <trkpt lat="41.66560649871826" lon="2.5624966621398926">
        <ele>556.69</ele>
      </trkpt>
      <trkpt lat="41.66541337966919" lon="2.5623679161071777">
        <ele>558.79</ele>
      </trkpt>
      <trkpt lat="41.6652418859303" lon="2.5623785611242056">
        <ele>561.18</ele>
      </trkpt>
      <trkpt lat="41.66507005691528" lon="2.562389373779297">
        <ele>563.58</ele>
      </trkpt>
      <trkpt lat="41.66498422622681" lon="2.5623679161071777">
        <ele>565.75</ele>
      </trkpt>
      <trkpt lat="41.66486604139209" lon="2.562174629420042">
        <ele>567.62</ele>
      </trkpt>
      <trkpt lat="41.664748191833496" lon="2.561981678009033">
        <ele>569.34</ele>
      </trkpt>
      <trkpt lat="41.66468381881714" lon="2.561938762664795">
        <ele>571.19</ele>
      </trkpt>
      <trkpt lat="41.66457653045654" lon="2.561917304992676">
        <ele>573.09</ele>
      </trkpt>
      <trkpt lat="41.66436220519245" lon="2.5619494076818228">
        <ele>575.13</ele>
      </trkpt>
      <trkpt lat="41.66414737701416" lon="2.561981678009033">
        <ele>577.03</ele>
      </trkpt>
      <trkpt lat="41.66386842727661" lon="2.561938762664795">
        <ele>578.83</ele>
      </trkpt>
      <trkpt lat="41.6636323928833" lon="2.561788558959961">
        <ele>580.63</ele>
      </trkpt>
      <trkpt lat="41.66361101903021" lon="2.5617027282714844">
        <ele>582.07</ele>
      </trkpt>
      <trkpt lat="41.66361093521118" lon="2.5617027282714844">
        <ele>583.39</ele>
      </trkpt>
      <trkpt lat="41.66365385055542" lon="2.5615739822387695">
        <ele>584.64</ele>
      </trkpt>
      <trkpt lat="41.66386842727661" lon="2.561466693878174">
        <ele>585.44</ele>
      </trkpt>
      <trkpt lat="41.66393280029297" lon="2.561337947845459">
        <ele>586.44</ele>
      </trkpt>
      <trkpt lat="41.664018630981445" lon="2.561037540435791">
        <ele>587.39</ele>
      </trkpt>
      <trkpt lat="41.664018630981445" lon="2.5606727600097656">
        <ele>588.6</ele>
      </trkpt>
      <trkpt lat="41.664040088653564" lon="2.560586929321289">
        <ele>589.43</ele>
      </trkpt>
      <trkpt lat="41.66421175003052" lon="2.5603079795837402">
        <ele>590.15</ele>
      </trkpt>
      <trkpt lat="41.664329934865236" lon="2.5600177980959415">
        <ele>590.79</ele>
      </trkpt>
      <trkpt lat="41.66444778442383" lon="2.5597286224365234">
        <ele>591.42</ele>
      </trkpt>
      <trkpt lat="41.66453378275037" lon="2.559373816475272">
        <ele>592.17</ele>
      </trkpt>
      <trkpt lat="41.66461944580078" lon="2.559020519256592">
        <ele>592.78</ele>
      </trkpt>
      <trkpt lat="41.66468381881714" lon="2.558891773223877">
        <ele>593.05</ele>
      </trkpt>
      <trkpt lat="41.66483402252197" lon="2.558741569519043">
        <ele>593.05</ele>
      </trkpt>
      <trkpt lat="41.664994955062866" lon="2.5586878415197134">
        <ele>593.03</ele>
      </trkpt>
      <trkpt lat="41.66515639051795" lon="2.558634113520384">
        <ele>593.06</ele>
      </trkpt>
      <trkpt lat="41.66534900665283" lon="2.55856990814209">
        <ele>593.08</ele>
      </trkpt>
      <trkpt lat="41.66552050039172" lon="2.558441162109375">
        <ele>593.11</ele>
      </trkpt>
      <trkpt lat="41.66569232940674" lon="2.55831241607666">
        <ele>593.05</ele>
      </trkpt>
      <trkpt lat="41.66564924642444" lon="2.5580327957868576">
        <ele>593.35</ele>
      </trkpt>
      <trkpt lat="41.66560649871826" lon="2.5577545166015625">
        <ele>593.62</ele>
      </trkpt>
      <trkpt lat="41.66582107543945" lon="2.557539939880371">
        <ele>593.39</ele>
      </trkpt>
      <trkpt lat="41.666014194488525" lon="2.5572609901428223">
        <ele>592.93</ele>
      </trkpt>
      <trkpt lat="41.666035652160645" lon="2.5570034980773926">
        <ele>592.57</ele>
      </trkpt>
      <trkpt lat="41.66588544845581" lon="2.556638717651367">
        <ele>592.2</ele>
      </trkpt>
      <trkpt lat="41.66573524475098" lon="2.5565743446350098">
        <ele>591.79</ele>
      </trkpt>
      <trkpt lat="41.665456630289555" lon="2.556627904996276">
        <ele>591.52</ele>
      </trkpt>
      <trkpt lat="41.66517734527588" lon="2.5566816329956055">
        <ele>591.44</ele>
      </trkpt>
      <trkpt lat="41.66513442993164" lon="2.5566601753234863">
        <ele>590.93</ele>
      </trkpt>
      <trkpt lat="41.66513442993164" lon="2.5565099716186523">
        <ele>590.09</ele>
      </trkpt>
      <trkpt lat="41.66508598253131" lon="2.5561658944934607">
        <ele>589.29</ele>
      </trkpt>
      <trkpt lat="41.66503761895001" lon="2.555821817368269">
        <ele>588.45</ele>
      </trkpt>
      <trkpt lat="41.66498925536871" lon="2.5554777402430773">
        <ele>587.37</ele>
      </trkpt>
      <trkpt lat="41.66494131088257" lon="2.5551366806030273">
        <ele>586.2</ele>
      </trkpt>
      <trkpt lat="41.66491985321045" lon="2.5550293922424316">
        <ele>585.16</ele>
      </trkpt>
      <trkpt lat="41.66481256484985" lon="2.554900646209717">
        <ele>584.05</ele>
      </trkpt>
      <trkpt lat="41.664748191833496" lon="2.5548577308654785">
        <ele>582.99</ele>
      </trkpt>
      <trkpt lat="41.66456605307758" lon="2.5548362731933594">
        <ele>581.93</ele>
      </trkpt>
      <trkpt lat="41.66438341140747" lon="2.5548148155212402">
        <ele>580.79</ele>
      </trkpt>
      <trkpt lat="41.66410446166992" lon="2.5546860694885254">
        <ele>579.26</ele>
      </trkpt>
      <trkpt lat="41.66395425796509" lon="2.5546860694885254">
        <ele>578.03</ele>
      </trkpt>
      <trkpt lat="41.66379952803254" lon="2.5547302421182394">
        <ele>576.93</ele>
      </trkpt>
      <trkpt lat="41.6636445466429" lon="2.554774582386017">
        <ele>575.88</ele>
      </trkpt>
      <trkpt lat="41.663503646850586" lon="2.5548148155212402">
        <ele>574.87</ele>
      </trkpt>
      <trkpt lat="41.6632785089314" lon="2.5549219362437725">
        <ele>574.09</ele>
      </trkpt>
      <trkpt lat="41.663053035736084" lon="2.5550293922424316">
        <ele>573.17</ele>
      </trkpt>
      <trkpt lat="41.66296720504761" lon="2.5550293922424316">
        <ele>572.22</ele>
      </trkpt>
      <trkpt lat="41.66292428970337" lon="2.554943561553955">
        <ele>571.11</ele>
      </trkpt>
      <trkpt lat="41.66292428970337" lon="2.5548148155212402">
        <ele>569.9</ele>
      </trkpt>
      <trkpt lat="41.66298162192106" lon="2.5545137375593185">
        <ele>568.47</ele>
      </trkpt>
      <trkpt lat="41.663038954138756" lon="2.5542127434164286">
        <ele>567.07</ele>
      </trkpt>
      <trkpt lat="41.66309595108032" lon="2.5539135932922363">
        <ele>565.87</ele>
      </trkpt>
      <trkpt lat="41.6631281375885" lon="2.5536769721657038">
        <ele>565.04</ele>
      </trkpt>
      <trkpt lat="41.66316032409668" lon="2.5534415245056152">
        <ele>564.28</ele>
      </trkpt>
      <trkpt lat="41.66326241567731" lon="2.5531459785997868">
        <ele>563.18</ele>
      </trkpt>
      <trkpt lat="41.66336450725794" lon="2.5528504326939583">
        <ele>562.34</ele>
      </trkpt>
      <trkpt lat="41.66346659883857" lon="2.55255488678813">
        <ele>561.58</ele>
      </trkpt>
      <trkpt lat="41.66356801986694" lon="2.5522613525390625">
        <ele>560.82</ele>
      </trkpt>
      <trkpt lat="41.6636323928833" lon="2.5519824028015137">
        <ele>560.24</ele>
      </trkpt>
      <trkpt lat="41.6636323928833" lon="2.5518107414245605">
        <ele>559.9</ele>
      </trkpt>
      <trkpt lat="41.663546562194824" lon="2.5516819953918457">
        <ele>559.94</ele>
      </trkpt>
      <trkpt lat="41.6632750723511" lon="2.5515890400856733">
        <ele>560.49</ele>
      </trkpt>
      <trkpt lat="41.66300358250737" lon="2.5514961685985327">
        <ele>561.02</ele>
      </trkpt>
      <trkpt lat="41.6627311706543" lon="2.551403045654297">
        <ele>561.74</ele>
      </trkpt>
      <trkpt lat="41.66266679763794" lon="2.551295757293701">
        <ele>562.36</ele>
      </trkpt>
      <trkpt lat="41.66266679763794" lon="2.5512099266052246">
        <ele>562.85</ele>
      </trkpt>
      <trkpt lat="41.662849271669984" lon="2.5509307254105806">
        <ele>563.05</ele>
      </trkpt>
      <trkpt lat="41.663031578063965" lon="2.550652027130127">
        <ele>563.47</ele>
      </trkpt>
      <trkpt lat="41.66313895024359" lon="2.5503941159695387">
        <ele>563.95</ele>
      </trkpt>
      <trkpt lat="41.663246154785156" lon="2.5501370429992676">
        <ele>564.41</ele>
      </trkpt>
      <trkpt lat="41.66325319558382" lon="2.5498184468597174">
        <ele>565.16</ele>
      </trkpt>
      <trkpt lat="41.663260320201516" lon="2.549501359462738">
        <ele>565.81</ele>
      </trkpt>
      <trkpt lat="41.663260320201516" lon="2.5495012756437063">
        <ele>566.13</ele>
      </trkpt>
      <trkpt lat="41.663267612457275" lon="2.5491714477539062">
        <ele>566.59</ele>
      </trkpt>
      <trkpt lat="41.66333198547363" lon="2.5489139556884766">
        <ele>566.74</ele>
      </trkpt>
      <trkpt lat="41.66337490081787" lon="2.548828125">
        <ele>566.62</ele>
      </trkpt>
      <trkpt lat="41.66358947753906" lon="2.548677921295166">
        <ele>566.14</ele>
      </trkpt>
      <trkpt lat="41.66367530822754" lon="2.5485706329345703">
        <ele>565.69</ele>
      </trkpt>
      <trkpt lat="41.66369676589966" lon="2.5483340118080378">
        <ele>565.27</ele>
      </trkpt>
      <trkpt lat="41.66371822357178" lon="2.548098564147949">
        <ele>564.67</ele>
      </trkpt>
      <trkpt lat="41.663804054260254" lon="2.5478625297546387">
        <ele>563.64</ele>
      </trkpt>
      <trkpt lat="41.66397571563721" lon="2.547605037689209">
        <ele>562.26</ele>
      </trkpt>
      <trkpt lat="41.66412591934204" lon="2.5474119186401367">
        <ele>560.81</ele>
      </trkpt>
      <trkpt lat="41.664276123046875" lon="2.54732608795166">
        <ele>559.25</ele>
      </trkpt>
      <trkpt lat="41.6644907835871" lon="2.547283172607422">
        <ele>557.53</ele>
      </trkpt>
      <trkpt lat="41.664490699768066" lon="2.547283172607422">
        <ele>555.82</ele>
      </trkpt>
      <trkpt lat="41.66469421237707" lon="2.5472617149353027">
        <ele>553.71</ele>
      </trkpt>
      <trkpt lat="41.66489839553833" lon="2.5472402572631836">
        <ele>551.59</ele>
      </trkpt>
      <trkpt lat="41.66508053429425" lon="2.5472723599523306">
        <ele>549.35</ele>
      </trkpt>
      <trkpt lat="41.665263175964355" lon="2.547304630279541">
        <ele>546.98</ele>
      </trkpt>
      <trkpt lat="41.66534900665283" lon="2.5472617149353027">
        <ele>544.75</ele>
      </trkpt>
      <trkpt lat="41.66545637883246" lon="2.547175884246826">
        <ele>542.43</ele>
      </trkpt>
      <trkpt lat="41.665520668029785" lon="2.5470900535583496">
        <ele>540.07</ele>
      </trkpt>
      <trkpt lat="41.665563667193055" lon="2.546982765197754">
        <ele>537.68</ele>
      </trkpt>
      <trkpt lat="41.665542209520936" lon="2.546854019165039">
        <ele>535.41</ele>
      </trkpt>
      <trkpt lat="41.665440034121275" lon="2.5465584732592106">
        <ele>533.22</ele>
      </trkpt>
      <trkpt lat="41.665337942540646" lon="2.546262927353382">
        <ele>530.99</ele>
      </trkpt>
      <trkpt lat="41.665235850960016" lon="2.5459673814475536">
        <ele>528.6</ele>
      </trkpt>
      <trkpt lat="41.66513442993164" lon="2.5456738471984863">
        <ele>526.02</ele>
      </trkpt>
      <trkpt lat="41.665027141571045" lon="2.545480728149414">
        <ele>523.58</ele>
      </trkpt>
      <trkpt lat="41.66491985321045" lon="2.5453948974609375">
        <ele>521.33</ele>
      </trkpt>
      <trkpt lat="41.664684070274234" lon="2.545362710952759">
        <ele>519.25</ele>
      </trkpt>
      <trkpt lat="41.66444778442383" lon="2.54533052444458">
        <ele>517.18</ele>
      </trkpt>
      <trkpt lat="41.66443403810263" lon="2.5453318655490875">
        <ele>515.33</ele>
      </trkpt>
      <trkpt lat="41.66423320770264" lon="2.545351982116699">
        <ele>513.44</ele>
      </trkpt>
      <trkpt lat="41.66401879861951" lon="2.5454376451671124">
        <ele>511.7</ele>
      </trkpt>
      <trkpt lat="41.663804054260254" lon="2.5455236434936523">
        <ele>510.06</ele>
      </trkpt>
      <trkpt lat="41.66361093521118" lon="2.5455451011657715">
        <ele>508.45</ele>
      </trkpt>
      <trkpt lat="41.663428796455264" lon="2.5455236434936523">
        <ele>507.0</ele>
      </trkpt>
      <trkpt lat="41.663246154785156" lon="2.545502185821533">
        <ele>505.58</ele>
      </trkpt>
      <trkpt lat="41.66305320337415" lon="2.5455557461827993">
        <ele>504.33</ele>
      </trkpt>
      <trkpt lat="41.66285991668701" lon="2.545609474182129">
        <ele>503.24</ele>
      </trkpt>
      <trkpt lat="41.6626238822937" lon="2.5455451011657715">
        <ele>501.91</ele>
      </trkpt>
      <trkpt lat="41.6624737624079" lon="2.5453948974609375">
        <ele>500.58</ele>
      </trkpt>
      <trkpt lat="41.66239840909839" lon="2.5450939033180475">
        <ele>499.17</ele>
      </trkpt>
      <trkpt lat="41.66232347488403" lon="2.5447940826416016">
        <ele>497.67</ele>
      </trkpt>
      <trkpt lat="41.66217318736017" lon="2.5445470679551363">
        <ele>496.16</ele>
      </trkpt>
      <trkpt lat="41.6620231512934" lon="2.5443005561828613">
        <ele>494.63</ele>
      </trkpt>
      <trkpt lat="41.66198015213013" lon="2.5441503524780273">
        <ele>493.19</ele>
      </trkpt>
      <trkpt lat="41.66194788180292" lon="2.5438922736793756">
        <ele>491.67</ele>
      </trkpt>
      <trkpt lat="41.66191577911377" lon="2.543635368347168">
        <ele>490.22</ele>
      </trkpt>
      <trkpt lat="41.66179751046002" lon="2.5433451868593693">
        <ele>488.89</ele>
      </trkpt>
      <trkpt lat="41.66167974472046" lon="2.543056011199951">
        <ele>487.49</ele>
      </trkpt>
      <trkpt lat="41.66165837086737" lon="2.542755603790283">
        <ele>486.03</ele>
      </trkpt>
      <trkpt lat="41.66163682937622" lon="2.5426483154296875">
        <ele>484.89</ele>
      </trkpt>
      <trkpt lat="41.661529541015625" lon="2.5424766540527344">
        <ele>483.81</ele>
      </trkpt>
      <trkpt lat="41.66144371032715" lon="2.5423264503479004">
        <ele>482.86</ele>
      </trkpt>
      <trkpt lat="41.66143499314785" lon="2.542272051796317">
        <ele>482.02</ele>
      </trkpt>
      <trkpt lat="41.66139635257423" lon="2.5420304853469133">
        <ele>481.29</ele>
      </trkpt>
      <trkpt lat="41.661357963457704" lon="2.541790008544922">
        <ele>480.69</ele>
      </trkpt>
      <trkpt lat="41.66133642196655" lon="2.541661262512207">
        <ele>480.12</ele>
      </trkpt>
      <trkpt lat="41.66142233647406" lon="2.54133939743042">
        <ele>479.73</ele>
      </trkpt>
      <trkpt lat="41.66142225265503" lon="2.540962966158986">
        <ele>479.25</ele>
      </trkpt>
      <trkpt lat="41.66142225265503" lon="2.54058837890625">
        <ele>478.74</ele>
      </trkpt>
      <trkpt lat="41.66135787963867" lon="2.540416717529297">
        <ele>478.14</ele>
      </trkpt>
      <trkpt lat="41.661272048950195" lon="2.5403308868408203">
        <ele>477.54</ele>
      </trkpt>
      <trkpt lat="41.66099343448877" lon="2.5402451399713755">
        <ele>476.87</ele>
      </trkpt>
      <trkpt lat="41.66071482002735" lon="2.5401593931019306">
        <ele>476.2</ele>
      </trkpt>
      <trkpt lat="41.66043620556593" lon="2.5400736462324858">
        <ele>475.62</ele>
      </trkpt>
      <trkpt lat="41.66015625" lon="2.539987564086914">
        <ele>474.98</ele>
      </trkpt>
      <trkpt lat="41.65996313095093" lon="2.53983736038208">
        <ele>474.17</ele>
      </trkpt>
      <trkpt lat="41.65988786146045" lon="2.539600906893611">
        <ele>473.32</ele>
      </trkpt>
      <trkpt lat="41.659812927246094" lon="2.539365291595459">
        <ele>472.37</ele>
      </trkpt>
      <trkpt lat="41.65966968052089" lon="2.53911467269063">
        <ele>471.35</ele>
      </trkpt>
      <trkpt lat="41.65952651761472" lon="2.5388641376048326">
        <ele>470.28</ele>
      </trkpt>
      <trkpt lat="41.65938377380371" lon="2.538614273071289">
        <ele>469.26</ele>
      </trkpt>
      <trkpt lat="41.659269109368324" lon="2.5383349042385817">
        <ele>468.16</ele>
      </trkpt>
      <trkpt lat="41.65915452875197" lon="2.5380555354058743">
        <ele>466.98</ele>
      </trkpt>
      <trkpt lat="41.659040451049805" lon="2.5377774238586426">
        <ele>465.58</ele>
      </trkpt>
      <trkpt lat="41.65897607803345" lon="2.5374341011047363">
        <ele>464.08</ele>
      </trkpt>
      <trkpt lat="41.65893316268921" lon="2.5370264053344727">
        <ele>462.58</ele>
      </trkpt>
      <trkpt lat="41.658854288980365" lon="2.536718202754855">
        <ele>460.96</ele>
      </trkpt>
      <trkpt lat="41.65877549909055" lon="2.5364100839942694">
        <ele>459.26</ele>
      </trkpt>
      <trkpt lat="41.65869721211493" lon="2.5361037254333496">
        <ele>457.41</ele>
      </trkpt>
      <trkpt lat="41.6586971282959" lon="2.5361037254333496">
        <ele>455.76</ele>
      </trkpt>
      <trkpt lat="41.65853627957404" lon="2.5360286235809326">
        <ele>454.02</ele>
      </trkpt>
      <trkpt lat="41.65837526321411" lon="2.5359535217285156">
        <ele>452.22</ele>
      </trkpt>
      <trkpt lat="41.658289432525635" lon="2.53584623336792">
        <ele>450.35</ele>
      </trkpt>
      <trkpt lat="41.65816764347255" lon="2.5355453230440617">
        <ele>448.49</ele>
      </trkpt>
      <trkpt lat="41.65804585441947" lon="2.535244496539235">
        <ele>446.77</ele>
      </trkpt>
      <trkpt lat="41.65792465209961" lon="2.534945011138916">
        <ele>445.04</ele>
      </trkpt>
      <trkpt lat="41.65766716003418" lon="2.5347304344177246">
        <ele>443.22</ele>
      </trkpt>
      <trkpt lat="41.657399106770754" lon="2.5345803145319223">
        <ele>441.46</ele>
      </trkpt>
      <trkpt lat="41.6571307182312" lon="2.5344300270080566">
        <ele>439.77</ele>
      </trkpt>
      <trkpt lat="41.65693759918213" lon="2.534193992614746">
        <ele>438.27</ele>
      </trkpt>
      <trkpt lat="41.65683617815375" lon="2.533991150557995">
        <ele>436.92</ele>
      </trkpt>
      <trkpt lat="41.656735092401505" lon="2.5337888952344656">
        <ele>435.64</ele>
      </trkpt>
      <trkpt lat="41.65673500858247" lon="2.5337888952344656">
        <ele>434.4</ele>
      </trkpt>
      <trkpt lat="41.6566801071167" lon="2.5336790084838867">
        <ele>433.24</ele>
      </trkpt>
      <trkpt lat="41.65670156478882" lon="2.533463928848505">
        <ele>432.22</ele>
      </trkpt>
      <trkpt lat="41.65672302246094" lon="2.533249855041504">
        <ele>431.21</ele>
      </trkpt>
      <trkpt lat="41.65670156478882" lon="2.533121109008789">
        <ele>430.21</ele>
      </trkpt>
      <trkpt lat="41.65665864944458" lon="2.5330138206481934">
        <ele>429.25</ele>
      </trkpt>
      <trkpt lat="41.6565368603915" lon="2.5326985772699118">
        <ele>428.24</ele>
      </trkpt>
      <trkpt lat="41.656415071338415" lon="2.532383417710662">
        <ele>427.22</ele>
      </trkpt>
      <trkpt lat="41.656293869018555" lon="2.532069683074951">
        <ele>426.3</ele>
      </trkpt>
      <trkpt lat="41.65613293647766" lon="2.5319302082061768">
        <ele>425.55</ele>
      </trkpt>
      <trkpt lat="41.65597200393677" lon="2.5317907333374023">
        <ele>424.91</ele>
      </trkpt>
      <trkpt lat="41.65588625706732" lon="2.531769275665283">
        <ele>424.36</ele>
      </trkpt>
      <trkpt lat="41.65560722351074" lon="2.5316834449768066">
        <ele>423.87</ele>
      </trkpt>
      <trkpt lat="41.65543556213379" lon="2.531576156616211">
        <ele>423.49</ele>
      </trkpt>
      <trkpt lat="41.655306816101074" lon="2.531425952911377">
        <ele>423.18</ele>
      </trkpt>
      <trkpt lat="41.65522106923163" lon="2.5312113761901855">
        <ele>422.89</ele>
      </trkpt>
      <trkpt lat="41.655306816101074" lon="2.5309109687805176">
        <ele>422.65</ele>
      </trkpt>
      <trkpt lat="41.65532827377319" lon="2.530503273010254">
        <ele>422.46</ele>
      </trkpt>
      <trkpt lat="41.65537118911743" lon="2.530331611633301">
        <ele>422.22</ele>
      </trkpt>
      <trkpt lat="41.65550001896918" lon="2.5300665758550167">
        <ele>421.88</ele>
      </trkpt>
      <trkpt lat="41.65562893263996" lon="2.5298016238957644">
        <ele>421.63</ele>
      </trkpt>
      <trkpt lat="41.655757427215576" lon="2.5295376777648926">
        <ele>421.3</ele>
      </trkpt>
      <trkpt lat="41.655778884887695" lon="2.5295162200927734">
        <ele>420.91</ele>
      </trkpt>
      <trkpt lat="41.65603620931506" lon="2.5293017271906137">
        <ele>420.4</ele>
      </trkpt>
      <trkpt lat="41.65629361756146" lon="2.529087234288454">
        <ele>419.76</ele>
      </trkpt>
      <trkpt lat="41.656551361083984" lon="2.528872489929199">
        <ele>419.04</ele>
      </trkpt>
      <trkpt lat="41.65659427642822" lon="2.5287437438964844">
        <ele>418.34</ele>
      </trkpt>
      <trkpt lat="41.65663719177246" lon="2.5284218788146973">
        <ele>417.75</ele>
      </trkpt>
      <trkpt lat="41.656787395477295" lon="2.5282716751098633">
        <ele>416.92</ele>
      </trkpt>
      <trkpt lat="41.65700180456042" lon="2.5281358044594526">
        <ele>416.01</ele>
      </trkpt>
      <trkpt lat="41.65721621364355" lon="2.5280000176280737">
        <ele>415.04</ele>
      </trkpt>
      <trkpt lat="41.65743112564087" lon="2.5278639793395996">
        <ele>413.98</ele>
      </trkpt>
      <trkpt lat="41.65768870152533" lon="2.5278854370117188">
        <ele>412.63</ele>
      </trkpt>
      <trkpt lat="41.657817447558045" lon="2.527949810028076">
        <ele>411.31</ele>
      </trkpt>
      <trkpt lat="41.65794610977173" lon="2.5280141830444336">
        <ele>410.04</ele>
      </trkpt>
      <trkpt lat="41.65796756744385" lon="2.5281214714050293">
        <ele>408.79</ele>
      </trkpt>
      <trkpt lat="41.658053398132324" lon="2.5281858444213867">
        <ele>407.5</ele>
      </trkpt>
      <trkpt lat="41.65811777114868" lon="2.5281429290771484">
        <ele>406.21</ele>
      </trkpt>
      <trkpt lat="41.65810729376972" lon="2.5280223973095417">
        <ele>405.0</ele>
      </trkpt>
      <trkpt lat="41.65807485580444" lon="2.527649402618408">
        <ele>403.76</ele>
      </trkpt>
      <trkpt lat="41.65820376947522" lon="2.5273377634584904">
        <ele>402.19</ele>
      </trkpt>
      <trkpt lat="41.65833234786987" lon="2.527027130126953">
        <ele>400.61</ele>
      </trkpt>
      <trkpt lat="41.65837526321411" lon="2.52685546875">
        <ele>399.21</ele>
      </trkpt>
      <trkpt lat="41.65841826237738" lon="2.5264683086425066">
        <ele>397.92</ele>
      </trkpt>
      <trkpt lat="41.65846126154065" lon="2.526081232354045">
        <ele>396.47</ele>
      </trkpt>
      <trkpt lat="41.658504009246826" lon="2.5256967544555664">
        <ele>394.82</ele>
      </trkpt>
      <trkpt lat="41.658482467755675" lon="2.5254816748201847">
        <ele>393.36</ele>
      </trkpt>
      <trkpt lat="41.65846109390259" lon="2.5252676010131836">
        <ele>391.88</ele>
      </trkpt>
      <trkpt lat="41.65835380554199" lon="2.5249457359313965">
        <ele>390.5</ele>
      </trkpt>
      <trkpt lat="41.65819295682013" lon="2.5248706340789795">
        <ele>389.08</ele>
      </trkpt>
      <trkpt lat="41.658031940460205" lon="2.5247955322265625">
        <ele>387.57</ele>
      </trkpt>
      <trkpt lat="41.657774448394775" lon="2.5248169898986816">
        <ele>385.93</ele>
      </trkpt>
      <trkpt lat="41.657752990722656" lon="2.5249671936035156">
        <ele>384.38</ele>
      </trkpt>
      <trkpt lat="41.6576886177063" lon="2.5247740745544434">
        <ele>382.68</ele>
      </trkpt>
      <trkpt lat="41.657516956329346" lon="2.5246238708496094">
        <ele>380.89</ele>
      </trkpt>
      <trkpt lat="41.65740966796875" lon="2.5244522094726562">
        <ele>379.15</ele>
      </trkpt>
      <trkpt lat="41.65725921280682" lon="2.524086842313409">
        <ele>377.39</ele>
      </trkpt>
      <trkpt lat="41.65710926055908" lon="2.5237226486206055">
        <ele>375.57</ele>
      </trkpt>
      <trkpt lat="41.65693768300116" lon="2.5235939025878906">
        <ele>373.57</ele>
      </trkpt>
      <trkpt lat="41.656765937805176" lon="2.523465156555176">
        <ele>371.55</ele>
      </trkpt>
      <trkpt lat="41.65661581791937" lon="2.5233685970306396">
        <ele>369.6</ele>
      </trkpt>
      <trkpt lat="41.65646553039551" lon="2.5232720375061035">
        <ele>367.66</ele>
      </trkpt>
      <trkpt lat="41.656315326690674" lon="2.5229501724243164">
        <ele>365.86</ele>
      </trkpt>
      <trkpt lat="41.65614366531372" lon="2.5227785110473633">
        <ele>363.91</ele>
      </trkpt>
      <trkpt lat="41.65618666447699" lon="2.5224666204303503">
        <ele>362.25</ele>
      </trkpt>
      <trkpt lat="41.6562294960022" lon="2.522156238555908">
        <ele>360.58</ele>
      </trkpt>
      <trkpt lat="41.65616512298584" lon="2.5218558311462402">
        <ele>358.61</ele>
      </trkpt>
      <trkpt lat="41.65616512298584" lon="2.5215554237365723">
        <ele>356.77</ele>
      </trkpt>
      <trkpt lat="41.65610074996948" lon="2.5214481353759766">
        <ele>354.79</ele>
      </trkpt>
      <trkpt lat="41.656025480479" lon="2.521222410723567">
        <ele>352.81</ele>
      </trkpt>
      <trkpt lat="41.65595054626465" lon="2.5209975242614746">
        <ele>350.78</ele>
      </trkpt>
      <trkpt lat="41.65592908859253" lon="2.520632743835449">
        <ele>348.91</ele>
      </trkpt>
      <trkpt lat="41.65571451187134" lon="2.5205039978027344">
        <ele>346.53</ele>
      </trkpt>
      <trkpt lat="41.65546800009906" lon="2.520439624786377">
        <ele>344.13</ele>
      </trkpt>
      <trkpt lat="41.6552209854126" lon="2.5203752517700195">
        <ele>341.87</ele>
      </trkpt>
      <trkpt lat="41.65494203567505" lon="2.520418167114258">
        <ele>339.54</ele>
      </trkpt>
      <trkpt lat="41.65474891662598" lon="2.5203323364257812">
        <ele>337.35</ele>
      </trkpt>
      <trkpt lat="41.654555797576904" lon="2.5203752517700195">
        <ele>335.07</ele>
      </trkpt>
      <trkpt lat="41.65442705154419" lon="2.52011775970459">
        <ele>332.91</ele>
      </trkpt>
      <trkpt lat="41.654255390167236" lon="2.5199031829833984">
        <ele>330.67</ele>
      </trkpt>
      <trkpt lat="41.654040813446045" lon="2.519838809967041">
        <ele>328.38</ele>
      </trkpt>
      <trkpt lat="41.653761863708496" lon="2.5198817253112793">
        <ele>326.0</ele>
      </trkpt>
      <trkpt lat="41.65351183153689" lon="2.519810227677226">
        <ele>323.53</ele>
      </trkpt>
      <trkpt lat="41.65326179936528" lon="2.5197388138622046">
        <ele>321.02</ele>
      </trkpt>
      <trkpt lat="41.65301092900336" lon="2.519667148590088">
        <ele>318.51</ele>
      </trkpt>
      <trkpt lat="41.653010845184326" lon="2.519667148590088">
        <ele>316.1</ele>
      </trkpt>
      <trkpt lat="41.6529534291476" lon="2.5193732790648937">
        <ele>313.64</ele>
      </trkpt>
      <trkpt lat="41.65289609692991" lon="2.5190794095396996">
        <ele>310.94</ele>
      </trkpt>
      <trkpt lat="41.65283918380737" lon="2.518787384033203">
        <ele>308.05</ele>
      </trkpt>
      <trkpt lat="41.652711275964975" lon="2.518531484529376">
        <ele>305.11</ele>
      </trkpt>
      <trkpt lat="41.6526460647583" lon="2.5184011459350586">
        <ele>302.27</ele>
      </trkpt>
      <trkpt lat="41.65245294570923" lon="2.5184011459350586">
        <ele>299.45</ele>
      </trkpt>
      <trkpt lat="41.65227407589555" lon="2.5182079430669546">
        <ele>296.39</ele>
      </trkpt>
      <trkpt lat="41.6520952899009" lon="2.5180148240178823">
        <ele>293.24</ele>
      </trkpt>
      <trkpt lat="41.65191650390625" lon="2.517821788787842">
        <ele>290.08</ele>
      </trkpt>
      <trkpt lat="41.6516375541687" lon="2.5178003311157227">
        <ele>287.15</ele>
      </trkpt>
      <trkpt lat="41.65148735046387" lon="2.5175857543945312">
        <ele>284.24</ele>
      </trkpt>
      <trkpt lat="41.651315689086914" lon="2.517414093017578">
        <ele>281.34</ele>
      </trkpt>
      <trkpt lat="41.65104763582349" lon="2.517263973131776">
        <ele>278.4</ele>
      </trkpt>
      <trkpt lat="41.650779247283936" lon="2.51711368560791">
        <ele>275.67</ele>
      </trkpt>
      <trkpt lat="41.65061831474304" lon="2.516963481903076">
        <ele>273.41</ele>
      </trkpt>
      <trkpt lat="41.65045738220215" lon="2.516813278198242">
        <ele>271.45</ele>
      </trkpt>
      <trkpt lat="41.650274908170104" lon="2.516577076166868">
        <ele>269.75</ele>
      </trkpt>
      <trkpt lat="41.650092685595155" lon="2.516341209411621">
        <ele>268.42</ele>
      </trkpt>
      <trkpt lat="41.65009260177612" lon="2.516341209411621">
        <ele>267.28</ele>
      </trkpt>
      <trkpt lat="41.6498779412359" lon="2.516062092036009">
        <ele>266.39</ele>
      </trkpt>
      <trkpt lat="41.64966344833374" lon="2.5157833099365234">
        <ele>265.65</ele>
      </trkpt>
      <trkpt lat="41.649577617645264" lon="2.515547275543213">
        <ele>264.82</ele>
      </trkpt>
      <trkpt lat="41.64951307699084" lon="2.515267739072442">
        <ele>263.92</ele>
      </trkpt>
      <trkpt lat="41.64944887161255" lon="2.5149893760681152">
        <ele>263.07</ele>
      </trkpt>
      <trkpt lat="41.64934158325195" lon="2.514817714691162">
        <ele>262.26</ele>
      </trkpt>
      <trkpt lat="41.64927109144628" lon="2.5147472228854895">
        <ele>261.52</ele>
      </trkpt>
      <trkpt lat="41.64921283721924" lon="2.5146889686584473">
        <ele>260.76</ele>
      </trkpt>
      <trkpt lat="41.64903061464429" lon="2.51462459564209">
        <ele>259.91</ele>
      </trkpt>
      <trkpt lat="41.64884805679321" lon="2.5145602226257324">
        <ele>258.99</ele>
      </trkpt>
      <trkpt lat="41.64869785308838" lon="2.5144314765930176">
        <ele>257.98</ele>
      </trkpt>
      <trkpt lat="41.648547649383545" lon="2.5143027305603027">
        <ele>256.73</ele>
      </trkpt>
      <trkpt lat="41.64835453033447" lon="2.5140881538391113">
        <ele>255.22</ele>
      </trkpt>
      <trkpt lat="41.64820432662964" lon="2.5137877464294434">
        <ele>253.42</ele>
      </trkpt>
      <trkpt lat="41.64813995361328" lon="2.5135087966918945">
        <ele>251.48</ele>
      </trkpt>
      <trkpt lat="41.6481614112854" lon="2.513121636584401">
        <ele>249.45</ele>
      </trkpt>
      <trkpt lat="41.64818295277655" lon="2.5127344764769077">
        <ele>247.29</ele>
      </trkpt>
      <trkpt lat="41.64820432662964" lon="2.512350082397461">
        <ele>245.05</ele>
      </trkpt>
      <trkpt lat="41.64819351397455" lon="2.5120059214532375">
        <ele>242.7</ele>
      </trkpt>
      <trkpt lat="41.64818286895752" lon="2.5116634368896484">
        <ele>240.38</ele>
      </trkpt>
      <trkpt lat="41.64815059863031" lon="2.511297818273306">
        <ele>238.32</ele>
      </trkpt>
      <trkpt lat="41.64811849594116" lon="2.5109338760375977">
        <ele>236.5</ele>
      </trkpt>
      <trkpt lat="41.648054122924805" lon="2.5108909606933594">
        <ele>234.98</ele>
      </trkpt>
      <trkpt lat="41.64802294224501" lon="2.510903449729085">
        <ele>233.51</ele>
      </trkpt>
      <trkpt lat="41.64794683456421" lon="2.5109338760375977">
        <ele>231.98</ele>
      </trkpt>
      <trkpt lat="41.6477108001709" lon="2.511169910430908">
        <ele>230.42</ele>
      </trkpt>
      <trkpt lat="41.64775371551514" lon="2.511019706726074">
        <ele>228.76</ele>
      </trkpt>
      <trkpt lat="41.647893358021975" lon="2.510697338730097">
        <ele>227.04</ele>
      </trkpt>
      <trkpt lat="41.648032665252686" lon="2.5103759765625">
        <ele>225.29</ele>
      </trkpt>
      <trkpt lat="41.64822586812079" lon="2.510054111480713">
        <ele>223.8</ele>
      </trkpt>
      <trkpt lat="41.64833642542362" lon="2.5098604056984186">
        <ele>222.67</ele>
      </trkpt>
    </trkseg>
  </trk>
</gpx>
