<?xml version="1.0" encoding="UTF-8"?>
<gpx creator="Garmin Connect" version="1.1"
  xsi:schemaLocation="http://www.topografix.com/GPX/1/1 http://www.topografix.com/GPX/11.xsd"
  xmlns:ns3="http://www.garmin.com/xmlschemas/TrackPointExtension/v1"
  xmlns="http://www.topografix.com/GPX/1/1"
  xmlns:xsi="http://www.w3.org/2001/XMLSchema-instance" xmlns:ns2="http://www.garmin.com/xmlschemas/GpxExtensions/v3">
  <metadata>
    <name>GR92 Etappi 12: Lloret de Mar -&gt; Tordera</name>
    <link href="connect.garmin.com">
      <text>Garmin Connect</text>
    </link>
    <time>2026-04-15T05:35:16.000Z</time>
  </metadata>
  <trk>
    <name>GR92 Etappi 12: Lloret de Mar -&gt; Tordera</name>
    <trkseg>
      <trkpt lat="41.7007721029222" lon="2.8417074121534824">
        <ele>9.19</ele>
      </trkpt>
      <trkpt lat="41.700754165649414" lon="2.8417253494262695">
        <ele>9.28</ele>
      </trkpt>
      <trkpt lat="41.70066833496094" lon="2.8418326377868652">
        <ele>9.22</ele>
      </trkpt>
      <trkpt lat="41.70060404576361" lon="2.8420257568359375">
        <ele>9.3</ele>
      </trkpt>
      <trkpt lat="41.70056113041937" lon="2.8421545028686523">
        <ele>9.5</ele>
      </trkpt>
      <trkpt lat="41.7005181312561" lon="2.842261791229248">
        <ele>9.76</ele>
      </trkpt>
      <trkpt lat="41.70041084289551" lon="2.842583656311035">
        <ele>10.18</ele>
      </trkpt>
      <trkpt lat="41.70041092671454" lon="2.842583656311035">
        <ele>10.51</ele>
      </trkpt>
      <trkpt lat="41.70034655369818" lon="2.842733860015869">
        <ele>10.99</ele>
      </trkpt>
      <trkpt lat="41.700282180681825" lon="2.842841148376465">
        <ele>11.5</ele>
      </trkpt>
      <trkpt lat="41.70011035166681" lon="2.843098808079958">
        <ele>12.23</ele>
      </trkpt>
      <trkpt lat="41.69993885792792" lon="2.843356132507324">
        <ele>12.71</ele>
      </trkpt>
      <trkpt lat="41.699810111895204" lon="2.843506336212158">
        <ele>12.79</ele>
      </trkpt>
      <trkpt lat="41.69968136586249" lon="2.843613624572754">
        <ele>12.74</ele>
      </trkpt>
      <trkpt lat="41.69949905946851" lon="2.8437314741313457">
        <ele>12.56</ele>
      </trkpt>
      <trkpt lat="41.69931658543646" lon="2.8438496589660645">
        <ele>12.46</ele>
      </trkpt>
      <trkpt lat="41.69914492405951" lon="2.843989050015807">
        <ele>12.5</ele>
      </trkpt>
      <trkpt lat="41.69897326268256" lon="2.8441286087036133">
        <ele>12.58</ele>
      </trkpt>
      <trkpt lat="41.69871585443616" lon="2.8443108312785625">
        <ele>12.78</ele>
      </trkpt>
      <trkpt lat="41.6984582785517" lon="2.8444933891296387">
        <ele>12.87</ele>
      </trkpt>
      <trkpt lat="41.698308074846864" lon="2.8446006774902344">
        <ele>12.86</ele>
      </trkpt>
      <trkpt lat="41.698050582781434" lon="2.8447937965393066">
        <ele>12.68</ele>
      </trkpt>
      <trkpt lat="41.69802904129028" lon="2.844815254211426">
        <ele>12.66</ele>
      </trkpt>
      <trkpt lat="41.69781446456909" lon="2.845008373260498">
        <ele>12.54</ele>
      </trkpt>
      <trkpt lat="41.69781454838812" lon="2.845008373260498">
        <ele>12.56</ele>
      </trkpt>
      <trkpt lat="41.69779300689697" lon="2.8450512886047363">
        <ele>12.59</ele>
      </trkpt>
      <trkpt lat="41.69766426086426" lon="2.845137119293213">
        <ele>12.68</ele>
      </trkpt>
      <trkpt lat="41.69762134552002" lon="2.8452229499816895">
        <ele>12.83</ele>
      </trkpt>
      <trkpt lat="41.6975998878479" lon="2.8453516960144043">
        <ele>13.03</ele>
      </trkpt>
      <trkpt lat="41.697514057159424" lon="2.8453946113586426">
        <ele>13.27</ele>
      </trkpt>
      <trkpt lat="41.697471141815186" lon="2.8452229499816895">
        <ele>13.55</ele>
      </trkpt>
      <trkpt lat="41.69736385345459" lon="2.8450727462768555">
        <ele>13.86</ele>
      </trkpt>
      <trkpt lat="41.697213649749756" lon="2.8449654579162598">
        <ele>14.29</ele>
      </trkpt>
      <trkpt lat="41.69696713797748" lon="2.844879711046815">
        <ele>14.89</ele>
      </trkpt>
      <trkpt lat="41.696720123291016" lon="2.8447937965393066">
        <ele>15.58</ele>
      </trkpt>
      <trkpt lat="41.696548629552126" lon="2.844793712720275">
        <ele>15.97</ele>
      </trkpt>
      <trkpt lat="41.69637680053711" lon="2.8447937965393066">
        <ele>16.26</ele>
      </trkpt>
      <trkpt lat="41.69629096984863" lon="2.844836711883545">
        <ele>16.36</ele>
      </trkpt>
      <trkpt lat="41.69604169204831" lon="2.8450029250234365">
        <ele>16.18</ele>
      </trkpt>
      <trkpt lat="41.6960334777832" lon="2.845008373260498">
        <ele>16.05</ele>
      </trkpt>
      <trkpt lat="41.69594764709473" lon="2.845029830932617">
        <ele>15.86</ele>
      </trkpt>
      <trkpt lat="41.695754528045654" lon="2.844836711883545">
        <ele>15.72</ele>
      </trkpt>
      <trkpt lat="41.6956901550293" lon="2.844836711883545">
        <ele>15.22</ele>
      </trkpt>
      <trkpt lat="41.69553995132446" lon="2.8449654579162598">
        <ele>14.45</ele>
      </trkpt>
      <trkpt lat="41.69532537460327" lon="2.8449654579162598">
        <ele>13.57</ele>
      </trkpt>
      <trkpt lat="41.69528245925903" lon="2.8450942039489746">
        <ele>12.91</ele>
      </trkpt>
      <trkpt lat="41.695218086242676" lon="2.845137119293213">
        <ele>12.26</ele>
      </trkpt>
      <trkpt lat="41.695261001586914" lon="2.845029830932617">
        <ele>11.65</ele>
      </trkpt>
      <trkpt lat="41.695218086242676" lon="2.8449225425720215">
        <ele>11.05</ele>
      </trkpt>
      <trkpt lat="41.69521817006171" lon="2.844815254211426">
        <ele>10.56</ele>
      </trkpt>
      <trkpt lat="41.695218086242676" lon="2.844815254211426">
        <ele>10.09</ele>
      </trkpt>
      <trkpt lat="41.69532537460327" lon="2.8444719314575195">
        <ele>9.6</ele>
      </trkpt>
      <trkpt lat="41.695497035980225" lon="2.8444290161132812">
        <ele>9.63</ele>
      </trkpt>
      <trkpt lat="41.695518493652344" lon="2.844386100769043">
        <ele>9.42</ele>
      </trkpt>
      <trkpt lat="41.695518493652344" lon="2.8443217277526855">
        <ele>9.17</ele>
      </trkpt>
      <trkpt lat="41.695432495325804" lon="2.8440422751009464">
        <ele>8.64</ele>
      </trkpt>
      <trkpt lat="41.69534683227539" lon="2.843763828277588">
        <ele>8.38</ele>
      </trkpt>
      <trkpt lat="41.69543266296387" lon="2.8436779975891113">
        <ele>8.53</ele>
      </trkpt>
      <trkpt lat="41.695454120635986" lon="2.843613624572754">
        <ele>8.63</ele>
      </trkpt>
      <trkpt lat="41.69530391693115" lon="2.84346342086792">
        <ele>8.58</ele>
      </trkpt>
      <trkpt lat="41.69515371322632" lon="2.8432488441467285">
        <ele>8.67</ele>
      </trkpt>
      <trkpt lat="41.695003593340516" lon="2.8431522846221924">
        <ele>8.73</ele>
      </trkpt>
      <trkpt lat="41.69485330581665" lon="2.8430557250976562">
        <ele>8.88</ele>
      </trkpt>
      <trkpt lat="41.69485330581665" lon="2.8429698944091797">
        <ele>9.25</ele>
      </trkpt>
      <trkpt lat="41.69491767883301" lon="2.8429055213928223">
        <ele>9.76</ele>
      </trkpt>
      <trkpt lat="41.694746017456055" lon="2.8429055213928223">
        <ele>10.09</ele>
      </trkpt>
      <trkpt lat="41.69459581375122" lon="2.842733860015869">
        <ele>10.73</ele>
      </trkpt>
      <trkpt lat="41.69463872909546" lon="2.8426480293273926">
        <ele>11.51</ele>
      </trkpt>
      <trkpt lat="41.694488525390625" lon="2.8423476219177246">
        <ele>12.58</ele>
      </trkpt>
      <trkpt lat="41.69438123703003" lon="2.842261791229248">
        <ele>13.41</ele>
      </trkpt>
      <trkpt lat="41.69418811798096" lon="2.8422188758850098">
        <ele>14.19</ele>
      </trkpt>
      <trkpt lat="41.694134306162596" lon="2.8419500682502985">
        <ele>15.22</ele>
      </trkpt>
      <trkpt lat="41.69408082962036" lon="2.8416824340820312">
        <ele>16.23</ele>
      </trkpt>
      <trkpt lat="41.694016456604004" lon="2.841510772705078">
        <ele>17.26</ele>
      </trkpt>
      <trkpt lat="41.69388771057129" lon="2.8414034843444824">
        <ele>18.19</ele>
      </trkpt>
      <trkpt lat="41.69380187988281" lon="2.841167449951172">
        <ele>19.25</ele>
      </trkpt>
      <trkpt lat="41.69365167617798" lon="2.8409314155578613">
        <ele>20.48</ele>
      </trkpt>
      <trkpt lat="41.69363021850586" lon="2.8408455848693848">
        <ele>21.84</ele>
      </trkpt>
      <trkpt lat="41.69363021850586" lon="2.8408324252814054">
        <ele>23.2</ele>
      </trkpt>
      <trkpt lat="41.69363021850586" lon="2.840609550476074">
        <ele>24.71</ele>
      </trkpt>
      <trkpt lat="41.69369459152222" lon="2.8403735160827637">
        <ele>26.45</ele>
      </trkpt>
      <trkpt lat="41.69380187988281" lon="2.8403520584106445">
        <ele>28.07</ele>
      </trkpt>
      <trkpt lat="41.69388771057129" lon="2.840394973754883">
        <ele>29.43</ele>
      </trkpt>
      <trkpt lat="41.69395208358765" lon="2.8403520584106445">
        <ele>30.74</ele>
      </trkpt>
      <trkpt lat="41.6941237449646" lon="2.840094566345215">
        <ele>32.49</ele>
      </trkpt>
      <trkpt lat="41.694016456604004" lon="2.8399658203125">
        <ele>32.76</ele>
      </trkpt>
      <trkpt lat="41.693994998931885" lon="2.8397512435913086">
        <ele>33.16</ele>
      </trkpt>
      <trkpt lat="41.694016456604004" lon="2.839665412902832">
        <ele>33.4</ele>
      </trkpt>
      <trkpt lat="41.69410237111151" lon="2.8395795822143555">
        <ele>33.59</ele>
      </trkpt>
      <trkpt lat="41.693962728604674" lon="2.8393540252000093">
        <ele>32.79</ele>
      </trkpt>
      <trkpt lat="41.69382333755493" lon="2.8391289710998535">
        <ele>31.61</ele>
      </trkpt>
      <trkpt lat="41.693737506866455" lon="2.8392791748046875">
        <ele>30.18</ele>
      </trkpt>
      <trkpt lat="41.693737506866455" lon="2.8396010398864746">
        <ele>28.66</ele>
      </trkpt>
      <trkpt lat="41.69363021850586" lon="2.8394508361816406">
        <ele>27.0</ele>
      </trkpt>
      <trkpt lat="41.69353349134326" lon="2.8391498420387506">
        <ele>25.38</ele>
      </trkpt>
      <trkpt lat="41.69343709945679" lon="2.8388500213623047">
        <ele>23.46</ele>
      </trkpt>
      <trkpt lat="41.69328689575195" lon="2.8386783599853516">
        <ele>21.31</ele>
      </trkpt>
      <trkpt lat="41.69337272644043" lon="2.8386354446411133">
        <ele>19.66</ele>
      </trkpt>
      <trkpt lat="41.69343709945679" lon="2.8385496139526367">
        <ele>17.97</ele>
      </trkpt>
      <trkpt lat="41.69337272644043" lon="2.8383350372314453">
        <ele>15.9</ele>
      </trkpt>
      <trkpt lat="41.693501472473145" lon="2.8381848335266113">
        <ele>14.31</ele>
      </trkpt>
      <trkpt lat="41.69358730316162" lon="2.83797025680542">
        <ele>12.56</ele>
      </trkpt>
      <trkpt lat="41.693480014801025" lon="2.8380990028381348">
        <ele>11.15</ele>
      </trkpt>
      <trkpt lat="41.693458557128906" lon="2.8380560874938965">
        <ele>9.74</ele>
      </trkpt>
      <trkpt lat="41.69363021850586" lon="2.8377771377563477">
        <ele>8.43</ele>
      </trkpt>
      <trkpt lat="41.6937696095556" lon="2.8376376628875732">
        <ele>7.28</ele>
      </trkpt>
      <trkpt lat="41.69390916824341" lon="2.837498188018799">
        <ele>6.35</ele>
      </trkpt>
      <trkpt lat="41.69405937194824" lon="2.837240695953369">
        <ele>5.73</ele>
      </trkpt>
      <trkpt lat="41.694188034161925" lon="2.8371119499206543">
        <ele>5.25</ele>
      </trkpt>
      <trkpt lat="41.69431686401367" lon="2.8369832038879395">
        <ele>5.11</ele>
      </trkpt>
      <trkpt lat="41.69459581375122" lon="2.836918830871582">
        <ele>5.33</ele>
      </trkpt>
      <trkpt lat="41.694746017456055" lon="2.836790084838867">
        <ele>5.26</ele>
      </trkpt>
      <trkpt lat="41.69491767883301" lon="2.83646821975708">
        <ele>5.24</ele>
      </trkpt>
      <trkpt lat="41.69508934020996" lon="2.8362321853637695">
        <ele>5.65</ele>
      </trkpt>
      <trkpt lat="41.69511088170111" lon="2.8360390663146973">
        <ele>6.01</ele>
      </trkpt>
      <trkpt lat="41.69511088170111" lon="2.835737904533744">
        <ele>6.52</ele>
      </trkpt>
      <trkpt lat="41.69511088170111" lon="2.8354382514953613">
        <ele>7.13</ele>
      </trkpt>
      <trkpt lat="41.69511079788208" lon="2.8352231718599796">
        <ele>7.84</ele>
      </trkpt>
      <trkpt lat="41.69511079788208" lon="2.8350090980529785">
        <ele>8.58</ele>
      </trkpt>
      <trkpt lat="41.69511088170111" lon="2.8350090980529785">
        <ele>9.14</ele>
      </trkpt>
      <trkpt lat="41.69506788253784" lon="2.8346872329711914">
        <ele>9.93</ele>
      </trkpt>
      <trkpt lat="41.695003509521484" lon="2.8345155715942383">
        <ele>10.48</ele>
      </trkpt>
      <trkpt lat="41.69493896886706" lon="2.834311304613948">
        <ele>10.82</ele>
      </trkpt>
      <trkpt lat="41.69487476348877" lon="2.8341078758239746">
        <ele>11.08</ele>
      </trkpt>
      <trkpt lat="41.694826148450375" lon="2.833873014897108">
        <ele>11.29</ele>
      </trkpt>
      <trkpt lat="41.694746017456055" lon="2.8334856033325195">
        <ele>11.51</ele>
      </trkpt>
      <trkpt lat="41.69472464360297" lon="2.833421230316162">
        <ele>11.73</ele>
      </trkpt>
      <trkpt lat="41.694561280310154" lon="2.833073129877448">
        <ele>11.95</ele>
      </trkpt>
      <trkpt lat="41.69439800083637" lon="2.8327251132577658">
        <ele>12.22</ele>
      </trkpt>
      <trkpt lat="41.69423472136259" lon="2.8323770128190517">
        <ele>12.45</ele>
      </trkpt>
      <trkpt lat="41.69407144188881" lon="2.8320289961993694">
        <ele>12.43</ele>
      </trkpt>
      <trkpt lat="41.69390916824341" lon="2.8316831588745117">
        <ele>12.52</ele>
      </trkpt>
      <trkpt lat="41.69383389875293" lon="2.831478975713253">
        <ele>12.54</ele>
      </trkpt>
      <trkpt lat="41.693758964538574" lon="2.831275463104248">
        <ele>13.03</ele>
      </trkpt>
      <trkpt lat="41.693759048357606" lon="2.831275463104248">
        <ele>13.14</ele>
      </trkpt>
      <trkpt lat="41.693683695048094" lon="2.8310497384518385">
        <ele>13.25</ele>
      </trkpt>
      <trkpt lat="41.69360876083374" lon="2.830824851989746">
        <ele>13.36</ele>
      </trkpt>
      <trkpt lat="41.693501472473145" lon="2.8306102752685547">
        <ele>13.52</ele>
      </trkpt>
      <trkpt lat="41.69339418411255" lon="2.83048152923584">
        <ele>13.78</ele>
      </trkpt>
      <trkpt lat="41.69315814971924" lon="2.830331325531006">
        <ele>13.98</ele>
      </trkpt>
      <trkpt lat="41.69302923604846" lon="2.8300734981894493">
        <ele>14.31</ele>
      </trkpt>
      <trkpt lat="41.69290065765381" lon="2.8298163414001465">
        <ele>14.73</ele>
      </trkpt>
      <trkpt lat="41.692728996276855" lon="2.829601764678955">
        <ele>15.19</ele>
      </trkpt>
      <trkpt lat="41.692514419555664" lon="2.829430103302002">
        <ele>15.8</ele>
      </trkpt>
      <trkpt lat="41.69232130050659" lon="2.8294730186462402">
        <ele>16.51</ele>
      </trkpt>
      <trkpt lat="41.69230218976736" lon="2.829458685591817">
        <ele>17.41</ele>
      </trkpt>
      <trkpt lat="41.69214963912964" lon="2.8293442726135254">
        <ele>18.5</ele>
      </trkpt>
      <trkpt lat="41.69212818145752" lon="2.829279899597168">
        <ele>19.71</ele>
      </trkpt>
      <trkpt lat="41.69204235076904" lon="2.829151153564453">
        <ele>21.06</ele>
      </trkpt>
      <trkpt lat="41.691977977752686" lon="2.8288936614990234">
        <ele>22.62</ele>
      </trkpt>
      <trkpt lat="41.69182777404785" lon="2.8285717964172363">
        <ele>24.2</ele>
      </trkpt>
      <trkpt lat="41.69167757034302" lon="2.828550338745117">
        <ele>25.54</ele>
      </trkpt>
      <trkpt lat="41.69157028198242" lon="2.828335762023926">
        <ele>27.17</ele>
      </trkpt>
      <trkpt lat="41.69163473881781" lon="2.82822847366333">
        <ele>29.04</ele>
      </trkpt>
      <trkpt lat="41.691720485687256" lon="2.828078269958496">
        <ele>31.03</ele>
      </trkpt>
      <trkpt lat="41.691891895607114" lon="2.828056812286377">
        <ele>33.03</ele>
      </trkpt>
      <trkpt lat="41.692063892260194" lon="2.828035354614258">
        <ele>34.8</ele>
      </trkpt>
      <trkpt lat="41.69223530218005" lon="2.827928066253662">
        <ele>36.45</ele>
      </trkpt>
      <trkpt lat="41.69240713119507" lon="2.8278207778930664">
        <ele>37.91</ele>
      </trkpt>
      <trkpt lat="41.6925573348999" lon="2.827638303861022">
        <ele>39.13</ele>
      </trkpt>
      <trkpt lat="41.69270762242377" lon="2.827455997467041">
        <ele>40.15</ele>
      </trkpt>
      <trkpt lat="41.69290065765381" lon="2.8272628784179688">
        <ele>40.86</ele>
      </trkpt>
      <trkpt lat="41.69281482696533" lon="2.827134132385254">
        <ele>41.45</ele>
      </trkpt>
      <trkpt lat="41.692771995440125" lon="2.827005386352539">
        <ele>41.88</ele>
      </trkpt>
      <trkpt lat="41.69283628463745" lon="2.8267908096313477">
        <ele>42.14</ele>
      </trkpt>
      <trkpt lat="41.69298657216132" lon="2.826662063598633">
        <ele>42.29</ele>
      </trkpt>
      <trkpt lat="41.69312596321106" lon="2.8265225887298584">
        <ele>42.16</ele>
      </trkpt>
      <trkpt lat="41.693265438079834" lon="2.826383113861084">
        <ele>41.84</ele>
      </trkpt>
      <trkpt lat="41.693480014801025" lon="2.826211452484131">
        <ele>41.25</ele>
      </trkpt>
      <trkpt lat="41.69363021850586" lon="2.8261685371398926">
        <ele>40.48</ele>
      </trkpt>
      <trkpt lat="41.69382342137396" lon="2.8261685371398926">
        <ele>39.6</ele>
      </trkpt>
      <trkpt lat="41.693994998931885" lon="2.826104164123535">
        <ele>38.67</ele>
      </trkpt>
      <trkpt lat="41.694273948669434" lon="2.825911045074463">
        <ele>37.7</ele>
      </trkpt>
      <trkpt lat="41.694323820993304" lon="2.8258445765823126">
        <ele>36.83</ele>
      </trkpt>
      <trkpt lat="41.69440269470215" lon="2.8257393836975098">
        <ele>35.93</ele>
      </trkpt>
      <trkpt lat="41.6945743560791" lon="2.825438976287842">
        <ele>34.89</ele>
      </trkpt>
      <trkpt lat="41.69463872909546" lon="2.8250956535339355">
        <ele>33.96</ele>
      </trkpt>
      <trkpt lat="41.6945743560791" lon="2.82498836517334">
        <ele>33.24</ele>
      </trkpt>
      <trkpt lat="41.694488525390625" lon="2.825031280517578">
        <ele>32.57</ele>
      </trkpt>
      <trkpt lat="41.694509983062744" lon="2.8247737884521484">
        <ele>31.83</ele>
      </trkpt>
      <trkpt lat="41.69435977935791" lon="2.8246665000915527">
        <ele>31.21</ele>
      </trkpt>
      <trkpt lat="41.69407043606043" lon="2.8246235847473145">
        <ele>30.69</ele>
      </trkpt>
      <trkpt lat="41.69378042221069" lon="2.824580669403076">
        <ele>30.23</ele>
      </trkpt>
      <trkpt lat="41.69360876083374" lon="2.8244948387145996">
        <ele>29.78</ele>
      </trkpt>
      <trkpt lat="41.69339418411255" lon="2.824258804321289">
        <ele>29.45</ele>
      </trkpt>
      <trkpt lat="41.69339426793158" lon="2.824258804321289">
        <ele>28.94</ele>
      </trkpt>
      <trkpt lat="41.693286979570985" lon="2.8243017196655273">
        <ele>28.57</ele>
      </trkpt>
      <trkpt lat="41.69305111281574" lon="2.8241891507059336">
        <ele>28.29</ele>
      </trkpt>
      <trkpt lat="41.69281532987952" lon="2.82407658174634">
        <ele>27.88</ele>
      </trkpt>
      <trkpt lat="41.692579463124275" lon="2.8239640966057777">
        <ele>27.3</ele>
      </trkpt>
      <trkpt lat="41.69234275817871" lon="2.8238511085510254">
        <ele>26.75</ele>
      </trkpt>
      <trkpt lat="41.69213899411261" lon="2.8238151501864195">
        <ele>26.42</ele>
      </trkpt>
      <trkpt lat="41.691977977752686" lon="2.823786735534668">
        <ele>26.28</ele>
      </trkpt>
      <trkpt lat="41.691763401031494" lon="2.8238940238952637">
        <ele>26.23</ele>
      </trkpt>
      <trkpt lat="41.69153834693134" lon="2.8238725662231445">
        <ele>26.38</ele>
      </trkpt>
      <trkpt lat="41.69131278991699" lon="2.8238511085510254">
        <ele>26.68</ele>
      </trkpt>
      <trkpt lat="41.69111967086792" lon="2.823657989501953">
        <ele>27.51</ele>
      </trkpt>
      <trkpt lat="41.69106585904956" lon="2.8234214521944523">
        <ele>28.94</ele>
      </trkpt>
      <trkpt lat="41.691012382507324" lon="2.823185920715332">
        <ele>30.7</ele>
      </trkpt>
      <trkpt lat="41.690969467163086" lon="2.8231000900268555">
        <ele>32.43</ele>
      </trkpt>
      <trkpt lat="41.690733432769775" lon="2.823164463043213">
        <ele>33.79</ele>
      </trkpt>
      <trkpt lat="41.690625976771116" lon="2.8229710925370455">
        <ele>36.08</ele>
      </trkpt>
      <trkpt lat="41.690518856048584" lon="2.8227782249450684">
        <ele>38.54</ele>
      </trkpt>
      <trkpt lat="41.6905403137207" lon="2.8224563598632812">
        <ele>41.54</ele>
      </trkpt>
      <trkpt lat="41.69062614440918" lon="2.8223705291748047">
        <ele>44.3</ele>
      </trkpt>
      <trkpt lat="41.690733432769775" lon="2.8220486640930176">
        <ele>47.7</ele>
      </trkpt>
      <trkpt lat="41.690518856048584" lon="2.8218555450439453">
        <ele>50.4</ele>
      </trkpt>
      <trkpt lat="41.69058322906494" lon="2.8217482566833496">
        <ele>53.23</ele>
      </trkpt>
      <trkpt lat="41.69045448303223" lon="2.821640968322754">
        <ele>55.73</ele>
      </trkpt>
      <trkpt lat="41.69058314524591" lon="2.821512222290039">
        <ele>58.53</ele>
      </trkpt>
      <trkpt lat="41.690711975097656" lon="2.821383476257324">
        <ele>61.12</ele>
      </trkpt>
      <trkpt lat="41.6909478418529" lon="2.821233356371522">
        <ele>63.46</ele>
      </trkpt>
      <trkpt lat="41.69118370860815" lon="2.8210832364857197">
        <ele>65.38</ele>
      </trkpt>
      <trkpt lat="41.69142016209662" lon="2.8209328651428223">
        <ele>67.11</ele>
      </trkpt>
      <trkpt lat="41.69169902801514" lon="2.8208041191101074">
        <ele>68.88</ele>
      </trkpt>
      <trkpt lat="41.691741943359375" lon="2.8206968307495117">
        <ele>70.49</ele>
      </trkpt>
      <trkpt lat="41.691833306103945" lon="2.820566240698099">
        <ele>71.93</ele>
      </trkpt>
      <trkpt lat="41.69183338992298" lon="2.820566240698099">
        <ele>73.24</ele>
      </trkpt>
      <trkpt lat="41.69189214706421" lon="2.8204822540283203">
        <ele>74.44</ele>
      </trkpt>
      <trkpt lat="41.691956520080566" lon="2.820267677307129">
        <ele>75.53</ele>
      </trkpt>
      <trkpt lat="41.691977977752686" lon="2.8198599815368652">
        <ele>76.39</ele>
      </trkpt>
      <trkpt lat="41.691956520080566" lon="2.8196024894714355">
        <ele>77.25</ele>
      </trkpt>
      <trkpt lat="41.69189214706421" lon="2.8192591667175293">
        <ele>78.16</ele>
      </trkpt>
      <trkpt lat="41.691956520080566" lon="2.819216251373291">
        <ele>78.98</ele>
      </trkpt>
      <trkpt lat="41.69187068939209" lon="2.8190016746520996">
        <ele>79.75</ele>
      </trkpt>
      <trkpt lat="41.69179541990161" lon="2.8188082203269005">
        <ele>80.47</ele>
      </trkpt>
      <trkpt lat="41.691720485687256" lon="2.818615436553955">
        <ele>81.07</ele>
      </trkpt>
      <trkpt lat="41.69162727892399" lon="2.8183001093566418">
        <ele>81.5</ele>
      </trkpt>
      <trkpt lat="41.69153415597975" lon="2.81798486597836">
        <ele>81.89</ele>
      </trkpt>
      <trkpt lat="41.69144153594971" lon="2.817671298980713">
        <ele>82.24</ele>
      </trkpt>
      <trkpt lat="41.6913987044245" lon="2.8174352645874023">
        <ele>82.58</ele>
      </trkpt>
      <trkpt lat="41.69134489260614" lon="2.8172202687710524">
        <ele>82.82</ele>
      </trkpt>
      <trkpt lat="41.69129133224487" lon="2.8170061111450195">
        <ele>82.94</ele>
      </trkpt>
      <trkpt lat="41.691183876246214" lon="2.8167374711483717">
        <ele>82.9</ele>
      </trkpt>
      <trkpt lat="41.69107675552368" lon="2.816469669342041">
        <ele>82.64</ele>
      </trkpt>
      <trkpt lat="41.69099100865424" lon="2.8161263465881348">
        <ele>82.13</ele>
      </trkpt>
      <trkpt lat="41.691012382507324" lon="2.8157615661621094">
        <ele>81.51</ele>
      </trkpt>
      <trkpt lat="41.691066110506654" lon="2.8155465703457594">
        <ele>80.77</ele>
      </trkpt>
      <trkpt lat="41.69111975468695" lon="2.8153324127197266">
        <ele>79.94</ele>
      </trkpt>
      <trkpt lat="41.69091590680182" lon="2.8151822090148926">
        <ele>78.98</ele>
      </trkpt>
      <trkpt lat="41.690711975097656" lon="2.8150320053100586">
        <ele>77.81</ele>
      </trkpt>
      <trkpt lat="41.69058331288397" lon="2.8149032592773438">
        <ele>76.59</ele>
      </trkpt>
      <trkpt lat="41.69050804339349" lon="2.814699076116085">
        <ele>75.38</ele>
      </trkpt>
      <trkpt lat="41.69043310917914" lon="2.81449556350708">
        <ele>74.12</ele>
      </trkpt>
      <trkpt lat="41.69043302536011" lon="2.81449556350708">
        <ele>72.85</ele>
      </trkpt>
      <trkpt lat="41.69032548554242" lon="2.814130112528801">
        <ele>71.48</ele>
      </trkpt>
      <trkpt lat="41.69021802954376" lon="2.813764661550522">
        <ele>70.05</ele>
      </trkpt>
      <trkpt lat="41.69011116027832" lon="2.813401222229004">
        <ele>68.66</ele>
      </trkpt>
      <trkpt lat="41.690003871917725" lon="2.81325101852417">
        <ele>67.37</ele>
      </trkpt>
      <trkpt lat="41.68981075286865" lon="2.8131651878356934">
        <ele>66.17</ele>
      </trkpt>
      <trkpt lat="41.68955326080322" lon="2.8131651878356934">
        <ele>64.96</ele>
      </trkpt>
      <trkpt lat="41.68936014175415" lon="2.813100814819336">
        <ele>63.89</ele>
      </trkpt>
      <trkpt lat="41.68923147954047" lon="2.812929153442383">
        <ele>63.03</ele>
      </trkpt>
      <trkpt lat="41.689016902819276" lon="2.8128647804260254">
        <ele>62.18</ele>
      </trkpt>
      <trkpt lat="41.689016819000244" lon="2.8128647804260254">
        <ele>61.57</ele>
      </trkpt>
      <trkpt lat="41.68888807296753" lon="2.8128862380981445">
        <ele>61.07</ele>
      </trkpt>
      <trkpt lat="41.68871649540961" lon="2.813004171475768">
        <ele>60.75</ele>
      </trkpt>
      <trkpt lat="41.68854475021362" lon="2.813122272491455">
        <ele>60.54</ele>
      </trkpt>
      <trkpt lat="41.68839454650879" lon="2.813122272491455">
        <ele>60.66</ele>
      </trkpt>
      <trkpt lat="41.688158763572574" lon="2.81304725445807">
        <ele>61.07</ele>
      </trkpt>
      <trkpt lat="41.6879225615412" lon="2.812972068786621">
        <ele>61.46</ele>
      </trkpt>
      <trkpt lat="41.68777210637927" lon="2.8126497846096754">
        <ele>62.24</ele>
      </trkpt>
      <trkpt lat="41.6876220703125" lon="2.812328338623047">
        <ele>63.23</ele>
      </trkpt>
      <trkpt lat="41.68750396929681" lon="2.8121673222631216">
        <ele>64.27</ele>
      </trkpt>
      <trkpt lat="41.68738603591919" lon="2.8120064735412598">
        <ele>65.5</ele>
      </trkpt>
      <trkpt lat="41.687214374542236" lon="2.811856269836426">
        <ele>66.88</ele>
      </trkpt>
      <trkpt lat="41.68704271316528" lon="2.811706066131592">
        <ele>68.42</ele>
      </trkpt>
      <trkpt lat="41.686835680156946" lon="2.811550749465823">
        <ele>70.16</ele>
      </trkpt>
      <trkpt lat="41.68662873096764" lon="2.8113955166190863">
        <ele>71.99</ele>
      </trkpt>
      <trkpt lat="41.68642144650221" lon="2.811240116134286">
        <ele>73.88</ele>
      </trkpt>
      <trkpt lat="41.686270320788026" lon="2.811126708984375">
        <ele>75.74</ele>
      </trkpt>
      <trkpt lat="41.6861629486084" lon="2.810955047607422">
        <ele>77.74</ele>
      </trkpt>
      <trkpt lat="41.68605540879071" lon="2.8106003254652023">
        <ele>80.01</ele>
      </trkpt>
      <trkpt lat="41.68594837188721" lon="2.8102469444274902">
        <ele>82.17</ele>
      </trkpt>
      <trkpt lat="41.68594837188721" lon="2.810182571411133">
        <ele>84.32</ele>
      </trkpt>
      <trkpt lat="41.6860556602478" lon="2.8099894523620605">
        <ele>86.78</ele>
      </trkpt>
      <trkpt lat="41.68612003326416" lon="2.8097105026245117">
        <ele>89.16</ele>
      </trkpt>
      <trkpt lat="41.68609857559204" lon="2.809453010559082">
        <ele>91.41</ele>
      </trkpt>
      <trkpt lat="41.68607711791992" lon="2.809174060821533">
        <ele>93.64</ele>
      </trkpt>
      <trkpt lat="41.68598039075732" lon="2.808894608169794">
        <ele>95.51</ele>
      </trkpt>
      <trkpt lat="41.68588399887085" lon="2.8086161613464355">
        <ele>97.32</ele>
      </trkpt>
      <trkpt lat="41.6857123374939" lon="2.8082942962646484">
        <ele>99.04</ele>
      </trkpt>
      <trkpt lat="41.68558334000409" lon="2.807944267988205">
        <ele>100.74</ele>
      </trkpt>
      <trkpt lat="41.68545442633331" lon="2.8075942397117615">
        <ele>102.13</ele>
      </trkpt>
      <trkpt lat="41.6853254288435" lon="2.807244211435318">
        <ele>103.33</ele>
      </trkpt>
      <trkpt lat="41.68519651517272" lon="2.8068941831588745">
        <ele>104.36</ele>
      </trkpt>
      <trkpt lat="41.68506751768291" lon="2.806544154882431">
        <ele>105.22</ele>
      </trkpt>
      <trkpt lat="41.68493860401213" lon="2.8061942104250193">
        <ele>106.1</ele>
      </trkpt>
      <trkpt lat="41.68481111526489" lon="2.8058481216430664">
        <ele>106.99</ele>
      </trkpt>
      <trkpt lat="41.68470391072333" lon="2.805483341217041">
        <ele>107.7</ele>
      </trkpt>
      <trkpt lat="41.68466099537909" lon="2.8054404258728027">
        <ele>108.35</ele>
      </trkpt>
      <trkpt lat="41.68466091156006" lon="2.8054404258728027">
        <ele>108.95</ele>
      </trkpt>
      <trkpt lat="41.68446762487292" lon="2.805132558569312">
        <ele>109.51</ele>
      </trkpt>
      <trkpt lat="41.68427433818579" lon="2.804824775084853">
        <ele>110.12</ele>
      </trkpt>
      <trkpt lat="41.68408155441284" lon="2.8045177459716797">
        <ele>110.57</ele>
      </trkpt>
      <trkpt lat="41.683995723724365" lon="2.8043031692504883">
        <ele>111.0</ele>
      </trkpt>
      <trkpt lat="41.68382397852838" lon="2.8040992375463247">
        <ele>111.52</ele>
      </trkpt>
      <trkpt lat="41.68365240097046" lon="2.8038954734802246">
        <ele>112.03</ele>
      </trkpt>
      <trkpt lat="41.68350915424526" lon="2.8036018554121256">
        <ele>112.46</ele>
      </trkpt>
      <trkpt lat="41.683365907520056" lon="2.8033082373440266">
        <ele>112.61</ele>
      </trkpt>
      <trkpt lat="41.683223247528076" lon="2.80301570892334">
        <ele>112.46</ele>
      </trkpt>
      <trkpt lat="41.683150324970484" lon="2.802922921255231">
        <ele>112.41</ele>
      </trkpt>
      <trkpt lat="41.682987213134766" lon="2.802715301513672">
        <ele>112.38</ele>
      </trkpt>
      <trkpt lat="41.68285855092108" lon="2.8026509284973145">
        <ele>112.32</ele>
      </trkpt>
      <trkpt lat="41.68257993645966" lon="2.8025651816278696">
        <ele>111.96</ele>
      </trkpt>
      <trkpt lat="41.682300651445985" lon="2.8024792671203613">
        <ele>111.38</ele>
      </trkpt>
      <trkpt lat="41.68230056762695" lon="2.8024792671203613">
        <ele>111.05</ele>
      </trkpt>
      <trkpt lat="41.68219327926636" lon="2.802436351776123">
        <ele>110.59</ele>
      </trkpt>
      <trkpt lat="41.68221473693848" lon="2.8023719787597656">
        <ele>110.38</ele>
      </trkpt>
      <trkpt lat="41.68219327926636" lon="2.802286148071289">
        <ele>110.18</ele>
      </trkpt>
      <trkpt lat="41.68210744857788" lon="2.80226469039917">
        <ele>109.86</ele>
      </trkpt>
      <trkpt lat="41.68206453323364" lon="2.802286148071289">
        <ele>109.62</ele>
      </trkpt>
      <trkpt lat="41.68191432952881" lon="2.8021788597106934">
        <ele>109.59</ele>
      </trkpt>
      <trkpt lat="41.681774770841" lon="2.802017843350768">
        <ele>109.81</ele>
      </trkpt>
      <trkpt lat="41.68163537979126" lon="2.8018569946289062">
        <ele>109.97</ele>
      </trkpt>
      <trkpt lat="41.681528091430664" lon="2.8015565872192383">
        <ele>110.31</ele>
      </trkpt>
      <trkpt lat="41.681452821940184" lon="2.8011910524219275">
        <ele>110.86</ele>
      </trkpt>
      <trkpt lat="41.68137788772583" lon="2.8008270263671875">
        <ele>111.76</ele>
      </trkpt>
      <trkpt lat="41.68131351470947" lon="2.8006553649902344">
        <ele>112.66</ele>
      </trkpt>
      <trkpt lat="41.681249141693115" lon="2.800569534301758">
        <ele>113.7</ele>
      </trkpt>
      <trkpt lat="41.68124922551215" lon="2.800569534301758">
        <ele>114.99</ele>
      </trkpt>
      <trkpt lat="41.681195413693786" lon="2.8003652673214674">
        <ele>116.49</ele>
      </trkpt>
      <trkpt lat="41.68114185333252" lon="2.800161838531494">
        <ele>118.21</ele>
      </trkpt>
      <trkpt lat="41.68107748031616" lon="2.8003764152526855">
        <ele>119.98</ele>
      </trkpt>
      <trkpt lat="41.68094873428345" lon="2.8003978729248047">
        <ele>122.03</ele>
      </trkpt>
      <trkpt lat="41.68079853057861" lon="2.8002262115478516">
        <ele>124.29</ele>
      </trkpt>
      <trkpt lat="41.680658888071775" lon="2.799946926534176">
        <ele>126.67</ele>
      </trkpt>
      <trkpt lat="41.680519580841064" lon="2.799668312072754">
        <ele>129.15</ele>
      </trkpt>
      <trkpt lat="41.68032629415393" lon="2.799410652369261">
        <ele>131.79</ele>
      </trkpt>
      <trkpt lat="41.68013334274292" lon="2.7991533279418945">
        <ele>134.57</ele>
      </trkpt>
      <trkpt lat="41.679940056055784" lon="2.798884939402342">
        <ele>137.04</ele>
      </trkpt>
      <trkpt lat="41.679747104644775" lon="2.798616886138916">
        <ele>139.21</ele>
      </trkpt>
      <trkpt lat="41.679607629776" lon="2.7984988689422607">
        <ele>141.47</ele>
      </trkpt>
      <trkpt lat="41.67946815490723" lon="2.7983808517456055">
        <ele>143.52</ele>
      </trkpt>
      <trkpt lat="41.67940378189087" lon="2.798595428466797">
        <ele>145.0</ele>
      </trkpt>
      <trkpt lat="41.67936086654663" lon="2.798638343811035">
        <ele>146.17</ele>
      </trkpt>
      <trkpt lat="41.679275119677186" lon="2.7986598014831543">
        <ele>147.03</ele>
      </trkpt>
      <trkpt lat="41.6791033744812" lon="2.798638343811035">
        <ele>147.58</ele>
      </trkpt>
      <trkpt lat="41.67891025543213" lon="2.7985525131225586">
        <ele>147.74</ele>
      </trkpt>
      <trkpt lat="41.67880296707153" lon="2.7984023094177246">
        <ele>147.3</ele>
      </trkpt>
      <trkpt lat="41.678781509399414" lon="2.798316478729248">
        <ele>146.41</ele>
      </trkpt>
      <trkpt lat="41.6786527633667" lon="2.7983808517456055">
        <ele>145.05</ele>
      </trkpt>
      <trkpt lat="41.67856693267822" lon="2.7982735633850098">
        <ele>143.11</ele>
      </trkpt>
      <trkpt lat="41.678481101989746" lon="2.7984023094177246">
        <ele>140.92</ele>
      </trkpt>
      <trkpt lat="41.678309524431825" lon="2.7982306480407715">
        <ele>137.86</ele>
      </trkpt>
      <trkpt lat="41.67841681279242" lon="2.798037277534604">
        <ele>134.8</ele>
      </trkpt>
      <trkpt lat="41.678524017333984" lon="2.797844409942627">
        <ele>131.33</ele>
      </trkpt>
      <trkpt lat="41.67838445864618" lon="2.7976941224187613">
        <ele>126.89</ele>
      </trkpt>
      <trkpt lat="41.678245067596436" lon="2.797544002532959">
        <ele>122.21</ele>
      </trkpt>
      <trkpt lat="41.678223609924316" lon="2.797565460205078">
        <ele>117.85</ele>
      </trkpt>
      <trkpt lat="41.678030490875244" lon="2.7973508834838867">
        <ele>112.58</ele>
      </trkpt>
      <trkpt lat="41.67813777923584" lon="2.7971363067626953">
        <ele>107.46</ele>
      </trkpt>
      <trkpt lat="41.67796611785889" lon="2.796943187713623">
        <ele>102.1</ele>
      </trkpt>
      <trkpt lat="41.678127218037844" lon="2.796642445027828">
        <ele>96.7</ele>
      </trkpt>
      <trkpt lat="41.678287982940674" lon="2.796342372894287">
        <ele>91.36</ele>
      </trkpt>
      <trkpt lat="41.67808413505554" lon="2.796524679288268">
        <ele>86.57</ele>
      </trkpt>
      <trkpt lat="41.67788028717041" lon="2.7967071533203125">
        <ele>81.85</ele>
      </trkpt>
      <trkpt lat="41.677751541137695" lon="2.7966856956481934">
        <ele>76.81</ele>
      </trkpt>
      <trkpt lat="41.67766579426825" lon="2.796492576599121">
        <ele>71.54</ele>
      </trkpt>
      <trkpt lat="41.67750268243253" lon="2.7963295485824347">
        <ele>66.52</ele>
      </trkpt>
      <trkpt lat="41.67745113372803" lon="2.7962779998779297">
        <ele>61.8</ele>
      </trkpt>
      <trkpt lat="41.67730093002319" lon="2.7962350845336914">
        <ele>57.11</ele>
      </trkpt>
      <trkpt lat="41.677150558680296" lon="2.795945070683956">
        <ele>52.33</ele>
      </trkpt>
      <trkpt lat="41.677000522613525" lon="2.7956557273864746">
        <ele>47.56</ele>
      </trkpt>
      <trkpt lat="41.67682886123657" lon="2.7956771850585938">
        <ele>43.07</ele>
      </trkpt>
      <trkpt lat="41.67676432058215" lon="2.7954729180783033">
        <ele>39.01</ele>
      </trkpt>
      <trkpt lat="41.67670011520386" lon="2.79526948928833">
        <ele>35.15</ele>
      </trkpt>
      <trkpt lat="41.67653909884393" lon="2.7950547449290752">
        <ele>31.46</ele>
      </trkpt>
      <trkpt lat="41.67637825012207" lon="2.7948403358459473">
        <ele>28.24</ele>
      </trkpt>
      <trkpt lat="41.67631387710571" lon="2.7946901321411133">
        <ele>25.42</ele>
      </trkpt>
      <trkpt lat="41.67614221572876" lon="2.794497013092041">
        <ele>22.8</ele>
      </trkpt>
      <trkpt lat="41.675981199368834" lon="2.794325267896056">
        <ele>20.43</ele>
      </trkpt>
      <trkpt lat="41.67582035064697" lon="2.7941536903381348">
        <ele>18.35</ele>
      </trkpt>
      <trkpt lat="41.67588472366333" lon="2.7939605712890625">
        <ele>16.7</ele>
      </trkpt>
      <trkpt lat="41.67579889297485" lon="2.7937674522399902">
        <ele>15.26</ele>
      </trkpt>
      <trkpt lat="41.67592763900757" lon="2.793595790863037">
        <ele>14.17</ele>
      </trkpt>
      <trkpt lat="41.67588472366333" lon="2.793445587158203">
        <ele>13.13</ele>
      </trkpt>
      <trkpt lat="41.67571322992444" lon="2.7935420628637075">
        <ele>12.07</ele>
      </trkpt>
      <trkpt lat="41.675541484728456" lon="2.7936387062072754">
        <ele>11.17</ele>
      </trkpt>
      <trkpt lat="41.675541400909424" lon="2.7936387062072754">
        <ele>10.61</ele>
      </trkpt>
      <trkpt lat="41.67538055218756" lon="2.7937459107488394">
        <ele>10.0</ele>
      </trkpt>
      <trkpt lat="41.67521953582764" lon="2.793853282928467">
        <ele>9.57</ele>
      </trkpt>
      <trkpt lat="41.675037145614624" lon="2.7940141316503286">
        <ele>9.26</ele>
      </trkpt>
      <trkpt lat="41.67485475540161" lon="2.794175148010254">
        <ele>9.12</ele>
      </trkpt>
      <trkpt lat="41.674747467041016" lon="2.7943038940429688">
        <ele>9.1</ele>
      </trkpt>
      <trkpt lat="41.67472609318793" lon="2.7942609786987305">
        <ele>9.17</ele>
      </trkpt>
      <trkpt lat="41.67457580566406" lon="2.794003486633301">
        <ele>9.3</ele>
      </trkpt>
      <trkpt lat="41.67442459613085" lon="2.793782791122794">
        <ele>9.53</ele>
      </trkpt>
      <trkpt lat="41.67426383122802" lon="2.793548097833991">
        <ele>9.83</ele>
      </trkpt>
      <trkpt lat="41.67410306632519" lon="2.7933134883642197">
        <ele>10.11</ele>
      </trkpt>
      <trkpt lat="41.67394230142236" lon="2.7930787950754166">
        <ele>10.36</ele>
      </trkpt>
      <trkpt lat="41.673781955614686" lon="2.792844772338867">
        <ele>10.49</ele>
      </trkpt>
      <trkpt lat="41.673781871795654" lon="2.792844772338867">
        <ele>10.67</ele>
      </trkpt>
      <trkpt lat="41.673594703897834" lon="2.7925840113312006">
        <ele>10.72</ele>
      </trkpt>
      <trkpt lat="41.673407619819045" lon="2.7923233341425657">
        <ele>10.77</ele>
      </trkpt>
      <trkpt lat="41.673220535740256" lon="2.792062656953931">
        <ele>10.84</ele>
      </trkpt>
      <trkpt lat="41.67303345166147" lon="2.791801979765296">
        <ele>10.88</ele>
      </trkpt>
      <trkpt lat="41.67284636758268" lon="2.7915412187576294">
        <ele>10.89</ele>
      </trkpt>
      <trkpt lat="41.67265928350389" lon="2.7912805415689945">
        <ele>10.95</ele>
      </trkpt>
      <trkpt lat="41.67247295379639" lon="2.7910208702087402">
        <ele>10.9</ele>
      </trkpt>
      <trkpt lat="41.672301376238465" lon="2.7909135818481445">
        <ele>10.7</ele>
      </trkpt>
      <trkpt lat="41.672301292419434" lon="2.7909135818481445">
        <ele>10.54</ele>
      </trkpt>
      <trkpt lat="41.67217254638672" lon="2.7908706665039062">
        <ele>10.26</ele>
      </trkpt>
      <trkpt lat="41.67197942733765" lon="2.790656089782715">
        <ele>9.96</ele>
      </trkpt>
      <trkpt lat="41.671807849779725" lon="2.7905595302581787">
        <ele>9.76</ele>
      </trkpt>
      <trkpt lat="41.67163610458374" lon="2.7904629707336426">
        <ele>9.53</ele>
      </trkpt>
      <trkpt lat="41.67141088284552" lon="2.79028058052063">
        <ele>9.25</ele>
      </trkpt>
      <trkpt lat="41.67118549346924" lon="2.790098190307617">
        <ele>8.8</ele>
      </trkpt>
      <trkpt lat="41.671035289764404" lon="2.789926528930664">
        <ele>8.43</ele>
      </trkpt>
      <trkpt lat="41.67090654373169" lon="2.789797782897949">
        <ele>8.05</ele>
      </trkpt>
      <trkpt lat="41.67086371220648" lon="2.7898192405700684">
        <ele>7.7</ele>
      </trkpt>
      <trkpt lat="41.67071342468262" lon="2.7896475791931152">
        <ele>7.34</ele>
      </trkpt>
      <trkpt lat="41.670584762468934" lon="2.7895188331604004">
        <ele>6.98</ele>
      </trkpt>
      <trkpt lat="41.670541847124696" lon="2.789475917816162">
        <ele>6.69</ele>
      </trkpt>
      <trkpt lat="41.670541763305664" lon="2.789475917816162">
        <ele>6.43</ele>
      </trkpt>
      <trkpt lat="41.67043757624924" lon="2.7893243730068207">
        <ele>6.2</ele>
      </trkpt>
      <trkpt lat="41.670253509655595" lon="2.7890566550195217">
        <ele>6.0</ele>
      </trkpt>
      <trkpt lat="41.670069778338075" lon="2.7887892723083496">
        <ele>5.87</ele>
      </trkpt>
      <trkpt lat="41.66985503397882" lon="2.7885101549327374">
        <ele>5.69</ele>
      </trkpt>
      <trkpt lat="41.66964054107666" lon="2.788231372833252">
        <ele>5.56</ele>
      </trkpt>
      <trkpt lat="41.66966208256781" lon="2.7881669998168945">
        <ele>5.59</ele>
      </trkpt>
      <trkpt lat="41.66966208256781" lon="2.7881455421447754">
        <ele>5.67</ele>
      </trkpt>
      <trkpt lat="41.669597709551454" lon="2.7880167961120605">
        <ele>5.83</ele>
      </trkpt>
      <trkpt lat="41.66961916722357" lon="2.7878451347351074">
        <ele>6.1</ele>
      </trkpt>
      <trkpt lat="41.66972637176514" lon="2.787759304046631">
        <ele>6.39</ele>
      </trkpt>
      <trkpt lat="41.669747829437256" lon="2.787480354309082">
        <ele>6.71</ele>
      </trkpt>
      <trkpt lat="41.669704830273986" lon="2.787243817001581">
        <ele>7.03</ele>
      </trkpt>
      <trkpt lat="41.66966208256781" lon="2.787008285522461">
        <ele>7.36</ele>
      </trkpt>
      <trkpt lat="41.66966199874878" lon="2.787008285522461">
        <ele>7.64</ele>
      </trkpt>
      <trkpt lat="41.669606091454625" lon="2.7866082172840834">
        <ele>7.91</ele>
      </trkpt>
      <trkpt lat="41.66955018416047" lon="2.7862082328647375">
        <ele>8.14</ele>
      </trkpt>
      <trkpt lat="41.66949427686632" lon="2.7858082484453917">
        <ele>8.31</ele>
      </trkpt>
      <trkpt lat="41.66943836957216" lon="2.785408264026046">
        <ele>8.43</ele>
      </trkpt>
      <trkpt lat="41.66938313283026" lon="2.785012722015381">
        <ele>8.63</ele>
      </trkpt>
      <trkpt lat="41.66931867599487" lon="2.7846479415893555">
        <ele>8.94</ele>
      </trkpt>
      <trkpt lat="41.66930794715881" lon="2.784325322136283">
        <ele>9.28</ele>
      </trkpt>
      <trkpt lat="41.669297302141786" lon="2.7840042114257812">
        <ele>9.47</ele>
      </trkpt>
      <trkpt lat="41.669281125068665" lon="2.7837304584681988">
        <ele>9.49</ele>
      </trkpt>
      <trkpt lat="41.66927584446967" lon="2.783639430999756">
        <ele>9.44</ele>
      </trkpt>
      <trkpt lat="41.669275760650635" lon="2.783639430999756">
        <ele>9.35</ele>
      </trkpt>
      <trkpt lat="41.66924709454179" lon="2.7832307294011116">
        <ele>9.14</ele>
      </trkpt>
      <trkpt lat="41.66921842843294" lon="2.782822111621499">
        <ele>8.78</ele>
      </trkpt>
      <trkpt lat="41.66919001378119" lon="2.782416343688965">
        <ele>8.4</ele>
      </trkpt>
      <trkpt lat="41.66919001378119" lon="2.7823948860168457">
        <ele>8.16</ele>
      </trkpt>
      <trkpt lat="41.66915765963495" lon="2.7819861844182014">
        <ele>7.93</ele>
      </trkpt>
      <trkpt lat="41.6691255569458" lon="2.7815794944763184">
        <ele>7.59</ele>
      </trkpt>
      <trkpt lat="41.66903955861926" lon="2.7813000418245792">
        <ele>7.23</ele>
      </trkpt>
      <trkpt lat="41.66895389556885" lon="2.7810215950012207">
        <ele>7.04</ele>
      </trkpt>
      <trkpt lat="41.668846691027284" lon="2.7808284759521484">
        <ele>6.89</ele>
      </trkpt>
      <trkpt lat="41.66884660720825" lon="2.7808284759521484">
        <ele>6.75</ele>
      </trkpt>
      <trkpt lat="41.66873940266669" lon="2.780613899230957">
        <ele>6.69</ele>
      </trkpt>
      <trkpt lat="41.668739318847656" lon="2.780613899230957">
        <ele>6.63</ele>
      </trkpt>
      <trkpt lat="41.668631862849" lon="2.780431341379881">
        <ele>6.61</ele>
      </trkpt>
      <trkpt lat="41.668524742126465" lon="2.7802491188049316">
        <ele>6.65</ele>
      </trkpt>
      <trkpt lat="41.668417286127806" lon="2.779980478808284">
        <ele>6.71</ele>
      </trkpt>
      <trkpt lat="41.668310249224305" lon="2.779712677001953">
        <ele>6.8</ele>
      </trkpt>
      <trkpt lat="41.66813850402832" lon="2.779369354248047">
        <ele>6.96</ele>
      </trkpt>
      <trkpt lat="41.66813850402832" lon="2.779262065887451">
        <ele>7.15</ele>
      </trkpt>
      <trkpt lat="41.668074214830995" lon="2.7791333198547363">
        <ele>7.36</ele>
      </trkpt>
      <trkpt lat="41.66807413101196" lon="2.7791333198547363">
        <ele>7.57</ele>
      </trkpt>
      <trkpt lat="41.667988300323486" lon="2.779090404510498">
        <ele>7.82</ele>
      </trkpt>
      <trkpt lat="41.66785393841565" lon="2.77874649502337">
        <ele>8.13</ele>
      </trkpt>
      <trkpt lat="41.66771966032684" lon="2.7784026693552732">
        <ele>8.45</ele>
      </trkpt>
      <trkpt lat="41.667585298419" lon="2.7780588436871767">
        <ele>8.68</ele>
      </trkpt>
      <trkpt lat="41.66745185852051" lon="2.777717113494873">
        <ele>8.89</ele>
      </trkpt>
      <trkpt lat="41.66733602061868" lon="2.7773282770067453">
        <ele>9.14</ele>
      </trkpt>
      <trkpt lat="41.667243568226695" lon="2.7770178113132715">
        <ele>9.38</ele>
      </trkpt>
      <trkpt lat="41.66715145111084" lon="2.7767086029052734">
        <ele>9.48</ele>
      </trkpt>
      <trkpt lat="41.66708691045642" lon="2.776353796944022">
        <ele>9.52</ele>
      </trkpt>
      <trkpt lat="41.667022705078125" lon="2.776000499725342">
        <ele>9.62</ele>
      </trkpt>
      <trkpt lat="41.666990434750915" lon="2.7757531497627497">
        <ele>9.69</ele>
      </trkpt>
      <trkpt lat="41.66695833206177" lon="2.7755069732666016">
        <ele>9.73</ele>
      </trkpt>
      <trkpt lat="41.667001247406006" lon="2.775442600250244">
        <ele>9.77</ele>
      </trkpt>
      <trkpt lat="41.667001247406006" lon="2.775270938873291">
        <ele>9.76</ele>
      </trkpt>
      <trkpt lat="41.667044162750244" lon="2.775099277496338">
        <ele>9.71</ele>
      </trkpt>
      <trkpt lat="41.667022705078125" lon="2.7750349044799805">
        <ele>9.69</ele>
      </trkpt>
      <trkpt lat="41.6671085357666" lon="2.774820327758789">
        <ele>9.66</ele>
      </trkpt>
      <trkpt lat="41.66718380525708" lon="2.774465521797538">
        <ele>9.59</ele>
      </trkpt>
      <trkpt lat="41.66725882329047" lon="2.7741122245788574">
        <ele>9.57</ele>
      </trkpt>
      <trkpt lat="41.667287489399314" lon="2.7737967297434807">
        <ele>9.49</ele>
      </trkpt>
      <trkpt lat="41.66731615550816" lon="2.7734813187271357">
        <ele>9.39</ele>
      </trkpt>
      <trkpt lat="41.667344653978944" lon="2.7731680870056152">
        <ele>9.34</ele>
      </trkpt>
      <trkpt lat="41.66736611165106" lon="2.772866925224662">
        <ele>9.39</ele>
      </trkpt>
      <trkpt lat="41.66738756932318" lon="2.7725672721862793">
        <ele>9.42</ele>
      </trkpt>
      <trkpt lat="41.66738748550415" lon="2.7724385261535645">
        <ele>9.42</ele>
      </trkpt>
      <trkpt lat="41.66739821434021" lon="2.7721696346998215">
        <ele>9.36</ele>
      </trkpt>
      <trkpt lat="41.66740894317627" lon="2.771902084350586">
        <ele>9.28</ele>
      </trkpt>
      <trkpt lat="41.66749485768378" lon="2.7716445922851562">
        <ele>9.2</ele>
      </trkpt>
      <trkpt lat="41.66760206222534" lon="2.7713871002197266">
        <ele>9.15</ele>
      </trkpt>
      <trkpt lat="41.66760214604437" lon="2.7713871002197266">
        <ele>9.11</ele>
      </trkpt>
      <trkpt lat="41.66768797673285" lon="2.7710866928100586">
        <ele>9.15</ele>
      </trkpt>
      <trkpt lat="41.66773089207709" lon="2.770807072520256">
        <ele>9.2</ele>
      </trkpt>
      <trkpt lat="41.667773723602295" lon="2.770528793334961">
        <ele>9.14</ele>
      </trkpt>
      <trkpt lat="41.66781663894653" lon="2.7701854705810547">
        <ele>9.0</ele>
      </trkpt>
      <trkpt lat="41.66788109578192" lon="2.7699920162558556">
        <ele>8.9</ele>
      </trkpt>
      <trkpt lat="41.66794538497925" lon="2.76979923248291">
        <ele>8.79</ele>
      </trkpt>
      <trkpt lat="41.668031299486756" lon="2.7695735078305006">
        <ele>8.73</ele>
      </trkpt>
      <trkpt lat="41.6681170463562" lon="2.769348621368408">
        <ele>8.66</ele>
      </trkpt>
      <trkpt lat="41.668288707733154" lon="2.7690482139587402">
        <ele>8.54</ele>
      </trkpt>
      <trkpt lat="41.66843899525702" lon="2.7691125869750977">
        <ele>8.43</ele>
      </trkpt>
      <trkpt lat="41.66843891143799" lon="2.7690696716308594">
        <ele>8.32</ele>
      </trkpt>
      <trkpt lat="41.66846045292914" lon="2.7690482139587402">
        <ele>8.2</ele>
      </trkpt>
      <trkpt lat="41.66846045292914" lon="2.769005298614502">
        <ele>8.1</ele>
      </trkpt>
      <trkpt lat="41.66848182678223" lon="2.7689409255981445">
        <ele>8.0</ele>
      </trkpt>
      <trkpt lat="41.668524742126465" lon="2.7687907218933105">
        <ele>7.9</ele>
      </trkpt>
      <trkpt lat="41.668546199798584" lon="2.7685546875">
        <ele>7.8</ele>
      </trkpt>
      <trkpt lat="41.66861057281494" lon="2.768232822418213">
        <ele>7.76</ele>
      </trkpt>
      <trkpt lat="41.668824814260006" lon="2.7682541962713003">
        <ele>7.66</ele>
      </trkpt>
      <trkpt lat="41.669039726257324" lon="2.768275737762451">
        <ele>7.49</ele>
      </trkpt>
      <trkpt lat="41.66928447782993" lon="2.7683369256556034">
        <ele>7.37</ele>
      </trkpt>
      <trkpt lat="41.669547921046615" lon="2.7684027235955">
        <ele>7.33</ele>
      </trkpt>
      <trkpt lat="41.66981220245361" lon="2.7684688568115234">
        <ele>7.28</ele>
      </trkpt>
      <trkpt lat="41.67006969451904" lon="2.7684688568115234">
        <ele>7.27</ele>
      </trkpt>
      <trkpt lat="41.67011260986328" lon="2.768125534057617">
        <ele>7.19</ele>
      </trkpt>
      <trkpt lat="41.670241355895996" lon="2.7679967880249023">
        <ele>7.05</ele>
      </trkpt>
      <trkpt lat="41.67049842886627" lon="2.767953872680664">
        <ele>6.88</ele>
      </trkpt>
      <trkpt lat="41.670756340026855" lon="2.767910957336426">
        <ele>6.87</ele>
      </trkpt>
      <trkpt lat="41.670997655019164" lon="2.7676749229431152">
        <ele>6.99</ele>
      </trkpt>
      <trkpt lat="41.671239053830504" lon="2.7674388885498047">
        <ele>7.14</ele>
      </trkpt>
      <trkpt lat="41.67148036882281" lon="2.767202937975526">
        <ele>7.3</ele>
      </trkpt>
      <trkpt lat="41.67172193527222" lon="2.7669668197631836">
        <ele>7.4</ele>
      </trkpt>
      <trkpt lat="41.671886472031474" lon="2.7667306177318096">
        <ele>7.52</ele>
      </trkpt>
      <trkpt lat="41.67205109260976" lon="2.7664944157004356">
        <ele>7.64</ele>
      </trkpt>
      <trkpt lat="41.67221546173096" lon="2.766258716583252">
        <ele>7.78</ele>
      </trkpt>
      <trkpt lat="41.67236809618771" lon="2.7660509292036295">
        <ele>7.92</ele>
      </trkpt>
      <trkpt lat="41.672520730644464" lon="2.765843141824007">
        <ele>8.07</ele>
      </trkpt>
      <trkpt lat="41.672673197463155" lon="2.7656356897205114">
        <ele>8.23</ele>
      </trkpt>
      <trkpt lat="41.672830609604716" lon="2.765421364456415">
        <ele>8.43</ele>
      </trkpt>
      <trkpt lat="41.672987937927246" lon="2.765207290649414">
        <ele>8.6</ele>
      </trkpt>
      <trkpt lat="41.67315976694226" lon="2.7648850064724684">
        <ele>8.74</ele>
      </trkpt>
      <trkpt lat="41.67333126068115" lon="2.76456356048584">
        <ele>8.88</ele>
      </trkpt>
      <trkpt lat="41.673502922058105" lon="2.7643275260925293">
        <ele>9.06</ele>
      </trkpt>
      <trkpt lat="41.67367458343506" lon="2.7641987800598145">
        <ele>9.19</ele>
      </trkpt>
      <trkpt lat="41.67380349710584" lon="2.7645103354007006">
        <ele>9.2</ele>
      </trkpt>
      <trkpt lat="41.67393207550049" lon="2.7648210525512695">
        <ele>9.26</ele>
      </trkpt>
      <trkpt lat="41.67412527836859" lon="2.7651323564350605">
        <ele>9.37</ele>
      </trkpt>
      <trkpt lat="41.67431831359863" lon="2.7654433250427246">
        <ele>9.53</ele>
      </trkpt>
      <trkpt lat="41.674495339393616" lon="2.765674078837037">
        <ele>9.59</ele>
      </trkpt>
      <trkpt lat="41.67467244900763" lon="2.7659048326313496">
        <ele>9.62</ele>
      </trkpt>
      <trkpt lat="41.674849558621645" lon="2.766135586425662">
        <ele>9.65</ele>
      </trkpt>
      <trkpt lat="41.675026416778564" lon="2.7663660049438477">
        <ele>9.57</ele>
      </trkpt>
      <trkpt lat="41.675183828920126" lon="2.7665877901017666">
        <ele>9.56</ele>
      </trkpt>
      <trkpt lat="41.67534124106169" lon="2.7668096590787172">
        <ele>9.59</ele>
      </trkpt>
      <trkpt lat="41.675498485565186" lon="2.767031192779541">
        <ele>9.6</ele>
      </trkpt>
      <trkpt lat="41.67561650276184" lon="2.767181396484375">
        <ele>9.49</ele>
      </trkpt>
      <trkpt lat="41.67573460377753" lon="2.767331600189209">
        <ele>9.33</ele>
      </trkpt>
      <trkpt lat="41.6759277228266" lon="2.767578447237611">
        <ele>9.19</ele>
      </trkpt>
      <trkpt lat="41.67612075805664" lon="2.767825126647949">
        <ele>9.22</ele>
      </trkpt>
      <trkpt lat="41.676013469696045" lon="2.7675461769104004">
        <ele>8.97</ele>
      </trkpt>
      <trkpt lat="41.67584180831909" lon="2.767202854156494">
        <ele>8.89</ele>
      </trkpt>
      <trkpt lat="41.67590618133545" lon="2.7669882774353027">
        <ele>8.83</ele>
      </trkpt>
      <trkpt lat="41.67609930038452" lon="2.7666878700256348">
        <ele>8.72</ele>
      </trkpt>
      <trkpt lat="41.676281690597534" lon="2.766494667157531">
        <ele>8.67</ele>
      </trkpt>
      <trkpt lat="41.67646408081055" lon="2.7663016319274902">
        <ele>8.69</ele>
      </trkpt>
      <trkpt lat="41.67669340968132" lon="2.7660188265144825">
        <ele>8.65</ele>
      </trkpt>
      <trkpt lat="41.67692273855209" lon="2.7657361049205065">
        <ele>8.6</ele>
      </trkpt>
      <trkpt lat="41.6771518997848" lon="2.7654536347836256">
        <ele>8.69</ele>
      </trkpt>
      <trkpt lat="41.67737158946693" lon="2.7651827316731215">
        <ele>8.74</ele>
      </trkpt>
      <trkpt lat="41.677591279149055" lon="2.7649118285626173">
        <ele>8.92</ele>
      </trkpt>
      <trkpt lat="41.67781096883118" lon="2.764641009271145">
        <ele>9.13</ele>
      </trkpt>
      <trkpt lat="41.678030490875244" lon="2.7643704414367676">
        <ele>9.31</ele>
      </trkpt>
      <trkpt lat="41.678234338760376" lon="2.7641486562788486">
        <ele>9.45</ele>
      </trkpt>
      <trkpt lat="41.67843818664551" lon="2.7639269549399614">
        <ele>9.58</ele>
      </trkpt>
      <trkpt lat="41.67864203453064" lon="2.7637051697820425">
        <ele>9.79</ele>
      </trkpt>
      <trkpt lat="41.67884588241577" lon="2.7634834684431553">
        <ele>10.1</ele>
      </trkpt>
      <trkpt lat="41.6790497303009" lon="2.7632616832852364">
        <ele>10.4</ele>
      </trkpt>
      <trkpt lat="41.679253578186035" lon="2.763040065765381">
        <ele>10.73</ele>
      </trkpt>
      <trkpt lat="41.679510651156306" lon="2.7630614396184683">
        <ele>10.99</ele>
      </trkpt>
      <trkpt lat="41.679768562316895" lon="2.763082981109619">
        <ele>11.26</ele>
      </trkpt>
      <trkpt lat="41.68000426143408" lon="2.7630507946014404">
        <ele>11.52</ele>
      </trkpt>
      <trkpt lat="41.680240631103516" lon="2.7630186080932617">
        <ele>11.79</ele>
      </trkpt>
      <trkpt lat="41.68032646179199" lon="2.763082981109619">
        <ele>12.06</ele>
      </trkpt>
      <trkpt lat="41.68034791946411" lon="2.7634048461914062">
        <ele>12.33</ele>
      </trkpt>
      <trkpt lat="41.68039083480835" lon="2.763490676879883">
        <ele>12.58</ele>
      </trkpt>
      <trkpt lat="41.68067657388747" lon="2.7636121306568384">
        <ele>12.86</ele>
      </trkpt>
      <trkpt lat="41.68096239678562" lon="2.763733584433794">
        <ele>13.11</ele>
      </trkpt>
      <trkpt lat="41.681249141693115" lon="2.763855457305908">
        <ele>13.46</ele>
      </trkpt>
      <trkpt lat="41.68152783997357" lon="2.7640162222087383">
        <ele>13.72</ele>
      </trkpt>
      <trkpt lat="41.68180704116821" lon="2.7641773223876953">
        <ele>13.86</ele>
      </trkpt>
      <trkpt lat="41.68192254379392" lon="2.764292825013399">
        <ele>14.01</ele>
      </trkpt>
      <trkpt lat="41.68195724487305" lon="2.7643275260925293">
        <ele>14.18</ele>
      </trkpt>
      <trkpt lat="41.68225010856986" lon="2.7644346468150616">
        <ele>14.43</ele>
      </trkpt>
      <trkpt lat="41.682543056085706" lon="2.764541767537594">
        <ele>14.71</ele>
      </trkpt>
      <trkpt lat="41.68283700942993" lon="2.7646493911743164">
        <ele>14.83</ele>
      </trkpt>
      <trkpt lat="41.683072708547115" lon="2.764663640409708">
        <ele>14.88</ele>
      </trkpt>
      <trkpt lat="41.6833084076643" lon="2.7646778896450996">
        <ele>15.0</ele>
      </trkpt>
      <trkpt lat="41.683545196428895" lon="2.7646923065185547">
        <ele>15.04</ele>
      </trkpt>
      <trkpt lat="41.68370579369366" lon="2.7646708488464355">
        <ele>15.08</ele>
      </trkpt>
      <trkpt lat="41.68386697769165" lon="2.7646493911743164">
        <ele>15.11</ele>
      </trkpt>
      <trkpt lat="41.683852560818195" lon="2.7642550226300955">
        <ele>15.19</ele>
      </trkpt>
      <trkpt lat="41.68383822776377" lon="2.7638607379049063">
        <ele>15.14</ele>
      </trkpt>
      <trkpt lat="41.68382406234741" lon="2.7634692192077637">
        <ele>15.03</ele>
      </trkpt>
      <trkpt lat="41.68380252085626" lon="2.7631179336458445">
        <ele>14.92</ele>
      </trkpt>
      <trkpt lat="41.68378097936511" lon="2.7627666480839252">
        <ele>14.82</ele>
      </trkpt>
      <trkpt lat="41.683759689331055" lon="2.762417793273926">
        <ele>14.77</ele>
      </trkpt>
      <trkpt lat="41.683770418167114" lon="2.762191900983453">
        <ele>14.77</ele>
      </trkpt>
      <trkpt lat="41.683781230822206" lon="2.761967182159424">
        <ele>14.83</ele>
      </trkpt>
      <trkpt lat="41.68384560383856" lon="2.7617737278342247">
        <ele>14.91</ele>
      </trkpt>
      <trkpt lat="41.68390989303589" lon="2.7615809440612793">
        <ele>15.0</ele>
      </trkpt>
      <trkpt lat="41.68408155441284" lon="2.761237621307373">
        <ele>15.14</ele>
      </trkpt>
      <trkpt lat="41.6840922832489" lon="2.760904189199209">
        <ele>15.26</ele>
      </trkpt>
      <trkpt lat="41.68410301208496" lon="2.7605724334716797">
        <ele>15.32</ele>
      </trkpt>
      <trkpt lat="41.6841459274292" lon="2.760443687438965">
        <ele>15.26</ele>
      </trkpt>
      <trkpt lat="41.684174090623856" lon="2.760396832600236">
        <ele>15.19</ele>
      </trkpt>
      <trkpt lat="41.684174006804824" lon="2.760396832600236">
        <ele>15.1</ele>
      </trkpt>
      <trkpt lat="41.684274673461914" lon="2.7602291107177734">
        <ele>14.94</ele>
      </trkpt>
      <trkpt lat="41.684231758117676" lon="2.760035991668701">
        <ele>14.76</ele>
      </trkpt>
      <trkpt lat="41.68416738510132" lon="2.7599072456359863">
        <ele>14.58</ele>
      </trkpt>
      <trkpt lat="41.68406009674072" lon="2.7598214149475098">
        <ele>14.39</ele>
      </trkpt>
      <trkpt lat="41.683856416493654" lon="2.7597249392420053">
        <ele>14.2</ele>
      </trkpt>
      <trkpt lat="41.68365240097046" lon="2.7596282958984375">
        <ele>14.04</ele>
      </trkpt>
      <trkpt lat="41.6835880279541" lon="2.75956392288208">
        <ele>13.84</ele>
      </trkpt>
      <trkpt lat="41.683623818680644" lon="2.7592484280467033">
        <ele>13.49</ele>
      </trkpt>
      <trkpt lat="41.68365969322622" lon="2.7589330170303583">
        <ele>13.29</ele>
      </trkpt>
      <trkpt lat="41.6836953163147" lon="2.758619785308838">
        <ele>13.16</ele>
      </trkpt>
      <trkpt lat="41.68370604515076" lon="2.7583294361829758">
        <ele>13.09</ele>
      </trkpt>
      <trkpt lat="41.683716773986816" lon="2.758040428161621">
        <ele>12.98</ele>
      </trkpt>
      <trkpt lat="41.683716773986816" lon="2.757997512817383">
        <ele>12.9</ele>
      </trkpt>
      <trkpt lat="41.68369540013373" lon="2.757868766784668">
        <ele>12.85</ele>
      </trkpt>
      <trkpt lat="41.6836953163147" lon="2.757868766784668">
        <ele>12.86</ele>
      </trkpt>
      <trkpt lat="41.683770501986146" lon="2.7574709616601467">
        <ele>12.9</ele>
      </trkpt>
      <trkpt lat="41.683845771476626" lon="2.7570731565356255">
        <ele>12.98</ele>
      </trkpt>
      <trkpt lat="41.68392104096711" lon="2.756675351411104">
        <ele>13.1</ele>
      </trkpt>
      <trkpt lat="41.683995723724365" lon="2.7562808990478516">
        <ele>13.26</ele>
      </trkpt>
      <trkpt lat="41.68406009674072" lon="2.7561092376708984">
        <ele>13.43</ele>
      </trkpt>
      <trkpt lat="41.68429613113403" lon="2.75606632232666">
        <ele>13.68</ele>
      </trkpt>
      <trkpt lat="41.6845965385437" lon="2.7560877799987793">
        <ele>13.98</ele>
      </trkpt>
      <trkpt lat="41.68484321795404" lon="2.755873203277588">
        <ele>14.31</ele>
      </trkpt>
      <trkpt lat="41.68509006500244" lon="2.7556586265563965">
        <ele>14.62</ele>
      </trkpt>
      <trkpt lat="41.6851544380188" lon="2.7556371688842773">
        <ele>14.88</ele>
      </trkpt>
      <trkpt lat="41.68518234975636" lon="2.7556441258639097">
        <ele>15.13</ele>
      </trkpt>
      <trkpt lat="41.68532609939575" lon="2.7556800842285156">
        <ele>15.41</ele>
      </trkpt>
      <trkpt lat="41.68562650680542" lon="2.7556800842285156">
        <ele>15.65</ele>
      </trkpt>
      <trkpt lat="41.68587293475866" lon="2.755701458081603">
        <ele>15.91</ele>
      </trkpt>
      <trkpt lat="41.68612011708319" lon="2.755722999572754">
        <ele>16.08</ele>
      </trkpt>
      <trkpt lat="41.686248779296875" lon="2.7557015419006348">
        <ele>16.18</ele>
      </trkpt>
      <trkpt lat="41.686484813690186" lon="2.7554869651794434">
        <ele>16.22</ele>
      </trkpt>
      <trkpt lat="41.68657064437866" lon="2.7552080154418945">
        <ele>16.2</ele>
      </trkpt>
      <trkpt lat="41.68665647506714" lon="2.7550578117370605">
        <ele>16.09</ele>
      </trkpt>
      <trkpt lat="41.686827884987" lon="2.7549827098846436">
        <ele>16.02</ele>
      </trkpt>
      <trkpt lat="41.686999797821045" lon="2.7549076080322266">
        <ele>15.99</ele>
      </trkpt>
      <trkpt lat="41.687160562723875" lon="2.7548110485076904">
        <ele>15.94</ele>
      </trkpt>
      <trkpt lat="41.68732166290283" lon="2.7547144889831543">
        <ele>15.91</ele>
      </trkpt>
      <trkpt lat="41.68752542696893" lon="2.7545106410980225">
        <ele>15.91</ele>
      </trkpt>
      <trkpt lat="41.687729358673096" lon="2.7543067932128906">
        <ele>15.76</ele>
      </trkpt>
      <trkpt lat="41.68779373168945" lon="2.7542638778686523">
        <ele>15.62</ele>
      </trkpt>
      <trkpt lat="41.68785810470581" lon="2.754242420196533">
        <ele>15.47</ele>
      </trkpt>
      <trkpt lat="41.68785810470581" lon="2.754092216491699">
        <ele>15.29</ele>
      </trkpt>
      <trkpt lat="41.68769717216492" lon="2.7539420127868652">
        <ele>15.12</ele>
      </trkpt>
      <trkpt lat="41.687536323443055" lon="2.7537918090820312">
        <ele>14.94</ele>
      </trkpt>
      <trkpt lat="41.68745040893555" lon="2.753727436065674">
        <ele>14.79</ele>
      </trkpt>
      <trkpt lat="41.68733222410083" lon="2.7534480672329664">
        <ele>14.65</ele>
      </trkpt>
      <trkpt lat="41.68721445836127" lon="2.753169536590576">
        <ele>14.55</ele>
      </trkpt>
      <trkpt lat="41.687235832214355" lon="2.752976417541504">
        <ele>14.44</ele>
      </trkpt>
      <trkpt lat="41.68734312057495" lon="2.7526330947875977">
        <ele>14.32</ele>
      </trkpt>
      <trkpt lat="41.68735267594457" lon="2.75260828435421">
        <ele>14.27</ele>
      </trkpt>
      <trkpt lat="41.687468430027366" lon="2.752308212220669">
        <ele>14.23</ele>
      </trkpt>
      <trkpt lat="41.687584267929196" lon="2.7520082239061594">
        <ele>14.2</ele>
      </trkpt>
      <trkpt lat="41.687700022011995" lon="2.7517081517726183">
        <ele>14.26</ele>
      </trkpt>
      <trkpt lat="41.68781518936157" lon="2.7514100074768066">
        <ele>14.33</ele>
      </trkpt>
      <trkpt lat="41.6879709251225" lon="2.7511038165539503">
        <ele>14.3</ele>
      </trkpt>
      <trkpt lat="41.68812666088343" lon="2.7507977094501257">
        <ele>14.33</ele>
      </trkpt>
      <trkpt lat="41.688282396644354" lon="2.750491602346301">
        <ele>14.48</ele>
      </trkpt>
      <trkpt lat="41.68843746185303" lon="2.7501869201660156">
        <ele>14.65</ele>
      </trkpt>
      <trkpt lat="41.68854475021362" lon="2.749907970428467">
        <ele>14.75</ele>
      </trkpt>
      <trkpt lat="41.68865220621228" lon="2.7495941519737244">
        <ele>14.8</ele>
      </trkpt>
      <trkpt lat="41.68875966221094" lon="2.749280333518982">
        <ele>14.88</ele>
      </trkpt>
      <trkpt lat="41.6888671182096" lon="2.7489665150642395">
        <ele>14.99</ele>
      </trkpt>
      <trkpt lat="41.68897457420826" lon="2.748652696609497">
        <ele>15.02</ele>
      </trkpt>
      <trkpt lat="41.6890811920166" lon="2.7483415603637695">
        <ele>15.02</ele>
      </trkpt>
      <trkpt lat="41.68922075070441" lon="2.748105274513364">
        <ele>15.07</ele>
      </trkpt>
      <trkpt lat="41.68936022557318" lon="2.7478694915771484">
        <ele>15.14</ele>
      </trkpt>
      <trkpt lat="41.689467430114746" lon="2.7475690841674805">
        <ele>15.26</ele>
      </trkpt>
      <trkpt lat="41.68963925912976" lon="2.747236071154475">
        <ele>15.28</ele>
      </trkpt>
      <trkpt lat="41.68981075286865" lon="2.746903896331787">
        <ele>15.36</ele>
      </trkpt>
      <trkpt lat="41.68993421830237" lon="2.746598208323121">
        <ele>15.49</ele>
      </trkpt>
      <trkpt lat="41.69005776755512" lon="2.7462926041334867">
        <ele>15.54</ele>
      </trkpt>
      <trkpt lat="41.690180813893676" lon="2.7459884248673916">
        <ele>15.54</ele>
      </trkpt>
      <trkpt lat="41.690218448638916" lon="2.7458953857421875">
        <ele>15.58</ele>
      </trkpt>
      <trkpt lat="41.69043302536011" lon="2.745659351348877">
        <ele>15.66</ele>
      </trkpt>
      <trkpt lat="41.690551126375794" lon="2.7454660646617413">
        <ele>15.78</ele>
      </trkpt>
      <trkpt lat="41.69066905975342" lon="2.7452731132507324">
        <ele>15.89</ele>
      </trkpt>
      <trkpt lat="41.6908217780292" lon="2.744926940649748">
        <ele>15.9</ele>
      </trkpt>
      <trkpt lat="41.69097458012402" lon="2.7445807680487633">
        <ele>16.06</ele>
      </trkpt>
      <trkpt lat="41.69112738221884" lon="2.7442345954477787">
        <ele>16.23</ele>
      </trkpt>
      <trkpt lat="41.691280184313655" lon="2.743888422846794">
        <ele>16.46</ele>
      </trkpt>
      <trkpt lat="41.69143298640847" lon="2.7435422502458096">
        <ele>16.59</ele>
      </trkpt>
      <trkpt lat="41.69158578850329" lon="2.743196077644825">
        <ele>16.64</ele>
      </trkpt>
      <trkpt lat="41.691738590598106" lon="2.7428499050438404">
        <ele>16.7</ele>
      </trkpt>
      <trkpt lat="41.69189139269292" lon="2.742503732442856">
        <ele>16.95</ele>
      </trkpt>
      <trkpt lat="41.69204235076904" lon="2.742161750793457">
        <ele>17.1</ele>
      </trkpt>
      <trkpt lat="41.692214012145996" lon="2.741818428039551">
        <ele>17.13</ele>
      </trkpt>
      <trkpt lat="41.69236429966986" lon="2.741539143025875">
        <ele>17.22</ele>
      </trkpt>
      <trkpt lat="41.69251467101276" lon="2.741259941831231">
        <ele>17.46</ele>
      </trkpt>
      <trkpt lat="41.69266504235566" lon="2.7409806568175554">
        <ele>17.64</ele>
      </trkpt>
      <trkpt lat="41.69281482696533" lon="2.7407026290893555">
        <ele>17.77</ele>
      </trkpt>
      <trkpt lat="41.69294365681708" lon="2.7405093424022198">
        <ele>17.87</ele>
      </trkpt>
      <trkpt lat="41.69307231903076" lon="2.740316390991211">
        <ele>18.06</ele>
      </trkpt>
      <trkpt lat="41.69320106506348" lon="2.7401661034673452">
        <ele>18.08</ele>
      </trkpt>
      <trkpt lat="41.69332981109619" lon="2.740015983581543">
        <ele>18.14</ele>
      </trkpt>
      <trkpt lat="41.69320089742541" lon="2.7398226968944073">
        <ele>18.03</ele>
      </trkpt>
      <trkpt lat="41.69307231903076" lon="2.7396297454833984">
        <ele>17.92</ele>
      </trkpt>
      <trkpt lat="41.693115234375" lon="2.7393507957458496">
        <ele>17.81</ele>
      </trkpt>
      <trkpt lat="41.693265438079834" lon="2.7390289306640625">
        <ele>17.68</ele>
      </trkpt>
      <trkpt lat="41.69345864094794" lon="2.7387067303061485">
        <ele>17.53</ele>
      </trkpt>
      <trkpt lat="41.693651927635074" lon="2.7383846137672663">
        <ele>17.44</ele>
      </trkpt>
      <trkpt lat="41.69384521432221" lon="2.738062497228384">
        <ele>17.28</ele>
      </trkpt>
      <trkpt lat="41.694038501009345" lon="2.7377403806895018">
        <ele>17.05</ele>
      </trkpt>
      <trkpt lat="41.694231033325195" lon="2.737419605255127">
        <ele>16.92</ele>
      </trkpt>
      <trkpt lat="41.694409903138876" lon="2.7371547371149063">
        <ele>16.82</ele>
      </trkpt>
      <trkpt lat="41.69458885677159" lon="2.7368899527937174">
        <ele>16.63</ele>
      </trkpt>
      <trkpt lat="41.694767475128174" lon="2.7366256713867188">
        <ele>16.51</ele>
      </trkpt>
      <trkpt lat="41.694955229759216" lon="2.736384104937315">
        <ele>16.32</ele>
      </trkpt>
      <trkpt lat="41.69514306820929" lon="2.736142622306943">
        <ele>16.16</ele>
      </trkpt>
      <trkpt lat="41.695330906659365" lon="2.735901139676571">
        <ele>16.09</ele>
      </trkpt>
      <trkpt lat="41.695518493652344" lon="2.7356600761413574">
        <ele>16.03</ele>
      </trkpt>
      <trkpt lat="41.69573835097253" lon="2.7354294061660767">
        <ele>15.98</ele>
      </trkpt>
      <trkpt lat="41.695958292111754" lon="2.735198736190796">
        <ele>15.95</ele>
      </trkpt>
      <trkpt lat="41.696178233250976" lon="2.734968066215515">
        <ele>15.97</ele>
      </trkpt>
      <trkpt lat="41.69639825820923" lon="2.7347373962402344">
        <ele>16.15</ele>
      </trkpt>
      <trkpt lat="41.69661275111139" lon="2.7345335483551025">
        <ele>16.42</ele>
      </trkpt>
      <trkpt lat="41.69682732783258" lon="2.7343297004699707">
        <ele>16.66</ele>
      </trkpt>
      <trkpt lat="41.69704182073474" lon="2.7341259364038706">
        <ele>16.93</ele>
      </trkpt>
      <trkpt lat="41.69725639745593" lon="2.7339220885187387">
        <ele>17.27</ele>
      </trkpt>
      <trkpt lat="41.69747089035809" lon="2.7337183244526386">
        <ele>17.59</ele>
      </trkpt>
      <trkpt lat="41.69768571853638" lon="2.7335143089294434">
        <ele>17.83</ele>
      </trkpt>
      <trkpt lat="41.69789291918278" lon="2.733328817412257">
        <ele>18.06</ele>
      </trkpt>
      <trkpt lat="41.69810011982918" lon="2.7331434097141027">
        <ele>18.35</ele>
      </trkpt>
      <trkpt lat="41.69830740429461" lon="2.7329580020159483">
        <ele>18.66</ele>
      </trkpt>
      <trkpt lat="41.698514856398106" lon="2.7327724266797304">
        <ele>19.06</ele>
      </trkpt>
      <trkpt lat="41.698711747303605" lon="2.7325962390750647">
        <ele>19.48</ele>
      </trkpt>
      <trkpt lat="41.69890880584717" lon="2.732419967651367">
        <ele>19.97</ele>
      </trkpt>
      <trkpt lat="41.699128579348326" lon="2.7322375774383545">
        <ele>20.48</ele>
      </trkpt>
      <trkpt lat="41.699348436668515" lon="2.7320552710443735">
        <ele>20.91</ele>
      </trkpt>
      <trkpt lat="41.699568293988705" lon="2.7318729646503925">
        <ele>21.35</ele>
      </trkpt>
      <trkpt lat="41.69978857040405" lon="2.7316904067993164">
        <ele>21.78</ele>
      </trkpt>
      <trkpt lat="41.699960231781006" lon="2.73160457611084">
        <ele>22.25</ele>
      </trkpt>
      <trkpt lat="41.700185453519225" lon="2.731400728225708">
        <ele>22.71</ele>
      </trkpt>
      <trkpt lat="41.700410675257444" lon="2.731196964159608">
        <ele>23.08</ele>
      </trkpt>
      <trkpt lat="41.700635896995664" lon="2.730993116274476">
        <ele>23.41</ele>
      </trkpt>
      <trkpt lat="41.70086145401001" lon="2.7307891845703125">
        <ele>23.68</ele>
      </trkpt>
      <trkpt lat="41.70090436935425" lon="2.730703353881836">
        <ele>23.93</ele>
      </trkpt>
      <trkpt lat="41.70104376040399" lon="2.730574607849121">
        <ele>24.2</ele>
      </trkpt>
      <trkpt lat="41.7011833190918" lon="2.7304458618164062">
        <ele>24.45</ele>
      </trkpt>
      <trkpt lat="41.70140300877392" lon="2.7304458618164062">
        <ele>24.73</ele>
      </trkpt>
      <trkpt lat="41.70141935348511" lon="2.7304458618164062">
        <ele>24.8</ele>
      </trkpt>
      <trkpt lat="41.7015266418457" lon="2.730274200439453">
        <ele>24.78</ele>
      </trkpt>
      <trkpt lat="41.7016339302063" lon="2.7301883697509766">
        <ele>24.68</ele>
      </trkpt>
      <trkpt lat="41.701762676239014" lon="2.7301454544067383">
        <ele>24.55</ele>
      </trkpt>
      <trkpt lat="41.70184859074652" lon="2.730081081390381">
        <ele>24.34</ele>
      </trkpt>
      <trkpt lat="41.70186996459961" lon="2.729973793029785">
        <ele>24.04</ele>
      </trkpt>
      <trkpt lat="41.701977252960205" lon="2.7299094200134277">
        <ele>23.79</ele>
      </trkpt>
      <trkpt lat="41.70210599899292" lon="2.729930877685547">
        <ele>23.58</ele>
      </trkpt>
      <trkpt lat="41.7021918296814" lon="2.7298879623413086">
        <ele>23.31</ele>
      </trkpt>
      <trkpt lat="41.70223482884467" lon="2.729780673980713">
        <ele>22.99</ele>
      </trkpt>
      <trkpt lat="41.70229911804199" lon="2.729673385620117">
        <ele>22.67</ele>
      </trkpt>
      <trkpt lat="41.702213287353516" lon="2.729501724243164">
        <ele>22.29</ele>
      </trkpt>
      <trkpt lat="41.70242082327604" lon="2.7292082738131285">
        <ele>22.01</ele>
      </trkpt>
      <trkpt lat="41.70262835919857" lon="2.728914823383093">
        <ele>21.76</ele>
      </trkpt>
      <trkpt lat="41.70283555984497" lon="2.7286219596862793">
        <ele>21.55</ele>
      </trkpt>
      <trkpt lat="41.7029429320246" lon="2.72834250703454">
        <ele>21.42</ele>
      </trkpt>
      <trkpt lat="41.70305038802326" lon="2.7280631382018328">
        <ele>21.33</ele>
      </trkpt>
      <trkpt lat="41.70315742492676" lon="2.727785110473633">
        <ele>21.22</ele>
      </trkpt>
      <trkpt lat="41.70323261059821" lon="2.7275163866579533">
        <ele>21.09</ele>
      </trkpt>
      <trkpt lat="41.70330762863159" lon="2.7272486686706543">
        <ele>21.0</ele>
      </trkpt>
      <trkpt lat="41.70339345932007" lon="2.7271199226379395">
        <ele>21.0</ele>
      </trkpt>
      <trkpt lat="41.703479290008545" lon="2.727055549621582">
        <ele>21.03</ele>
      </trkpt>
      <trkpt lat="41.70356512069702" lon="2.727055549621582">
        <ele>21.13</ele>
      </trkpt>
      <trkpt lat="41.70377944596112" lon="2.727173399180174">
        <ele>21.23</ele>
      </trkpt>
      <trkpt lat="41.703994274139404" lon="2.7272915840148926">
        <ele>21.34</ele>
      </trkpt>
      <trkpt lat="41.7042085994035" lon="2.7274094335734844">
        <ele>21.51</ele>
      </trkpt>
      <trkpt lat="41.70442342758179" lon="2.727527618408203">
        <ele>21.85</ele>
      </trkpt>
      <trkpt lat="41.70453071594238" lon="2.727527618408203">
        <ele>22.08</ele>
      </trkpt>
      <trkpt lat="41.704702377319336" lon="2.7273130416870117">
        <ele>22.29</ele>
      </trkpt>
      <trkpt lat="41.70487403869629" lon="2.727034091949463">
        <ele>22.47</ele>
      </trkpt>
      <trkpt lat="41.705045867711306" lon="2.726690350100398">
        <ele>22.68</ele>
      </trkpt>
      <trkpt lat="41.705217361450195" lon="2.7263474464416504">
        <ele>22.82</ele>
      </trkpt>
      <trkpt lat="41.705260276794434" lon="2.7262401580810547">
        <ele>22.89</ele>
      </trkpt>
      <trkpt lat="41.705238819122314" lon="2.726154327392578">
        <ele>22.92</ele>
      </trkpt>
      <trkpt lat="41.70504595153034" lon="2.72611141204834">
        <ele>22.91</ele>
      </trkpt>
      <trkpt lat="41.70485258102417" lon="2.7260684967041016">
        <ele>22.86</ele>
      </trkpt>
      <trkpt lat="41.704702377319336" lon="2.725961208343506">
        <ele>22.85</ele>
      </trkpt>
      <trkpt lat="41.70443784445524" lon="2.7257681731134653">
        <ele>22.86</ele>
      </trkpt>
      <trkpt lat="41.70417331159115" lon="2.7255751378834248">
        <ele>22.89</ele>
      </trkpt>
      <trkpt lat="41.70390844345093" lon="2.725381851196289">
        <ele>22.79</ele>
      </trkpt>
      <trkpt lat="41.70384407043457" lon="2.7253174781799316">
        <ele>22.77</ele>
      </trkpt>
      <trkpt lat="41.70386552810669" lon="2.725188732147217">
        <ele>22.84</ele>
      </trkpt>
      <trkpt lat="41.703951358795166" lon="2.7248239517211914">
        <ele>22.99</ele>
      </trkpt>
      <trkpt lat="41.70403718948364" lon="2.7246522903442383">
        <ele>22.99</ele>
      </trkpt>
      <trkpt lat="41.70416601933539" lon="2.724426733329892">
        <ele>22.9</ele>
      </trkpt>
      <trkpt lat="41.70429468154907" lon="2.7242016792297363">
        <ele>22.85</ele>
      </trkpt>
      <trkpt lat="41.70441286638379" lon="2.7239114977419376">
        <ele>22.74</ele>
      </trkpt>
      <trkpt lat="41.70453071594238" lon="2.7236223220825195">
        <ele>22.66</ele>
      </trkpt>
      <trkpt lat="41.704688211902976" lon="2.723278496414423">
        <ele>22.56</ele>
      </trkpt>
      <trkpt lat="41.7048457916826" lon="2.722934754565358">
        <ele>22.53</ele>
      </trkpt>
      <trkpt lat="41.705002784729004" lon="2.722592353820801">
        <ele>22.71</ele>
      </trkpt>
      <trkpt lat="41.70515298843384" lon="2.722334861755371">
        <ele>22.95</ele>
      </trkpt>
      <trkpt lat="41.705238819122314" lon="2.722313404083252">
        <ele>23.22</ele>
      </trkpt>
      <trkpt lat="41.705399584025145" lon="2.7223884221166372">
        <ele>23.57</ele>
      </trkpt>
      <trkpt lat="41.7055606842041" lon="2.722463607788086">
        <ele>23.97</ele>
      </trkpt>
      <trkpt lat="41.70564651489258" lon="2.7224206924438477">
        <ele>24.46</ele>
      </trkpt>
      <trkpt lat="41.7057646997273" lon="2.722130510956049">
        <ele>25.04</ele>
      </trkpt>
      <trkpt lat="41.70588254928589" lon="2.721841335296631">
        <ele>25.66</ele>
      </trkpt>
      <trkpt lat="41.70597927644849" lon="2.7215834241360426">
        <ele>26.28</ele>
      </trkpt>
      <trkpt lat="41.70607575215399" lon="2.7213263511657715">
        <ele>26.91</ele>
      </trkpt>
      <trkpt lat="41.70620466582477" lon="2.7209824416786432">
        <ele>27.47</ele>
      </trkpt>
      <trkpt lat="41.70633324421942" lon="2.720639705657959">
        <ele>28.01</ele>
      </trkpt>
      <trkpt lat="41.70635470189154" lon="2.7205967903137207">
        <ele>28.44</ele>
      </trkpt>
      <trkpt lat="41.70659073628485" lon="2.7207040786743164">
        <ele>28.84</ele>
      </trkpt>
      <trkpt lat="41.7068696860224" lon="2.7208542823791504">
        <ele>29.1</ele>
      </trkpt>
      <trkpt lat="41.7070303671062" lon="2.7209400292485952">
        <ele>29.28</ele>
      </trkpt>
      <trkpt lat="41.707191467285156" lon="2.7210259437561035">
        <ele>29.38</ele>
      </trkpt>
      <trkpt lat="41.707261288538575" lon="2.7207087725400925">
        <ele>29.37</ele>
      </trkpt>
      <trkpt lat="41.707331193611026" lon="2.7203916013240814">
        <ele>29.18</ele>
      </trkpt>
      <trkpt lat="41.70740109868348" lon="2.720074513927102">
        <ele>29.0</ele>
      </trkpt>
      <trkpt lat="41.707470417022705" lon="2.719759941101074">
        <ele>28.73</ele>
      </trkpt>
      <trkpt lat="41.70736321248114" lon="2.719695568084717">
        <ele>28.47</ele>
      </trkpt>
      <trkpt lat="41.707234382629395" lon="2.7196526527404785">
        <ele>28.2</ele>
      </trkpt>
      <trkpt lat="41.707306718453765" lon="2.719327015802264">
        <ele>27.8</ele>
      </trkpt>
    </trkseg>
  </trk>
</gpx>
